{
"type": "FeatureCollection",
"name": "springs",
"crs": { "type": "name", "properties": { "name": "urn:ogc:def:crs:OGC:1.3:CRS84" } },
"features": [
{ "type": "Feature", "properties": { "osm_id": "1216800258", "code": 4101, "fclass": "spring", "name": "بئر الذيبي" }, "geometry": { "type": "Point", "coordinates": [ 51.604166, 18.879951 ] } },
{ "type": "Feature", "properties": { "osm_id": "1216800277", "code": 4101, "fclass": "spring", "name": "بئر ابن حمودة" }, "geometry": { "type": "Point", "coordinates": [ 51.829281, 18.909253 ] } },
{ "type": "Feature", "properties": { "osm_id": "1236725903", "code": 4101, "fclass": "spring", "name": "عين السيح" }, "geometry": { "type": "Point", "coordinates": [ 49.076184, 22.9809976 ] } },
{ "type": "Feature", "properties": { "osm_id": "1237537995", "code": 4101, "fclass": "spring", "name": "عين النميصة" }, "geometry": { "type": "Point", "coordinates": [ 41.570278, 27.658611 ] } },
{ "type": "Feature", "properties": { "osm_id": "1237538324", "code": 4101, "fclass": "spring", "name": "عين خويشة" }, "geometry": { "type": "Point", "coordinates": [ 41.591111, 27.624722 ] } },
{ "type": "Feature", "properties": { "osm_id": "1237557682", "code": 4101, "fclass": "spring", "name": "عين حزيمة" }, "geometry": { "type": "Point", "coordinates": [ 42.641389, 26.042778 ] } },
{ "type": "Feature", "properties": { "osm_id": "1622421352", "code": 4101, "fclass": "spring", "name": "Falaj with fresh water" }, "geometry": { "type": "Point", "coordinates": [ 57.4078267, 23.1781314 ] } },
{ "type": "Feature", "properties": { "osm_id": "1645576080", "code": 4101, "fclass": "spring", "name": "Khatt Hot Springs" }, "geometry": { "type": "Point", "coordinates": [ 56.0116699, 25.6177082 ] } },
{ "type": "Feature", "properties": { "osm_id": "1711130543", "code": 4101, "fclass": "spring", "name": "نبع العين الحار" }, "geometry": { "type": "Point", "coordinates": [ 40.4710139, 20.4613585 ] } },
{ "type": "Feature", "properties": { "osm_id": "1716909718", "code": 4101, "fclass": "spring", "name": "حج" }, "geometry": { "type": "Point", "coordinates": [ 58.3, 20.74 ] } },
{ "type": "Feature", "properties": { "osm_id": "1716919853", "code": 4101, "fclass": "spring", "name": "العين" }, "geometry": { "type": "Point", "coordinates": [ 54.8776182, 19.5807177 ] } },
{ "type": "Feature", "properties": { "osm_id": "1716921745", "code": 4101, "fclass": "spring", "name": "عين دوية" }, "geometry": { "type": "Point", "coordinates": [ 58.88, 20.53 ] } },
{ "type": "Feature", "properties": { "osm_id": "1716923084", "code": 4101, "fclass": "spring", "name": "بو صيني" }, "geometry": { "type": "Point", "coordinates": [ 56.06, 22.83 ] } },
{ "type": "Feature", "properties": { "osm_id": "1716931403", "code": 4101, "fclass": "spring", "name": "ملقوتة" }, "geometry": { "type": "Point", "coordinates": [ 56.6, 22.86 ] } },
{ "type": "Feature", "properties": { "osm_id": "1716931628", "code": 4101, "fclass": "spring", "name": "مسرق" }, "geometry": { "type": "Point", "coordinates": [ 56.03, 22.81 ] } },
{ "type": "Feature", "properties": { "osm_id": "1716934119", "code": 4101, "fclass": "spring", "name": "طوي ملقوطة" }, "geometry": { "type": "Point", "coordinates": [ 56.6, 22.86 ] } },
{ "type": "Feature", "properties": { "osm_id": "1716934130", "code": 4101, "fclass": "spring", "name": "طوي مسروق" }, "geometry": { "type": "Point", "coordinates": [ 56.03, 22.81 ] } },
{ "type": "Feature", "properties": { "osm_id": "1716934139", "code": 4101, "fclass": "spring", "name": "طوي مزروك" }, "geometry": { "type": "Point", "coordinates": [ 56.03, 22.81 ] } },
{ "type": "Feature", "properties": { "osm_id": "1716934170", "code": 4101, "fclass": "spring", "name": "طوي مرة" }, "geometry": { "type": "Point", "coordinates": [ 58.78, 22.1400004 ] } },
{ "type": "Feature", "properties": { "osm_id": "1716934213", "code": 4101, "fclass": "spring", "name": "طوي سيح" }, "geometry": { "type": "Point", "coordinates": [ 56.73, 22.82 ] } },
{ "type": "Feature", "properties": { "osm_id": "1716934216", "code": 4101, "fclass": "spring", "name": "طوي شوقب" }, "geometry": { "type": "Point", "coordinates": [ 58.7799998, 22.049999 ] } },
{ "type": "Feature", "properties": { "osm_id": "1716934238", "code": 4101, "fclass": "spring", "name": "طوي ثبوتة" }, "geometry": { "type": "Point", "coordinates": [ 56.59, 22.82 ] } },
{ "type": "Feature", "properties": { "osm_id": "1716934321", "code": 4101, "fclass": "spring", "name": "طاوي زهيب" }, "geometry": { "type": "Point", "coordinates": [ 56.59, 22.79 ] } },
{ "type": "Feature", "properties": { "osm_id": "1716934327", "code": 4101, "fclass": "spring", "name": "طوي زهيب" }, "geometry": { "type": "Point", "coordinates": [ 56.59, 22.79 ] } },
{ "type": "Feature", "properties": { "osm_id": "1716934589", "code": 4101, "fclass": "spring", "name": "أم دبين" }, "geometry": { "type": "Point", "coordinates": [ 56.58, 22.87 ] } },
{ "type": "Feature", "properties": { "osm_id": "1716937667", "code": 4101, "fclass": "spring", "name": "زهيب" }, "geometry": { "type": "Point", "coordinates": [ 56.59, 22.79 ] } },
{ "type": "Feature", "properties": { "osm_id": "1718133326", "code": 4101, "fclass": "spring", "name": "حيل الحداب" }, "geometry": { "type": "Point", "coordinates": [ 57.58, 23.14 ] } },
{ "type": "Feature", "properties": { "osm_id": "1718134275", "code": 4101, "fclass": "spring", "name": "شيبكة" }, "geometry": { "type": "Point", "coordinates": [ 57.5701564, 23.0600938 ] } },
{ "type": "Feature", "properties": { "osm_id": "1719454268", "code": 4101, "fclass": "spring", "name": "طوي مضاحي" }, "geometry": { "type": "Point", "coordinates": [ 55.82, 24.8 ] } },
{ "type": "Feature", "properties": { "osm_id": "1719454275", "code": 4101, "fclass": "spring", "name": "طوي أم طراثيث" }, "geometry": { "type": "Point", "coordinates": [ 55.9100413, 24.8499376 ] } },
{ "type": "Feature", "properties": { "osm_id": "1719454907", "code": 4101, "fclass": "spring", "name": "طوي جنينة" }, "geometry": { "type": "Point", "coordinates": [ 55.95, 24.74 ] } },
{ "type": "Feature", "properties": { "osm_id": "1719455404", "code": 4101, "fclass": "spring", "name": "Tawi Sudayrat - طوي سديرات" }, "geometry": { "type": "Point", "coordinates": [ 56.16, 24.76 ] } },
{ "type": "Feature", "properties": { "osm_id": "1719455427", "code": 4101, "fclass": "spring", "name": "طوي سميني" }, "geometry": { "type": "Point", "coordinates": [ 55.93, 24.67 ] } },
{ "type": "Feature", "properties": { "osm_id": "1719456480", "code": 4101, "fclass": "spring", "name": "طوي سالم" }, "geometry": { "type": "Point", "coordinates": [ 55.85, 24.66 ] } },
{ "type": "Feature", "properties": { "osm_id": "1719501367", "code": 4101, "fclass": "spring", "name": "طوي هيل" }, "geometry": { "type": "Point", "coordinates": [ 56.6300362, 24.1699209 ] } },
{ "type": "Feature", "properties": { "osm_id": "1719501382", "code": 4101, "fclass": "spring", "name": "طوي مريد" }, "geometry": { "type": "Point", "coordinates": [ 56.66, 24.2 ] } },
{ "type": "Feature", "properties": { "osm_id": "1719501384", "code": 4101, "fclass": "spring", "name": "طوي ثقب" }, "geometry": { "type": "Point", "coordinates": [ 56.75, 24.12 ] } },
{ "type": "Feature", "properties": { "osm_id": "1719501396", "code": 4101, "fclass": "spring", "name": "طوي الفرست" }, "geometry": { "type": "Point", "coordinates": [ 56.6299515, 24.170061 ] } },
{ "type": "Feature", "properties": { "osm_id": "1719521630", "code": 4101, "fclass": "spring", "name": "طوي دهوى" }, "geometry": { "type": "Point", "coordinates": [ 56.73, 24.06 ] } },
{ "type": "Feature", "properties": { "osm_id": "1719521657", "code": 4101, "fclass": "spring", "name": "طوي سمة" }, "geometry": { "type": "Point", "coordinates": [ 56.88, 24.04 ] } },
{ "type": "Feature", "properties": { "osm_id": "1719523671", "code": 4101, "fclass": "spring", "name": "طوي ختمة" }, "geometry": { "type": "Point", "coordinates": [ 56.6, 24.29 ] } },
{ "type": "Feature", "properties": { "osm_id": "1719524452", "code": 4101, "fclass": "spring", "name": "طوي الأثيمد" }, "geometry": { "type": "Point", "coordinates": [ 56.05, 24.56 ] } },
{ "type": "Feature", "properties": { "osm_id": "1719528084", "code": 4101, "fclass": "spring", "name": "ذاخر" }, "geometry": { "type": "Point", "coordinates": [ 55.819645, 24.6305618 ] } },
{ "type": "Feature", "properties": { "osm_id": "1719528085", "code": 4101, "fclass": "spring", "name": "ذكر" }, "geometry": { "type": "Point", "coordinates": [ 55.820275, 24.6293699 ] } },
{ "type": "Feature", "properties": { "osm_id": "1719528087", "code": 4101, "fclass": "spring", "name": "ليفعر" }, "geometry": { "type": "Point", "coordinates": [ 55.8101054, 24.6202043 ] } },
{ "type": "Feature", "properties": { "osm_id": "1719528088", "code": 4101, "fclass": "spring", "name": "ليفعت" }, "geometry": { "type": "Point", "coordinates": [ 55.8099309, 24.6199119 ] } },
{ "type": "Feature", "properties": { "osm_id": "1719528091", "code": 4101, "fclass": "spring", "name": "زاخر" }, "geometry": { "type": "Point", "coordinates": [ 55.820891, 24.6306653 ] } },
{ "type": "Feature", "properties": { "osm_id": "1719528167", "code": 4101, "fclass": "spring", "name": "ليفعر" }, "geometry": { "type": "Point", "coordinates": [ 55.82, 24.61 ] } },
{ "type": "Feature", "properties": { "osm_id": "1719528208", "code": 4101, "fclass": "spring", "name": "طوي صفوان" }, "geometry": { "type": "Point", "coordinates": [ 55.84, 24.56 ] } },
{ "type": "Feature", "properties": { "osm_id": "1719528224", "code": 4101, "fclass": "spring", "name": "طوي زاخر" }, "geometry": { "type": "Point", "coordinates": [ 55.86, 24.58 ] } },
{ "type": "Feature", "properties": { "osm_id": "1719535462", "code": 4101, "fclass": "spring", "name": "طوي محضة" }, "geometry": { "type": "Point", "coordinates": [ 56.0, 24.37 ] } },
{ "type": "Feature", "properties": { "osm_id": "1719535494", "code": 4101, "fclass": "spring", "name": "طوي مصيدرة" }, "geometry": { "type": "Point", "coordinates": [ 56.0000089, 24.3600212 ] } },
{ "type": "Feature", "properties": { "osm_id": "1719538176", "code": 4101, "fclass": "spring", "name": "طوي علي بن حمد" }, "geometry": { "type": "Point", "coordinates": [ 55.9, 24.46 ] } },
{ "type": "Feature", "properties": { "osm_id": "1719538183", "code": 4101, "fclass": "spring", "name": "طوي مفيودا" }, "geometry": { "type": "Point", "coordinates": [ 55.95, 24.43 ] } },
{ "type": "Feature", "properties": { "osm_id": "1719538200", "code": 4101, "fclass": "spring", "name": "طوي محمد" }, "geometry": { "type": "Point", "coordinates": [ 55.96, 24.4 ] } },
{ "type": "Feature", "properties": { "osm_id": "1719540297", "code": 4101, "fclass": "spring", "name": "طوي علي بن خميس" }, "geometry": { "type": "Point", "coordinates": [ 55.9700565, 24.280047 ] } },
{ "type": "Feature", "properties": { "osm_id": "1719544537", "code": 4101, "fclass": "spring", "name": "سنوتة" }, "geometry": { "type": "Point", "coordinates": [ 55.51, 23.98 ] } },
{ "type": "Feature", "properties": { "osm_id": "1719544665", "code": 4101, "fclass": "spring", "name": "طوي أبو روس" }, "geometry": { "type": "Point", "coordinates": [ 55.5600178, 23.9500723 ] } },
{ "type": "Feature", "properties": { "osm_id": "1719544669", "code": 4101, "fclass": "spring", "name": "طوي بحيصة" }, "geometry": { "type": "Point", "coordinates": [ 55.66, 23.98 ] } },
{ "type": "Feature", "properties": { "osm_id": "1719544697", "code": 4101, "fclass": "spring", "name": "طوي برير" }, "geometry": { "type": "Point", "coordinates": [ 55.7400035, 23.9499336 ] } },
{ "type": "Feature", "properties": { "osm_id": "1719544719", "code": 4101, "fclass": "spring", "name": "طوي خريص" }, "geometry": { "type": "Point", "coordinates": [ 55.68, 23.96 ] } },
{ "type": "Feature", "properties": { "osm_id": "1719544740", "code": 4101, "fclass": "spring", "name": "طوي مدسوس" }, "geometry": { "type": "Point", "coordinates": [ 55.61, 23.96 ] } },
{ "type": "Feature", "properties": { "osm_id": "1719545917", "code": 4101, "fclass": "spring", "name": "طوي خورة" }, "geometry": { "type": "Point", "coordinates": [ 55.77, 23.79 ] } },
{ "type": "Feature", "properties": { "osm_id": "1719545922", "code": 4101, "fclass": "spring", "name": "طوي قنير" }, "geometry": { "type": "Point", "coordinates": [ 55.7699526, 23.9097973 ] } },
{ "type": "Feature", "properties": { "osm_id": "1719545931", "code": 4101, "fclass": "spring", "name": "طوي سعيد" }, "geometry": { "type": "Point", "coordinates": [ 55.75, 23.84 ] } },
{ "type": "Feature", "properties": { "osm_id": "1719545939", "code": 4101, "fclass": "spring", "name": "طوي الغنية" }, "geometry": { "type": "Point", "coordinates": [ 55.7700109, 23.9100945 ] } },
{ "type": "Feature", "properties": { "osm_id": "1719545946", "code": 4101, "fclass": "spring", "name": "طوي الحلوة" }, "geometry": { "type": "Point", "coordinates": [ 55.78, 23.8 ] } },
{ "type": "Feature", "properties": { "osm_id": "1719546655", "code": 4101, "fclass": "spring", "name": "طوي حجيرة" }, "geometry": { "type": "Point", "coordinates": [ 55.58, 23.73 ] } },
{ "type": "Feature", "properties": { "osm_id": "1719550126", "code": 4101, "fclass": "spring", "name": "طوي العوقان" }, "geometry": { "type": "Point", "coordinates": [ 55.54, 23.61 ] } },
{ "type": "Feature", "properties": { "osm_id": "1719551138", "code": 4101, "fclass": "spring", "name": "طوي جفير حنضلي" }, "geometry": { "type": "Point", "coordinates": [ 55.81, 23.79 ] } },
{ "type": "Feature", "properties": { "osm_id": "1719551142", "code": 4101, "fclass": "spring", "name": "طوي سغابة" }, "geometry": { "type": "Point", "coordinates": [ 55.85, 24.0 ] } },
{ "type": "Feature", "properties": { "osm_id": "1719551147", "code": 4101, "fclass": "spring", "name": "طوي أم الحاسي" }, "geometry": { "type": "Point", "coordinates": [ 55.850141, 23.7201074 ] } },
{ "type": "Feature", "properties": { "osm_id": "1720524498", "code": 4101, "fclass": "spring", "name": "عين حمران" }, "geometry": { "type": "Point", "coordinates": [ 54.29, 17.09 ] } },
{ "type": "Feature", "properties": { "osm_id": "1720782720", "code": 4101, "fclass": "spring", "name": "طوي شيخ" }, "geometry": { "type": "Point", "coordinates": [ 58.9097123, 23.2308561 ] } },
{ "type": "Feature", "properties": { "osm_id": "1720813078", "code": 4101, "fclass": "spring", "name": "طوي خجم" }, "geometry": { "type": "Point", "coordinates": [ 58.52, 23.25 ] } },
{ "type": "Feature", "properties": { "osm_id": "1720846941", "code": 4101, "fclass": "spring", "name": "طوي أثامية" }, "geometry": { "type": "Point", "coordinates": [ 55.79, 24.48 ] } },
{ "type": "Feature", "properties": { "osm_id": "1720850947", "code": 4101, "fclass": "spring", "name": "قاعية" }, "geometry": { "type": "Point", "coordinates": [ 55.99, 24.64 ] } },
{ "type": "Feature", "properties": { "osm_id": "1720850954", "code": 4101, "fclass": "spring", "name": "طوي بن المدي" }, "geometry": { "type": "Point", "coordinates": [ 56.03, 24.62 ] } },
{ "type": "Feature", "properties": { "osm_id": "1720850964", "code": 4101, "fclass": "spring", "name": "طوي مديلة" }, "geometry": { "type": "Point", "coordinates": [ 56.02, 24.63 ] } },
{ "type": "Feature", "properties": { "osm_id": "1720850968", "code": 4101, "fclass": "spring", "name": "طوي مزيجرة" }, "geometry": { "type": "Point", "coordinates": [ 56.019442, 24.622358 ] } },
{ "type": "Feature", "properties": { "osm_id": "1720850974", "code": 4101, "fclass": "spring", "name": "طوي الأهرامية" }, "geometry": { "type": "Point", "coordinates": [ 56.0188645, 24.6200187 ] } },
{ "type": "Feature", "properties": { "osm_id": "1720851603", "code": 4101, "fclass": "spring", "name": "طوي عقدة" }, "geometry": { "type": "Point", "coordinates": [ 55.840258, 24.2595628 ] } },
{ "type": "Feature", "properties": { "osm_id": "1720853408", "code": 4101, "fclass": "spring", "name": "أم غافة" }, "geometry": { "type": "Point", "coordinates": [ 55.85, 24.16 ] } },
{ "type": "Feature", "properties": { "osm_id": "1720853435", "code": 4101, "fclass": "spring", "name": "طوي ملاقات" }, "geometry": { "type": "Point", "coordinates": [ 55.94, 24.16 ] } },
{ "type": "Feature", "properties": { "osm_id": "1720853436", "code": 4101, "fclass": "spring", "name": "طوي أم بك" }, "geometry": { "type": "Point", "coordinates": [ 55.96, 24.23 ] } },
{ "type": "Feature", "properties": { "osm_id": "1720853437", "code": 4101, "fclass": "spring", "name": "طوي عويير" }, "geometry": { "type": "Point", "coordinates": [ 55.97, 24.15 ] } },
{ "type": "Feature", "properties": { "osm_id": "1720853438", "code": 4101, "fclass": "spring", "name": "طوي الرواشد" }, "geometry": { "type": "Point", "coordinates": [ 55.95, 24.23 ] } },
{ "type": "Feature", "properties": { "osm_id": "1720853439", "code": 4101, "fclass": "spring", "name": "ثقبة ساعة" }, "geometry": { "type": "Point", "coordinates": [ 56.02, 24.08 ] } },
{ "type": "Feature", "properties": { "osm_id": "1720853767", "code": 4101, "fclass": "spring", "name": "طوي عبيلة" }, "geometry": { "type": "Point", "coordinates": [ 56.17, 24.22 ] } },
{ "type": "Feature", "properties": { "osm_id": "1720854346", "code": 4101, "fclass": "spring", "name": "تريرخة" }, "geometry": { "type": "Point", "coordinates": [ 56.18, 24.23 ] } },
{ "type": "Feature", "properties": { "osm_id": "1720855496", "code": 4101, "fclass": "spring", "name": "طوي فلية" }, "geometry": { "type": "Point", "coordinates": [ 56.0, 23.94 ] } },
{ "type": "Feature", "properties": { "osm_id": "1720855956", "code": 4101, "fclass": "spring", "name": "الحاتمية" }, "geometry": { "type": "Point", "coordinates": [ 55.8696785, 23.8606494 ] } },
{ "type": "Feature", "properties": { "osm_id": "1720856087", "code": 4101, "fclass": "spring", "name": "طوي بدر الخل" }, "geometry": { "type": "Point", "coordinates": [ 56.32, 23.83 ] } },
{ "type": "Feature", "properties": { "osm_id": "1720856095", "code": 4101, "fclass": "spring", "name": "طوي هرم" }, "geometry": { "type": "Point", "coordinates": [ 56.35, 23.83 ] } },
{ "type": "Feature", "properties": { "osm_id": "1720856109", "code": 4101, "fclass": "spring", "name": "طوي هتمية" }, "geometry": { "type": "Point", "coordinates": [ 55.8703383, 23.8592841 ] } },
{ "type": "Feature", "properties": { "osm_id": "1720856115", "code": 4101, "fclass": "spring", "name": "طوي الجبرة" }, "geometry": { "type": "Point", "coordinates": [ 56.38, 23.84 ] } },
{ "type": "Feature", "properties": { "osm_id": "1721751284", "code": 4101, "fclass": "spring", "name": "طاوي زهيب" }, "geometry": { "type": "Point", "coordinates": [ 56.5894827, 22.7895086 ] } },
{ "type": "Feature", "properties": { "osm_id": "1721751285", "code": 4101, "fclass": "spring", "name": "طوي زهيب" }, "geometry": { "type": "Point", "coordinates": [ 56.5900157, 22.790607 ] } },
{ "type": "Feature", "properties": { "osm_id": "1721759623", "code": 4101, "fclass": "spring", "name": "الكبشات" }, "geometry": { "type": "Point", "coordinates": [ 56.6200015, 22.900071 ] } },
{ "type": "Feature", "properties": { "osm_id": "1721759635", "code": 4101, "fclass": "spring", "name": "قبيشة" }, "geometry": { "type": "Point", "coordinates": [ 56.6199735, 22.8999214 ] } },
{ "type": "Feature", "properties": { "osm_id": "1721766833", "code": 4101, "fclass": "spring", "name": "بو ملق" }, "geometry": { "type": "Point", "coordinates": [ 56.07, 23.06 ] } },
{ "type": "Feature", "properties": { "osm_id": "1721766845", "code": 4101, "fclass": "spring", "name": "خويسة" }, "geometry": { "type": "Point", "coordinates": [ 56.12, 23.02 ] } },
{ "type": "Feature", "properties": { "osm_id": "1721768537", "code": 4101, "fclass": "spring", "name": "ملقوتة" }, "geometry": { "type": "Point", "coordinates": [ 56.5998901, 22.8601844 ] } },
{ "type": "Feature", "properties": { "osm_id": "1721768538", "code": 4101, "fclass": "spring", "name": "طوي ملقوطة" }, "geometry": { "type": "Point", "coordinates": [ 56.6000078, 22.8598698 ] } },
{ "type": "Feature", "properties": { "osm_id": "1721772330", "code": 4101, "fclass": "spring", "name": "سيفم" }, "geometry": { "type": "Point", "coordinates": [ 56.92, 23.17 ] } },
{ "type": "Feature", "properties": { "osm_id": "1721772336", "code": 4101, "fclass": "spring", "name": "طوي مضيربات" }, "geometry": { "type": "Point", "coordinates": [ 56.91, 23.08 ] } },
{ "type": "Feature", "properties": { "osm_id": "1721772340", "code": 4101, "fclass": "spring", "name": "طوي الكهوف" }, "geometry": { "type": "Point", "coordinates": [ 56.91, 23.18 ] } },
{ "type": "Feature", "properties": { "osm_id": "1721773494", "code": 4101, "fclass": "spring", "name": "مسرق" }, "geometry": { "type": "Point", "coordinates": [ 56.0303994, 22.8048455 ] } },
{ "type": "Feature", "properties": { "osm_id": "1721773495", "code": 4101, "fclass": "spring", "name": "طوي مسروق" }, "geometry": { "type": "Point", "coordinates": [ 56.0319971, 22.8120454 ] } },
{ "type": "Feature", "properties": { "osm_id": "1721773713", "code": 4101, "fclass": "spring", "name": "أبو حضيب الحلو" }, "geometry": { "type": "Point", "coordinates": [ 56.49, 22.97 ] } },
{ "type": "Feature", "properties": { "osm_id": "1721773923", "code": 4101, "fclass": "spring", "name": "قارحة أم الهيش" }, "geometry": { "type": "Point", "coordinates": [ 56.46, 23.13 ] } },
{ "type": "Feature", "properties": { "osm_id": "1721773937", "code": 4101, "fclass": "spring", "name": "شبهن مويه سليمان" }, "geometry": { "type": "Point", "coordinates": [ 56.17, 22.92 ] } },
{ "type": "Feature", "properties": { "osm_id": "1721773972", "code": 4101, "fclass": "spring", "name": "طوي بو مالق" }, "geometry": { "type": "Point", "coordinates": [ 55.97, 23.06 ] } },
{ "type": "Feature", "properties": { "osm_id": "1721773984", "code": 4101, "fclass": "spring", "name": "طوي لقطة" }, "geometry": { "type": "Point", "coordinates": [ 56.25, 23.15 ] } },
{ "type": "Feature", "properties": { "osm_id": "1721773996", "code": 4101, "fclass": "spring", "name": "طوي سيدي" }, "geometry": { "type": "Point", "coordinates": [ 55.62, 23.07 ] } },
{ "type": "Feature", "properties": { "osm_id": "1721773997", "code": 4101, "fclass": "spring", "name": "طوي توارش" }, "geometry": { "type": "Point", "coordinates": [ 56.42, 23.18 ] } },
{ "type": "Feature", "properties": { "osm_id": "1721774003", "code": 4101, "fclass": "spring", "name": "طوي الخويرة" }, "geometry": { "type": "Point", "coordinates": [ 55.76, 23.15 ] } },
{ "type": "Feature", "properties": { "osm_id": "1721774004", "code": 4101, "fclass": "spring", "name": "طويياه الغيتية" }, "geometry": { "type": "Point", "coordinates": [ 56.44, 23.13 ] } },
{ "type": "Feature", "properties": { "osm_id": "1721774006", "code": 4101, "fclass": "spring", "name": "طوييان هيلة" }, "geometry": { "type": "Point", "coordinates": [ 56.42, 23.13 ] } },
{ "type": "Feature", "properties": { "osm_id": "1721792483", "code": 4101, "fclass": "spring", "name": "مخيليف" }, "geometry": { "type": "Point", "coordinates": [ 56.4799462, 23.619915 ] } },
{ "type": "Feature", "properties": { "osm_id": "1721792490", "code": 4101, "fclass": "spring", "name": "مشير" }, "geometry": { "type": "Point", "coordinates": [ 56.4801397, 23.620323 ] } },
{ "type": "Feature", "properties": { "osm_id": "1721797651", "code": 4101, "fclass": "spring", "name": "طوي جفار" }, "geometry": { "type": "Point", "coordinates": [ 56.27, 23.53 ] } },
{ "type": "Feature", "properties": { "osm_id": "1721797662", "code": 4101, "fclass": "spring", "name": "طوي محمد" }, "geometry": { "type": "Point", "coordinates": [ 56.27, 23.52 ] } },
{ "type": "Feature", "properties": { "osm_id": "1721797691", "code": 4101, "fclass": "spring", "name": "طوي الحصن" }, "geometry": { "type": "Point", "coordinates": [ 56.25, 23.43 ] } },
{ "type": "Feature", "properties": { "osm_id": "1721799866", "code": 4101, "fclass": "spring", "name": "طوي زايد" }, "geometry": { "type": "Point", "coordinates": [ 56.22, 23.44 ] } },
{ "type": "Feature", "properties": { "osm_id": "1721799870", "code": 4101, "fclass": "spring", "name": "طوي النخيرة بن سعيد" }, "geometry": { "type": "Point", "coordinates": [ 56.2104083, 23.4500729 ] } },
{ "type": "Feature", "properties": { "osm_id": "1721801247", "code": 4101, "fclass": "spring", "name": "طاوي طميمي" }, "geometry": { "type": "Point", "coordinates": [ 56.3201506, 23.320386 ] } },
{ "type": "Feature", "properties": { "osm_id": "1721807917", "code": 4101, "fclass": "spring", "name": "طوي خليفة بن علي" }, "geometry": { "type": "Point", "coordinates": [ 56.75, 23.41 ] } },
{ "type": "Feature", "properties": { "osm_id": "1721807918", "code": 4101, "fclass": "spring", "name": "طوي مرباخ" }, "geometry": { "type": "Point", "coordinates": [ 56.7497548, 23.4202659 ] } },
{ "type": "Feature", "properties": { "osm_id": "1721807919", "code": 4101, "fclass": "spring", "name": "طوي قرن كبش" }, "geometry": { "type": "Point", "coordinates": [ 56.68, 23.38 ] } },
{ "type": "Feature", "properties": { "osm_id": "1721807920", "code": 4101, "fclass": "spring", "name": "ثقبة العارض" }, "geometry": { "type": "Point", "coordinates": [ 56.6600346, 23.4599336 ] } },
{ "type": "Feature", "properties": { "osm_id": "1721808165", "code": 4101, "fclass": "spring", "name": "طوي موفية" }, "geometry": { "type": "Point", "coordinates": [ 55.98, 23.82 ] } },
{ "type": "Feature", "properties": { "osm_id": "1721808167", "code": 4101, "fclass": "spring", "name": "السلاحية" }, "geometry": { "type": "Point", "coordinates": [ 55.8922921, 23.7976714 ] } },
{ "type": "Feature", "properties": { "osm_id": "1721808169", "code": 4101, "fclass": "spring", "name": "طوي حجي" }, "geometry": { "type": "Point", "coordinates": [ 56.04, 23.65 ] } },
{ "type": "Feature", "properties": { "osm_id": "1721808378", "code": 4101, "fclass": "spring", "name": "طوي أبدية" }, "geometry": { "type": "Point", "coordinates": [ 56.06, 23.61 ] } },
{ "type": "Feature", "properties": { "osm_id": "1721808379", "code": 4101, "fclass": "spring", "name": "طوي بحيصة" }, "geometry": { "type": "Point", "coordinates": [ 55.92, 23.63 ] } },
{ "type": "Feature", "properties": { "osm_id": "1721808381", "code": 4101, "fclass": "spring", "name": "طوي هسة" }, "geometry": { "type": "Point", "coordinates": [ 55.77, 23.41 ] } },
{ "type": "Feature", "properties": { "osm_id": "1721808382", "code": 4101, "fclass": "spring", "name": "طوي مرخ" }, "geometry": { "type": "Point", "coordinates": [ 55.6999469, 23.2699453 ] } },
{ "type": "Feature", "properties": { "osm_id": "1721808383", "code": 4101, "fclass": "spring", "name": "طوي مهين" }, "geometry": { "type": "Point", "coordinates": [ 56.05, 23.76 ] } },
{ "type": "Feature", "properties": { "osm_id": "1721808384", "code": 4101, "fclass": "spring", "name": "طوي ملتقى" }, "geometry": { "type": "Point", "coordinates": [ 55.94, 23.5 ] } },
{ "type": "Feature", "properties": { "osm_id": "1721808389", "code": 4101, "fclass": "spring", "name": "طوي مسافرة" }, "geometry": { "type": "Point", "coordinates": [ 55.53, 23.28 ] } },
{ "type": "Feature", "properties": { "osm_id": "1721808396", "code": 4101, "fclass": "spring", "name": "طوي نسلة" }, "geometry": { "type": "Point", "coordinates": [ 55.75, 23.42 ] } },
{ "type": "Feature", "properties": { "osm_id": "1721808410", "code": 4101, "fclass": "spring", "name": "طوي قريدة" }, "geometry": { "type": "Point", "coordinates": [ 55.8, 23.42 ] } },
{ "type": "Feature", "properties": { "osm_id": "1721808411", "code": 4101, "fclass": "spring", "name": "طوي راشد" }, "geometry": { "type": "Point", "coordinates": [ 55.89, 23.81 ] } },
{ "type": "Feature", "properties": { "osm_id": "1721808426", "code": 4101, "fclass": "spring", "name": "طوي صفى" }, "geometry": { "type": "Point", "coordinates": [ 55.71, 23.44 ] } },
{ "type": "Feature", "properties": { "osm_id": "1721808431", "code": 4101, "fclass": "spring", "name": "طوي صلاحية" }, "geometry": { "type": "Point", "coordinates": [ 55.8880715, 23.8016488 ] } },
{ "type": "Feature", "properties": { "osm_id": "1721808441", "code": 4101, "fclass": "spring", "name": "طوي شرقية" }, "geometry": { "type": "Point", "coordinates": [ 55.77, 23.43 ] } },
{ "type": "Feature", "properties": { "osm_id": "1721808451", "code": 4101, "fclass": "spring", "name": "طوي تريمية" }, "geometry": { "type": "Point", "coordinates": [ 55.62, 23.28 ] } },
{ "type": "Feature", "properties": { "osm_id": "1721808455", "code": 4101, "fclass": "spring", "name": "طوي أم الفقحة" }, "geometry": { "type": "Point", "coordinates": [ 55.72, 23.44 ] } },
{ "type": "Feature", "properties": { "osm_id": "1721808470", "code": 4101, "fclass": "spring", "name": "طوي عوير" }, "geometry": { "type": "Point", "coordinates": [ 55.6, 23.28 ] } },
{ "type": "Feature", "properties": { "osm_id": "1721808473", "code": 4101, "fclass": "spring", "name": "طوي البزيلي" }, "geometry": { "type": "Point", "coordinates": [ 56.05, 23.61 ] } },
{ "type": "Feature", "properties": { "osm_id": "1721809278", "code": 4101, "fclass": "spring", "name": "الحياز" }, "geometry": { "type": "Point", "coordinates": [ 56.17, 23.55 ] } },
{ "type": "Feature", "properties": { "osm_id": "1721809283", "code": 4101, "fclass": "spring", "name": "هيفة" }, "geometry": { "type": "Point", "coordinates": [ 56.2090773, 23.5487017 ] } },
{ "type": "Feature", "properties": { "osm_id": "1721809284", "code": 4101, "fclass": "spring", "name": "حيلس" }, "geometry": { "type": "Point", "coordinates": [ 56.31, 23.66 ] } },
{ "type": "Feature", "properties": { "osm_id": "1721809294", "code": 4101, "fclass": "spring", "name": "مزينة" }, "geometry": { "type": "Point", "coordinates": [ 56.43, 23.63 ] } },
{ "type": "Feature", "properties": { "osm_id": "1721809296", "code": 4101, "fclass": "spring", "name": "قارحة شرية" }, "geometry": { "type": "Point", "coordinates": [ 56.38, 23.19 ] } },
{ "type": "Feature", "properties": { "osm_id": "1721809300", "code": 4101, "fclass": "spring", "name": "طوي أوامر" }, "geometry": { "type": "Point", "coordinates": [ 56.35, 23.76 ] } },
{ "type": "Feature", "properties": { "osm_id": "1721809301", "code": 4101, "fclass": "spring", "name": "طوي بخيتة" }, "geometry": { "type": "Point", "coordinates": [ 56.36, 23.65 ] } },
{ "type": "Feature", "properties": { "osm_id": "1721809302", "code": 4101, "fclass": "spring", "name": "طوي هويدف" }, "geometry": { "type": "Point", "coordinates": [ 56.3, 23.31 ] } },
{ "type": "Feature", "properties": { "osm_id": "1721809303", "code": 4101, "fclass": "spring", "name": "طوي جورة" }, "geometry": { "type": "Point", "coordinates": [ 56.39, 23.73 ] } },
{ "type": "Feature", "properties": { "osm_id": "1721809304", "code": 4101, "fclass": "spring", "name": "طوي ميدان" }, "geometry": { "type": "Point", "coordinates": [ 56.39, 23.82 ] } },
{ "type": "Feature", "properties": { "osm_id": "1721809306", "code": 4101, "fclass": "spring", "name": "طوي سالمة" }, "geometry": { "type": "Point", "coordinates": [ 56.4, 23.81 ] } },
{ "type": "Feature", "properties": { "osm_id": "1721809307", "code": 4101, "fclass": "spring", "name": "طوي شيوعية" }, "geometry": { "type": "Point", "coordinates": [ 56.36, 23.76 ] } },
{ "type": "Feature", "properties": { "osm_id": "1721809308", "code": 4101, "fclass": "spring", "name": "طوي صفية" }, "geometry": { "type": "Point", "coordinates": [ 56.14, 23.67 ] } },
{ "type": "Feature", "properties": { "osm_id": "1721809309", "code": 4101, "fclass": "spring", "name": "طوي القرى" }, "geometry": { "type": "Point", "coordinates": [ 56.1199951, 23.5499245 ] } },
{ "type": "Feature", "properties": { "osm_id": "1721809310", "code": 4101, "fclass": "spring", "name": "طوي القرد" }, "geometry": { "type": "Point", "coordinates": [ 56.1199926, 23.5500714 ] } },
{ "type": "Feature", "properties": { "osm_id": "1721809311", "code": 4101, "fclass": "spring", "name": "طويان العقارية" }, "geometry": { "type": "Point", "coordinates": [ 56.38, 23.33 ] } },
{ "type": "Feature", "properties": { "osm_id": "1721809312", "code": 4101, "fclass": "spring", "name": "طوييان الصبيخي" }, "geometry": { "type": "Point", "coordinates": [ 56.35, 23.34 ] } },
{ "type": "Feature", "properties": { "osm_id": "1721813118", "code": 4101, "fclass": "spring", "name": "مقنييات" }, "geometry": { "type": "Point", "coordinates": [ 56.93, 23.37 ] } },
{ "type": "Feature", "properties": { "osm_id": "1721813509", "code": 4101, "fclass": "spring", "name": "طوي حريث" }, "geometry": { "type": "Point", "coordinates": [ 57.03, 23.3101229 ] } },
{ "type": "Feature", "properties": { "osm_id": "1721813518", "code": 4101, "fclass": "spring", "name": "طوي خابورة" }, "geometry": { "type": "Point", "coordinates": [ 56.94, 23.2 ] } },
{ "type": "Feature", "properties": { "osm_id": "1721813533", "code": 4101, "fclass": "spring", "name": "طوي مجيح" }, "geometry": { "type": "Point", "coordinates": [ 57.02, 23.31 ] } },
{ "type": "Feature", "properties": { "osm_id": "1721813540", "code": 4101, "fclass": "spring", "name": "طوي شخارة" }, "geometry": { "type": "Point", "coordinates": [ 57.07, 23.44 ] } },
{ "type": "Feature", "properties": { "osm_id": "1721813556", "code": 4101, "fclass": "spring", "name": "طوي البساتين" }, "geometry": { "type": "Point", "coordinates": [ 57.03, 23.32 ] } },
{ "type": "Feature", "properties": { "osm_id": "1721813566", "code": 4101, "fclass": "spring", "name": "طوي الجيل" }, "geometry": { "type": "Point", "coordinates": [ 57.040076, 23.2599751 ] } },
{ "type": "Feature", "properties": { "osm_id": "1721860442", "code": 4101, "fclass": "spring", "name": "سلي" }, "geometry": { "type": "Point", "coordinates": [ 57.39, 23.61 ] } },
{ "type": "Feature", "properties": { "osm_id": "1722028499", "code": 4101, "fclass": "spring", "name": "طوي شرقية" }, "geometry": { "type": "Point", "coordinates": [ 57.34, 23.28 ] } },
{ "type": "Feature", "properties": { "osm_id": "2018137493", "code": 4101, "fclass": "spring", "name": "" }, "geometry": { "type": "Point", "coordinates": [ 57.0812054, 23.2321447 ] } },
{ "type": "Feature", "properties": { "osm_id": "3277599850", "code": 4101, "fclass": "spring", "name": "" }, "geometry": { "type": "Point", "coordinates": [ 53.2702129, 18.8235597 ] } },
{ "type": "Feature", "properties": { "osm_id": "3277599851", "code": 4101, "fclass": "spring", "name": "" }, "geometry": { "type": "Point", "coordinates": [ 53.3423444, 19.0624725 ] } },
{ "type": "Feature", "properties": { "osm_id": "3722507888", "code": 4101, "fclass": "spring", "name": "منبع الفلج" }, "geometry": { "type": "Point", "coordinates": [ 56.5122519, 23.7120039 ] } },
{ "type": "Feature", "properties": { "osm_id": "3790286367", "code": 4101, "fclass": "spring", "name": "Shis Pools" }, "geometry": { "type": "Point", "coordinates": [ 56.2445052, 25.2922184 ] } },
{ "type": "Feature", "properties": { "osm_id": "4213584489", "code": 4101, "fclass": "spring", "name": "العوير الشاحنات" }, "geometry": { "type": "Point", "coordinates": [ 55.3885309, 25.168835 ] } },
{ "type": "Feature", "properties": { "osm_id": "4239059621", "code": 4101, "fclass": "spring", "name": "حمراء الدروع" }, "geometry": { "type": "Point", "coordinates": [ 56.7483218, 22.5637194 ] } },
{ "type": "Feature", "properties": { "osm_id": "4247298790", "code": 4101, "fclass": "spring", "name": "ال عامران" }, "geometry": { "type": "Point", "coordinates": [ 54.6933975, 24.5872571 ] } },
{ "type": "Feature", "properties": { "osm_id": "4250075799", "code": 4101, "fclass": "spring", "name": "فندق الدانه الشارقه" }, "geometry": { "type": "Point", "coordinates": [ 55.3947161, 25.3613718 ] } },
{ "type": "Feature", "properties": { "osm_id": "4252262297", "code": 4101, "fclass": "spring", "name": "فحص سيارات" }, "geometry": { "type": "Point", "coordinates": [ 55.419172, 25.1513451 ] } },
{ "type": "Feature", "properties": { "osm_id": "4269664093", "code": 4101, "fclass": "spring", "name": "المزيونه" }, "geometry": { "type": "Point", "coordinates": [ 52.6578552, 17.844889 ] } },
{ "type": "Feature", "properties": { "osm_id": "4341865689", "code": 4101, "fclass": "spring", "name": "قرن الرويبية" }, "geometry": { "type": "Point", "coordinates": [ 56.37289, 23.645955 ] } },
{ "type": "Feature", "properties": { "osm_id": "4342353090", "code": 4101, "fclass": "spring", "name": "سوق المواشي" }, "geometry": { "type": "Point", "coordinates": [ 54.0320699, 17.0289519 ] } },
{ "type": "Feature", "properties": { "osm_id": "4343845992", "code": 4101, "fclass": "spring", "name": "شاطئ الصيادين" }, "geometry": { "type": "Point", "coordinates": [ 53.9989074, 16.9624564 ] } },
{ "type": "Feature", "properties": { "osm_id": "4407407395", "code": 4101, "fclass": "spring", "name": "مسار عين طبق" }, "geometry": { "type": "Point", "coordinates": [ 54.3261138, 17.0983127 ] } },
{ "type": "Feature", "properties": { "osm_id": "4407435590", "code": 4101, "fclass": "spring", "name": "Ayn Tabraq" }, "geometry": { "type": "Point", "coordinates": [ 54.3265422, 17.1003757 ] } },
{ "type": "Feature", "properties": { "osm_id": "4452619590", "code": 4101, "fclass": "spring", "name": "Hellmann Worldwide Logistics" }, "geometry": { "type": "Point", "coordinates": [ 54.5156754, 24.3614036 ] } },
{ "type": "Feature", "properties": { "osm_id": "4485346816", "code": 4101, "fclass": "spring", "name": "Ain Al Thuwarah" }, "geometry": { "type": "Point", "coordinates": [ 57.828463, 23.3754117 ] } },
{ "type": "Feature", "properties": { "osm_id": "4990466123", "code": 4101, "fclass": "spring", "name": "TIMKEN BEARING" }, "geometry": { "type": "Point", "coordinates": [ 58.3679459, 23.5768065 ] } },
{ "type": "Feature", "properties": { "osm_id": "5047423229", "code": 4101, "fclass": "spring", "name": "قتبيت" }, "geometry": { "type": "Point", "coordinates": [ 54.5013181, 19.176452 ] } },
{ "type": "Feature", "properties": { "osm_id": "5385867822", "code": 4101, "fclass": "spring", "name": "Al Hamam Hot Spring" }, "geometry": { "type": "Point", "coordinates": [ 58.3236588, 23.4701899 ] } },
{ "type": "Feature", "properties": { "osm_id": "5789126455", "code": 4101, "fclass": "spring", "name": "" }, "geometry": { "type": "Point", "coordinates": [ 54.1489792, 17.2316972 ] } },
{ "type": "Feature", "properties": { "osm_id": "5789127654", "code": 4101, "fclass": "spring", "name": "" }, "geometry": { "type": "Point", "coordinates": [ 54.0669183, 17.2149826 ] } },
{ "type": "Feature", "properties": { "osm_id": "5809234153", "code": 4101, "fclass": "spring", "name": "عين إيشات" }, "geometry": { "type": "Point", "coordinates": [ 53.8180307, 16.9945743 ] } },
{ "type": "Feature", "properties": { "osm_id": "5827137487", "code": 4101, "fclass": "spring", "name": "" }, "geometry": { "type": "Point", "coordinates": [ 54.6082525, 17.0540808 ] } },
{ "type": "Feature", "properties": { "osm_id": "6077371893", "code": 4101, "fclass": "spring", "name": "خور العوامر" }, "geometry": { "type": "Point", "coordinates": [ 59.7301112, 22.4867657 ] } },
{ "type": "Feature", "properties": { "osm_id": "6126160509", "code": 4101, "fclass": "spring", "name": "FAY-NE-15" }, "geometry": { "type": "Point", "coordinates": [ 55.8484938, 25.1234863 ] } },
{ "type": "Feature", "properties": { "osm_id": "6269885801", "code": 4101, "fclass": "spring", "name": "عين ماء غلا" }, "geometry": { "type": "Point", "coordinates": [ 58.3834398, 23.5290545 ] } },
{ "type": "Feature", "properties": { "osm_id": "6715268185", "code": 4101, "fclass": "spring", "name": "فيلا استاذه زكيه" }, "geometry": { "type": "Point", "coordinates": [ 58.3627545, 23.5604307 ] } },
{ "type": "Feature", "properties": { "osm_id": "6937224535", "code": 4101, "fclass": "spring", "name": "عين حبينوت" }, "geometry": { "type": "Point", "coordinates": [ 53.05946, 16.653209 ] } },
{ "type": "Feature", "properties": { "osm_id": "7019489699", "code": 4101, "fclass": "spring", "name": "عين صهبان" }, "geometry": { "type": "Point", "coordinates": [ 56.3153869, 24.185299 ] } },
{ "type": "Feature", "properties": { "osm_id": "7080389459", "code": 4101, "fclass": "spring", "name": "Al Hashman" }, "geometry": { "type": "Point", "coordinates": [ 53.1012268, 18.4559726 ] } },
{ "type": "Feature", "properties": { "osm_id": "7140608374", "code": 4101, "fclass": "spring", "name": "بئر الأخاشيم" }, "geometry": { "type": "Point", "coordinates": [ 47.7812309, 17.5334511 ] } },
{ "type": "Feature", "properties": { "osm_id": "7140898056", "code": 4101, "fclass": "spring", "name": "بئر شريفة" }, "geometry": { "type": "Point", "coordinates": [ 50.6545448, 18.7662735 ] } },
{ "type": "Feature", "properties": { "osm_id": "7140929341", "code": 4101, "fclass": "spring", "name": "بئر دريب" }, "geometry": { "type": "Point", "coordinates": [ 51.6042023, 18.8804836 ] } },
{ "type": "Feature", "properties": { "osm_id": "7141251462", "code": 4101, "fclass": "spring", "name": "خور الحفرة" }, "geometry": { "type": "Point", "coordinates": [ 54.5226593, 19.8335438 ] } },
{ "type": "Feature", "properties": { "osm_id": "7141251750", "code": 4101, "fclass": "spring", "name": "خور ابن عنودة" }, "geometry": { "type": "Point", "coordinates": [ 54.7565651, 19.8215714 ] } },
{ "type": "Feature", "properties": { "osm_id": "7141307125", "code": 4101, "fclass": "spring", "name": "خور الذيبي" }, "geometry": { "type": "Point", "coordinates": [ 51.3405685, 18.8432007 ] } },
{ "type": "Feature", "properties": { "osm_id": "7141410882", "code": 4101, "fclass": "spring", "name": "خور الشريط" }, "geometry": { "type": "Point", "coordinates": [ 54.9551659, 19.9240799 ] } },
{ "type": "Feature", "properties": { "osm_id": "7142011281", "code": 4101, "fclass": "spring", "name": "خور المحفورة" }, "geometry": { "type": "Point", "coordinates": [ 51.5050507, 18.8533497 ] } },
{ "type": "Feature", "properties": { "osm_id": "7142019673", "code": 4101, "fclass": "spring", "name": "خور أم الزمول" }, "geometry": { "type": "Point", "coordinates": [ 55.2134819, 22.703804 ] } },
{ "type": "Feature", "properties": { "osm_id": "7142086935", "code": 4101, "fclass": "spring", "name": "خور محفورة" }, "geometry": { "type": "Point", "coordinates": [ 54.7990189, 19.8797169 ] } },
{ "type": "Feature", "properties": { "osm_id": "7194504311", "code": 4101, "fclass": "spring", "name": "عين يوسف" }, "geometry": { "type": "Point", "coordinates": [ 50.5919418, 26.1573857 ] } },
{ "type": "Feature", "properties": { "osm_id": "7196156359", "code": 4101, "fclass": "spring", "name": "عين عبد الله" }, "geometry": { "type": "Point", "coordinates": [ 50.5858053, 26.1552611 ] } },
{ "type": "Feature", "properties": { "osm_id": "7226719498", "code": 4101, "fclass": "spring", "name": "عين جزرة" }, "geometry": { "type": "Point", "coordinates": [ 44.7648697, 26.4935221 ] } },
{ "type": "Feature", "properties": { "osm_id": "7322100785", "code": 4101, "fclass": "spring", "name": "RA 257" }, "geometry": { "type": "Point", "coordinates": [ 47.7660659, 29.8568797 ] } },
{ "type": "Feature", "properties": { "osm_id": "7349826985", "code": 4101, "fclass": "spring", "name": "RA-425" }, "geometry": { "type": "Point", "coordinates": [ 47.7360531, 29.8571398 ] } },
{ "type": "Feature", "properties": { "osm_id": "7350120785", "code": 4101, "fclass": "spring", "name": "SA-604" }, "geometry": { "type": "Point", "coordinates": [ 47.8509904, 29.8091045 ] } },
{ "type": "Feature", "properties": { "osm_id": "7350195985", "code": 4101, "fclass": "spring", "name": "SA-604" }, "geometry": { "type": "Point", "coordinates": [ 47.8509679, 29.8091734 ] } },
{ "type": "Feature", "properties": { "osm_id": "7353840985", "code": 4101, "fclass": "spring", "name": "SA-604" }, "geometry": { "type": "Point", "coordinates": [ 47.8118229, 29.7767427 ] } },
{ "type": "Feature", "properties": { "osm_id": "7353868186", "code": 4101, "fclass": "spring", "name": "SA-604" }, "geometry": { "type": "Point", "coordinates": [ 47.8253437, 29.7940605 ] } },
{ "type": "Feature", "properties": { "osm_id": "7357770085", "code": 4101, "fclass": "spring", "name": "SA-135" }, "geometry": { "type": "Point", "coordinates": [ 47.667059, 29.7363167 ] } },
{ "type": "Feature", "properties": { "osm_id": "7357785785", "code": 4101, "fclass": "spring", "name": "SA-43" }, "geometry": { "type": "Point", "coordinates": [ 47.8509297, 29.8090634 ] } },
{ "type": "Feature", "properties": { "osm_id": "7357881985", "code": 4101, "fclass": "spring", "name": "SA-634" }, "geometry": { "type": "Point", "coordinates": [ 47.8635335, 29.8734974 ] } },
{ "type": "Feature", "properties": { "osm_id": "7358002185", "code": 4101, "fclass": "spring", "name": "RA-428" }, "geometry": { "type": "Point", "coordinates": [ 47.8640066, 29.8733261 ] } },
{ "type": "Feature", "properties": { "osm_id": "7358490285", "code": 4101, "fclass": "spring", "name": "BH-105" }, "geometry": { "type": "Point", "coordinates": [ 47.8840817, 29.6364987 ] } },
{ "type": "Feature", "properties": { "osm_id": "7358507385", "code": 4101, "fclass": "spring", "name": "BH-121" }, "geometry": { "type": "Point", "coordinates": [ 47.9154197, 29.6388474 ] } },
{ "type": "Feature", "properties": { "osm_id": "7375339285", "code": 4101, "fclass": "spring", "name": "BH55" }, "geometry": { "type": "Point", "coordinates": [ 47.9251464, 29.5758786 ] } },
{ "type": "Feature", "properties": { "osm_id": "7379957585", "code": 4101, "fclass": "spring", "name": "RA-428" }, "geometry": { "type": "Point", "coordinates": [ 47.7225085, 29.8547988 ] } },
{ "type": "Feature", "properties": { "osm_id": "7388376885", "code": 4101, "fclass": "spring", "name": "RA-394" }, "geometry": { "type": "Point", "coordinates": [ 47.7183523, 29.8447768 ] } },
{ "type": "Feature", "properties": { "osm_id": "7879871549", "code": 4101, "fclass": "spring", "name": "عين المضيق" }, "geometry": { "type": "Point", "coordinates": [ 39.62752, 23.32567 ] } },
{ "type": "Feature", "properties": { "osm_id": "7884230735", "code": 4101, "fclass": "spring", "name": "عين اليسيرة" }, "geometry": { "type": "Point", "coordinates": [ 39.5974274, 23.309309 ] } },
{ "type": "Feature", "properties": { "osm_id": "7887741950", "code": 4101, "fclass": "spring", "name": "ثمد الخضر" }, "geometry": { "type": "Point", "coordinates": [ 46.5291595, 23.5620327 ] } },
{ "type": "Feature", "properties": { "osm_id": "7894626219", "code": 4101, "fclass": "spring", "name": "عين مصودعة" }, "geometry": { "type": "Point", "coordinates": [ 42.2980627, 26.314469 ] } },
{ "type": "Feature", "properties": { "osm_id": "8004609362", "code": 4101, "fclass": "spring", "name": "عين زبيدة" }, "geometry": { "type": "Point", "coordinates": [ 43.4149244, 25.7047394 ] } },
{ "type": "Feature", "properties": { "osm_id": "8154756217", "code": 4101, "fclass": "spring", "name": "" }, "geometry": { "type": "Point", "coordinates": [ 53.2705001, 18.8229801 ] } },
{ "type": "Feature", "properties": { "osm_id": "8157361221", "code": 4101, "fclass": "spring", "name": "" }, "geometry": { "type": "Point", "coordinates": [ 52.4961112, 18.5761249 ] } },
{ "type": "Feature", "properties": { "osm_id": "8378525235", "code": 4101, "fclass": "spring", "name": "" }, "geometry": { "type": "Point", "coordinates": [ 50.9542106, 25.6565811 ] } },
{ "type": "Feature", "properties": { "osm_id": "8394394933", "code": 4101, "fclass": "spring", "name": "نبع الصنينا" }, "geometry": { "type": "Point", "coordinates": [ 41.0390833, 27.3057778 ] } },
{ "type": "Feature", "properties": { "osm_id": "8440500017", "code": 4101, "fclass": "spring", "name": "عين ابوخصفة" }, "geometry": { "type": "Point", "coordinates": [ 49.7438165, 26.451471 ] } },
{ "type": "Feature", "properties": { "osm_id": "8487335203", "code": 4101, "fclass": "spring", "name": "منبع ماء و شلال" }, "geometry": { "type": "Point", "coordinates": [ 40.130291, 21.2869826 ] } },
{ "type": "Feature", "properties": { "osm_id": "8825850277", "code": 4101, "fclass": "spring", "name": "عين الكفيرة" }, "geometry": { "type": "Point", "coordinates": [ 41.5270844, 18.6372871 ] } },
{ "type": "Feature", "properties": { "osm_id": "8921234913", "code": 4101, "fclass": "spring", "name": "عين الشويميه" }, "geometry": { "type": "Point", "coordinates": [ 55.5591596, 17.9280536 ] } },
{ "type": "Feature", "properties": { "osm_id": "9223851133", "code": 4101, "fclass": "spring", "name": "عين الديسة" }, "geometry": { "type": "Point", "coordinates": [ 36.5211893, 27.6335859 ] } },
{ "type": "Feature", "properties": { "osm_id": "9624143950", "code": 4101, "fclass": "spring", "name": "" }, "geometry": { "type": "Point", "coordinates": [ 56.2989021, 23.9733974 ] } },
{ "type": "Feature", "properties": { "osm_id": "9792352037", "code": 4101, "fclass": "spring", "name": "ينبوع ال دهمان" }, "geometry": { "type": "Point", "coordinates": [ 41.9279089, 18.3498295 ] } },
{ "type": "Feature", "properties": { "osm_id": "9792378507", "code": 4101, "fclass": "spring", "name": "طعنة ابوزيد" }, "geometry": { "type": "Point", "coordinates": [ 41.8672994, 18.1849443 ] } },
{ "type": "Feature", "properties": { "osm_id": "9946558517", "code": 4101, "fclass": "spring", "name": "الدراء" }, "geometry": { "type": "Point", "coordinates": [ 42.07381, 19.3161298 ] } },
{ "type": "Feature", "properties": { "osm_id": "10015250022", "code": 4101, "fclass": "spring", "name": "" }, "geometry": { "type": "Point", "coordinates": [ 54.2813514, 17.0978199 ] } },
{ "type": "Feature", "properties": { "osm_id": "10015256919", "code": 4101, "fclass": "spring", "name": "" }, "geometry": { "type": "Point", "coordinates": [ 54.2368557, 17.1295877 ] } },
{ "type": "Feature", "properties": { "osm_id": "10068134120", "code": 4101, "fclass": "spring", "name": "" }, "geometry": { "type": "Point", "coordinates": [ 55.3836256, 25.3595927 ] } },
{ "type": "Feature", "properties": { "osm_id": "11219586114", "code": 4101, "fclass": "spring", "name": "عين ماء" }, "geometry": { "type": "Point", "coordinates": [ 41.4375088, 27.6115742 ] } },
{ "type": "Feature", "properties": { "osm_id": "11861561369", "code": 4101, "fclass": "spring", "name": "وادي البطة العامرات" }, "geometry": { "type": "Point", "coordinates": [ 58.4965509, 23.5283252 ] } },
{ "type": "Feature", "properties": { "osm_id": "11870048426", "code": 4101, "fclass": "spring", "name": "الجصه" }, "geometry": { "type": "Point", "coordinates": [ 45.6124224, 28.0670871 ] } },
{ "type": "Feature", "properties": { "osm_id": "11870256467", "code": 4101, "fclass": "spring", "name": "عين القطار" }, "geometry": { "type": "Point", "coordinates": [ 49.5695282, 25.6736658 ] } },
{ "type": "Feature", "properties": { "osm_id": "11871539444", "code": 4101, "fclass": "spring", "name": "قلبان العود" }, "geometry": { "type": "Point", "coordinates": [ 44.7860287, 27.9756318 ] } },
{ "type": "Feature", "properties": { "osm_id": "11871768495", "code": 4101, "fclass": "spring", "name": "الزقماء" }, "geometry": { "type": "Point", "coordinates": [ 42.4784561, 29.164255 ] } },
{ "type": "Feature", "properties": { "osm_id": "11970720460", "code": 4101, "fclass": "spring", "name": "قلتة المويريد" }, "geometry": { "type": "Point", "coordinates": [ 45.5184536, 20.9483884 ] } },
{ "type": "Feature", "properties": { "osm_id": "12540950987", "code": 4101, "fclass": "spring", "name": "عين الغنيمي" }, "geometry": { "type": "Point", "coordinates": [ 36.1724538, 29.0417228 ] } },
{ "type": "Feature", "properties": { "osm_id": "13277534101", "code": 4101, "fclass": "spring", "name": "Wadi Qadsha" }, "geometry": { "type": "Point", "coordinates": [ 57.5123509, 23.0856741 ] } },
{ "type": "Feature", "properties": { "osm_id": "13296573101", "code": 4101, "fclass": "spring", "name": "" }, "geometry": { "type": "Point", "coordinates": [ 50.8886054, 25.4564117 ] } },
{ "type": "Feature", "properties": { "osm_id": "13311372215", "code": 4101, "fclass": "spring", "name": "Spring of Misfat's Falaj system" }, "geometry": { "type": "Point", "coordinates": [ 57.315944, 23.1480524 ] } },
{ "type": "Feature", "properties": { "osm_id": "13329046401", "code": 4101, "fclass": "spring", "name": "دبايه زرقاء" }, "geometry": { "type": "Point", "coordinates": [ 51.4084771, 24.9498237 ] } },
{ "type": "Feature", "properties": { "osm_id": "13329046402", "code": 4101, "fclass": "spring", "name": "مزرعه الشيخ طلال بن خليفة بن خالد العبدالرحمن ال ثاني" }, "geometry": { "type": "Point", "coordinates": [ 51.3443833, 24.9692526 ] } },
{ "type": "Feature", "properties": { "osm_id": "13331999301", "code": 4101, "fclass": "spring", "name": "عنه احمد حمدان المنصوري" }, "geometry": { "type": "Point", "coordinates": [ 51.4449243, 24.930794 ] } },
{ "type": "Feature", "properties": { "osm_id": "13621607102", "code": 4101, "fclass": "spring", "name": "الرتقه" }, "geometry": { "type": "Point", "coordinates": [ 40.6414506, 20.8499889 ] } },
{ "type": "Feature", "properties": { "osm_id": "13810387822", "code": 4101, "fclass": "spring", "name": "" }, "geometry": { "type": "Point", "coordinates": [ 57.2000272, 23.1751115 ] } },
{ "type": "Feature", "properties": { "osm_id": "13810418678", "code": 4101, "fclass": "spring", "name": "" }, "geometry": { "type": "Point", "coordinates": [ 56.1510874, 24.6798073 ] } },
{ "type": "Feature", "properties": { "osm_id": "14003303102", "code": 4101, "fclass": "spring", "name": "رحية" }, "geometry": { "type": "Point", "coordinates": [ 51.4571971, 25.6389235 ] } }
]
}
