{"type":"FeatureCollection","city":"dammam","source":"momrah_administrative_districts","count":98,"features":[{"type":"Feature","id":"dammam-abdullah-fuad","geometry":{"type":"Polygon","coordinates":[[[50.12374,26.419],[50.12029,26.42205],[50.11947,26.42267],[50.11721,26.424],[50.11512,26.42506],[50.11014,26.41726],[50.10961,26.41628],[50.10935,26.41544],[50.10926,26.41472],[50.10927,26.41399],[50.10939,26.41325],[50.10963,26.41253],[50.11671,26.39867],[50.11713,26.39755],[50.11848,26.39312],[50.12402,26.40047],[50.12579,26.4034],[50.12738,26.40898],[50.12911,26.41424],[50.12687,26.41623],[50.12593,26.41238],[50.12528,26.41097],[50.11867,26.41436],[50.12374,26.419]]]},"properties":{"district_id":"dammam-abdullah-fuad","name_ar":"عبدالله فؤاد","name_en":"Abdullah Fuad","city":"dammam","source_codes":["70030076562945518"]}},{"type":"Feature","id":"dammam-ad-dawasir","geometry":{"type":"Polygon","coordinates":[[[50.10828,26.44654],[50.10556,26.44666],[50.09883,26.4484],[50.09662,26.44871],[50.09661,26.44341],[50.10111,26.44258],[50.10458,26.44255],[50.10639,26.44231],[50.1078,26.44228],[50.1078,26.44317],[50.10828,26.44654]]]},"properties":{"district_id":"dammam-ad-dawasir","name_ar":"الدواسر","name_en":"Ad Dawasir","city":"dammam","source_codes":["70030076562949006"]}},{"type":"Feature","id":"dammam-ad-dawhah-ash-shamaliyah","geometry":{"type":"Polygon","coordinates":[[[50.17162,26.33922],[50.17085,26.34003],[50.16553,26.34455],[50.15355,26.33577],[50.15447,26.33373],[50.15714,26.33454],[50.15819,26.33458],[50.1593,26.33437],[50.15992,26.33412],[50.16055,26.33375],[50.1639,26.33102],[50.16472,26.33047],[50.1661,26.32986],[50.16771,26.3295],[50.16924,26.32947],[50.17074,26.32972],[50.17326,26.33057],[50.17515,26.33157],[50.17596,26.3319],[50.1792,26.33257],[50.17905,26.33822],[50.17359,26.33805],[50.17273,26.33758],[50.17162,26.33922]]]},"properties":{"district_id":"dammam-ad-dawhah-ash-shamaliyah","name_ar":"الدوحة الشمالية","name_en":"Ad Dawhah Ash Shamaliyah","city":"dammam","source_codes":["70030076562945443"]}},{"type":"Feature","id":"dammam-adh-dhahran-industrial","geometry":{"type":"Polygon","coordinates":[[[50.06409,26.28123],[50.06392,26.28131],[50.06397,26.28141],[50.06045,26.28313],[50.05784,26.2848],[50.0554,26.28683],[50.05428,26.28799],[50.05284,26.2897],[50.05146,26.2918],[50.05059,26.29344],[50.04505,26.30562],[50.03185,26.28822],[50.01278,26.26278],[50.01269,26.26288],[50.00403,26.2515],[49.99308,26.23688],[49.9891,26.23209],[49.97033,26.21179],[49.97077,26.21127],[49.97049,26.21098],[49.97626,26.20482],[50.06409,26.28123]]]},"properties":{"district_id":"dammam-adh-dhahran-industrial","name_ar":"صناعية الظهران","name_en":"Adh Dhahran Industrial","city":"dammam","source_codes":["70030076562852865"]}},{"type":"Feature","id":"dammam-ahad","geometry":{"type":"Polygon","coordinates":[[[50.04283,26.39745],[50.06053,26.40642],[50.04051,26.42968],[50.03833,26.42793],[50.03618,26.42638],[50.03381,26.42491],[50.0318,26.42384],[50.03006,26.42302],[50.02606,26.42137],[50.04283,26.39745]]]},"properties":{"district_id":"dammam-ahad","name_ar":"أحد","name_en":"Ahad","city":"dammam","source_codes":["70030076562948417"]}},{"type":"Feature","id":"dammam-airport","geometry":{"type":"Polygon","coordinates":[[[49.95527,26.36153],[49.95564,26.37642],[49.95487,26.37663],[49.95422,26.3987],[49.95381,26.40176],[49.95125,26.41053],[49.94431,26.41227],[49.94413,26.41194],[49.93998,26.39441],[49.93972,26.39376],[49.93478,26.38408],[49.92634,26.36306],[49.94565,26.35692],[49.94622,26.3568],[49.95583,26.35382],[49.95527,26.36153]]]},"properties":{"district_id":"dammam-airport","name_ar":"المطار","name_en":"Airport","city":"dammam","source_codes":["70030076562948428"]}},{"type":"Feature","id":"dammam-al-aadamah","geometry":{"type":"Polygon","coordinates":[[[50.10779,26.43849],[50.09662,26.4385],[50.09659,26.42467],[50.10411,26.42846],[50.10489,26.42859],[50.10781,26.42858],[50.10779,26.43849]]]},"properties":{"district_id":"dammam-al-aadamah","name_ar":"العدامة","name_en":"Al Aadamah","city":"dammam","source_codes":["70030076562949047"]}},{"type":"Feature","id":"dammam-al-amal","geometry":{"type":"Polygon","coordinates":[[[50.03354,26.33917],[50.0303,26.35493],[50.02036,26.35053],[50.01565,26.34855],[50.01319,26.34761],[50.00974,26.34663],[50.0098,26.34644],[50.00911,26.34623],[50.00967,26.34477],[50.01016,26.34402],[50.01204,26.34248],[50.0134,26.34096],[50.01623,26.33824],[50.02048,26.33458],[50.02058,26.33395],[50.02134,26.33335],[50.02389,26.33291],[50.03354,26.33917]]]},"properties":{"district_id":"dammam-al-amal","name_ar":"الأمل","name_en":"Al Amal","city":"dammam","source_codes":["70030076562948459"]}},{"type":"Feature","id":"dammam-al-amamarah","geometry":{"type":"Polygon","coordinates":[[[50.1078,26.44228],[50.11802,26.44226],[50.11803,26.44617],[50.10828,26.44654],[50.1078,26.44317],[50.1078,26.44228]]]},"properties":{"district_id":"dammam-al-amamarah","name_ar":"حي العمامرة","name_en":"Al Amamarah","city":"dammam","source_codes":["70030076562949025"]}},{"type":"Feature","id":"dammam-al-amanah","geometry":{"type":"Polygon","coordinates":[[[49.97708,26.37434],[49.97233,26.39499],[49.95722,26.39211],[49.96259,26.37466],[49.97023,26.37294],[49.97808,26.37134],[49.97708,26.37434]]]},"properties":{"district_id":"dammam-al-amanah","name_ar":"الأمانة","name_en":"Al Amanah","city":"dammam","source_codes":["70030076562947877"]}},{"type":"Feature","id":"dammam-al-anud","geometry":{"type":"Polygon","coordinates":[[[50.0807,26.45022],[50.07965,26.4505],[50.07809,26.45123],[50.07763,26.45137],[50.06255,26.45353],[50.06444,26.44283],[50.06471,26.44086],[50.08165,26.44227],[50.08078,26.44388],[50.08056,26.4447],[50.08051,26.44887],[50.08053,26.44957],[50.0807,26.45022]]]},"properties":{"district_id":"dammam-al-anud","name_ar":"العنود","name_en":"Al Anud","city":"dammam","source_codes":["70030076562949724"]}},{"type":"Feature","id":"dammam-al-anwar","geometry":{"type":"Polygon","coordinates":[[[50.0303,26.35493],[50.02779,26.36402],[50.02161,26.38455],[50.0128,26.38009],[50.01009,26.37888],[49.99402,26.37272],[49.99207,26.37212],[49.99075,26.3718],[49.98805,26.37132],[49.98829,26.36994],[49.99179,26.36801],[50.00793,26.35295],[50.0077,26.3526],[50.00773,26.35231],[50.00847,26.35093],[50.00957,26.34748],[50.00974,26.34663],[50.01319,26.34761],[50.01565,26.34855],[50.02036,26.35053],[50.0303,26.35493]]]},"properties":{"district_id":"dammam-al-anwar","name_ar":"الانوار","name_en":"Al Anwar","city":"dammam","source_codes":["70030076562943143"]}},{"type":"Feature","id":"dammam-al-athir","geometry":{"type":"Polygon","coordinates":[[[50.07032,26.42654],[50.06759,26.4308],[50.06704,26.43197],[50.06601,26.43554],[50.06471,26.44086],[50.05558,26.44007],[50.05414,26.43989],[50.05302,26.43955],[50.05216,26.43913],[50.05136,26.4386],[50.05024,26.43767],[50.05848,26.4266],[50.0606,26.42332],[50.0613,26.42199],[50.07032,26.42654]]]},"properties":{"district_id":"dammam-al-athir","name_ar":"الأثير","name_en":"Al Athir","city":"dammam","source_codes":["70030076562949744"]}},{"type":"Feature","id":"dammam-al-aziziyah","geometry":{"type":"Polygon","coordinates":[[[50.06838,26.46272],[50.0637,26.46338],[50.06272,26.46373],[50.06188,26.46431],[50.06132,26.46048],[50.06255,26.45353],[50.07763,26.45137],[50.07809,26.45123],[50.07965,26.4505],[50.0807,26.45022],[50.08102,26.4519],[50.08103,26.45852],[50.08122,26.45917],[50.08004,26.45961],[50.07683,26.46144],[50.07422,26.46239],[50.07338,26.46286],[50.07261,26.46343],[50.07108,26.4632],[50.06946,26.46276],[50.06838,26.46272]]]},"properties":{"district_id":"dammam-al-aziziyah","name_ar":"العزيزية","name_en":"Al Aziziyah","city":"dammam","source_codes":["70030076562949718"]}},{"type":"Feature","id":"dammam-al-badih","geometry":{"type":"Polygon","coordinates":[[[50.1118,26.45614],[50.11216,26.45697],[50.11009,26.45907],[50.1088,26.45827],[50.10828,26.44654],[50.11803,26.44617],[50.11969,26.45356],[50.11272,26.45488],[50.11245,26.45506],[50.1122,26.45535],[50.1118,26.45614]]]},"properties":{"district_id":"dammam-al-badih","name_ar":"البديع","name_en":"Al Badih","city":"dammam","source_codes":["70030076562949013"]}},{"type":"Feature","id":"dammam-al-badiyah","geometry":{"type":"Polygon","coordinates":[[[50.09662,26.43289],[50.08545,26.43289],[50.08545,26.42696],[50.08551,26.42661],[50.08602,26.42559],[50.08897,26.4208],[50.09659,26.42467],[50.09662,26.43289]]]},"properties":{"district_id":"dammam-al-badiyah","name_ar":"البادية","name_en":"Al Badiyah","city":"dammam","source_codes":["70030076562949761"]}},{"type":"Feature","id":"dammam-al-basatin","geometry":{"type":"Polygon","coordinates":[[[50.13124,26.41233],[50.12911,26.41424],[50.12738,26.40898],[50.12579,26.4034],[50.12402,26.40047],[50.11848,26.39312],[50.12146,26.38296],[50.12477,26.38353],[50.12917,26.38444],[50.13089,26.40926],[50.13124,26.41233]]]},"properties":{"district_id":"dammam-al-basatin","name_ar":"البساتين","name_en":"Al Basatin","city":"dammam","source_codes":["70030076562946656"]}},{"type":"Feature","id":"dammam-al-buhayrah","geometry":{"type":"Polygon","coordinates":[[[50.07261,26.46343],[50.07198,26.46585],[50.07005,26.46822],[50.06895,26.46984],[50.06779,26.47201],[50.06687,26.47415],[50.05847,26.47133],[50.06094,26.46541],[50.06154,26.46463],[50.06257,26.46382],[50.0632,26.46353],[50.06388,26.46334],[50.06869,26.4627],[50.06946,26.46276],[50.07108,26.4632],[50.07261,26.46343]]]},"properties":{"district_id":"dammam-al-buhayrah","name_ar":"البحيرة","name_en":"Al Buhayrah","city":"dammam","source_codes":["70030076562949777"]}},{"type":"Feature","id":"dammam-al-dabab","geometry":{"type":"Polygon","coordinates":[[[50.0606,26.42332],[50.05848,26.4266],[50.05024,26.43767],[50.04333,26.43193],[50.04051,26.42968],[50.06053,26.40642],[50.06781,26.41011],[50.06506,26.41445],[50.0606,26.42332]]]},"properties":{"district_id":"dammam-al-dabab","name_ar":"الضباب","name_en":"Al Dabab","city":"dammam","source_codes":["70030076562941381"]}},{"type":"Feature","id":"dammam-al-dana","geometry":{"type":"Polygon","coordinates":[[[50.04619,26.46912],[50.03831,26.46656],[50.03983,26.46286],[50.04771,26.46548],[50.04619,26.46912]]]},"properties":{"district_id":"dammam-al-dana","name_ar":"الدانة","name_en":"Al Dana","city":"dammam","source_codes":["70030076562949077"]}},{"type":"Feature","id":"dammam-al-faisaliyah-west-dammam","geometry":{"type":"Polygon","coordinates":[[[50.06781,26.41011],[50.04283,26.39745],[50.06097,26.37637],[50.06195,26.37504],[50.08168,26.38867],[50.06781,26.41011]]]},"properties":{"district_id":"dammam-al-faisaliyah-west-dammam","name_ar":"الفيصلية (غرب الدمام)","name_en":"Al Faisaliyah (West Dammam)","city":"dammam","source_codes":["70030076562941413"]}},{"type":"Feature","id":"dammam-al-fanar","geometry":{"type":"Polygon","coordinates":[[[50.21664,26.42322],[50.2164,26.42317],[50.21624,26.42301],[50.21621,26.42282],[50.21634,26.42253],[50.21633,26.42234],[50.2159,26.42195],[50.2157,26.42155],[50.2157,26.42116],[50.21554,26.42096],[50.21526,26.42091],[50.21493,26.42102],[50.21412,26.4222],[50.21381,26.42202],[50.21389,26.42191],[50.19287,26.40969],[50.18107,26.40268],[50.18527,26.39583],[50.2015,26.40396],[50.2036,26.40526],[50.20533,26.40591],[50.20678,26.40659],[50.21106,26.40875],[50.21319,26.41003],[50.21546,26.41095],[50.22029,26.41339],[50.21878,26.4156],[50.21883,26.41601],[50.21915,26.41621],[50.21936,26.41618],[50.21966,26.41599],[50.22015,26.41593],[50.2207,26.41606],[50.22089,26.41599],[50.22115,26.41569],[50.22142,26.41564],[50.22172,26.41581],[50.22175,26.41612],[50.22162,26.41629],[50.22144,26.41635],[50.21801,26.41668],[50.21561,26.42014],[50.21699,26.42276],[50.21693,26.42307],[50.21664,26.42322]]]},"properties":{"district_id":"dammam-al-fanar","name_ar":"الفنار","name_en":"Al Fanar","city":"dammam","source_codes":["70030076562947339"]}},{"type":"Feature","id":"dammam-al-fayha","geometry":{"type":"Polygon","coordinates":[[[50.05024,26.43767],[50.04353,26.44666],[50.04215,26.44819],[50.03954,26.45079],[50.03641,26.4489],[50.03341,26.44687],[50.03251,26.44619],[50.02914,26.44333],[50.02897,26.44311],[50.04051,26.42968],[50.04333,26.43193],[50.05024,26.43767]]]},"properties":{"district_id":"dammam-al-fayha","name_ar":"الفيحاء","name_en":"Al Fayha","city":"dammam","source_codes":["70030076562941360"]}},{"type":"Feature","id":"dammam-al-ferdaws","geometry":{"type":"Polygon","coordinates":[[[50.11911,26.39107],[50.11537,26.38602],[50.11367,26.38334],[50.11291,26.38193],[50.11244,26.38133],[50.11131,26.37862],[50.11033,26.37543],[50.11183,26.37529],[50.12432,26.37329],[50.11911,26.39107]]]},"properties":{"district_id":"dammam-al-ferdaws","name_ar":"الفردوس","name_en":"Al Ferdaws","city":"dammam","source_codes":["70030076562945986"]}},{"type":"Feature","id":"dammam-al-fursan","geometry":{"type":"Polygon","coordinates":[[[49.9608,26.33775],[49.96814,26.34033],[49.97225,26.34152],[49.96842,26.35526],[49.96734,26.35883],[49.96718,26.35906],[49.96241,26.3747],[49.95564,26.37642],[49.95527,26.36153],[49.95715,26.33663],[49.9608,26.33775]]]},"properties":{"district_id":"dammam-al-fursan","name_ar":"الفرسان","name_en":"Al Fursan","city":"dammam","source_codes":["70030076562943171"]}},{"type":"Feature","id":"dammam-al-hadabah","geometry":{"type":"Polygon","coordinates":[[[49.93366,26.33131],[49.93944,26.33285],[49.95123,26.33519],[49.95495,26.336],[49.95715,26.33661],[49.95583,26.35382],[49.94622,26.3568],[49.94565,26.35692],[49.92634,26.36306],[49.91787,26.34197],[49.91803,26.34073],[49.92042,26.32973],[49.92087,26.327],[49.93366,26.33131]]]},"properties":{"district_id":"dammam-al-hadabah","name_ar":"الهضبة","name_en":"Al Hadabah","city":"dammam","source_codes":["70030076562943161"]}},{"type":"Feature","id":"dammam-al-hamra","geometry":{"type":"Polygon","coordinates":[[[50.10506,26.48635],[50.10424,26.48681],[50.10345,26.48709],[50.10252,26.48726],[50.10167,26.48727],[50.10074,26.48713],[50.09994,26.48687],[50.0991,26.48644],[50.09843,26.48593],[50.09784,26.48533],[50.0974,26.48472],[50.09701,26.48396],[50.09676,26.48325],[50.09661,26.48242],[50.09663,26.48052],[50.09636,26.48025],[50.09626,26.47961],[50.09327,26.47937],[50.08916,26.47963],[50.08909,26.48124],[50.08768,26.48123],[50.08778,26.48189],[50.08813,26.48256],[50.08812,26.48282],[50.08782,26.48288],[50.08756,26.48262],[50.08738,26.48171],[50.08723,26.48138],[50.08696,26.48123],[50.08602,26.48122],[50.08599,26.47839],[50.08572,26.47785],[50.08545,26.47783],[50.0853,26.47762],[50.08538,26.47742],[50.08555,26.47733],[50.08557,26.47692],[50.08595,26.47551],[50.08597,26.45899],[50.09611,26.45898],[50.0975,26.45888],[50.09906,26.46005],[50.09839,26.46093],[50.09785,26.46202],[50.09752,26.46319],[50.09742,26.4644],[50.09857,26.46521],[50.09953,26.46625],[50.10031,26.46756],[50.10077,26.46902],[50.10122,26.46924],[50.10134,26.46946],[50.10138,26.46971],[50.10126,26.47004],[50.101,26.47025],[50.10062,26.4703],[50.10027,26.47012],[50.09949,26.47061],[50.09886,26.47131],[50.09846,26.47215],[50.09833,26.47272],[50.0983,26.47336],[50.09839,26.474],[50.09858,26.47455],[50.09889,26.47511],[50.09927,26.47556],[50.09971,26.47594],[50.10039,26.47635],[50.10052,26.47657],[50.10054,26.47683],[50.10035,26.47719],[50.0996,26.47767],[50.09898,26.47835],[50.09784,26.47858],[50.09784,26.48224],[50.09728,26.48224],[50.09701,26.48242],[50.09713,26.48303],[50.09743,26.48386],[50.09786,26.48463],[50.09842,26.48531],[50.0991,26.48589],[50.09986,26.48634],[50.10068,26.48665],[50.10155,26.48682],[50.10244,26.48683],[50.10314,26.48674],[50.1039,26.48651],[50.10462,26.48617],[50.1051,26.48582],[50.10525,26.48548],[50.1052,26.48512],[50.10501,26.48486],[50.10452,26.4846],[50.10425,26.48431],[50.10407,26.48388],[50.10408,26.48342],[50.10431,26.48293],[50.10479,26.48254],[50.10531,26.48238],[50.10585,26.48243],[50.10627,26.48265],[50.10658,26.48298],[50.10675,26.48332],[50.10679,26.48382],[50.10672,26.48437],[50.10653,26.48489],[50.1062,26.48538],[50.10506,26.48635]]]},"properties":{"district_id":"dammam-al-hamra","name_ar":"الحمراء","name_en":"Al Hamra","city":"dammam","source_codes":["70030076562949083"]}},{"type":"Feature","id":"dammam-al-haras-al-watani","geometry":{"type":"Polygon","coordinates":[[[50.17312,26.36828],[50.173,26.36869],[50.17282,26.36892],[50.16738,26.37375],[50.17112,26.37702],[50.15188,26.3941],[50.15036,26.38899],[50.14978,26.38642],[50.1493,26.38348],[50.14905,26.38025],[50.14901,26.37423],[50.14881,26.37218],[50.14846,26.37026],[50.14787,26.36809],[50.14692,26.36559],[50.1466,26.36487],[50.14507,26.36213],[50.148,26.35883],[50.14854,26.35922],[50.15337,26.35507],[50.1556,26.35304],[50.17085,26.34003],[50.17192,26.33885],[50.17273,26.33758],[50.17359,26.33805],[50.17905,26.33822],[50.17855,26.35845],[50.17333,26.35837],[50.17312,26.36828]]]},"properties":{"district_id":"dammam-al-haras-al-watani","name_ar":"الحرس الوطني","name_en":"Al Haras Al Watani","city":"dammam","source_codes":["70030076562944979"]}},{"type":"Feature","id":"dammam-al-hazm","geometry":{"type":"Polygon","coordinates":[[[49.97272,26.34161],[49.97225,26.34152],[49.96814,26.34033],[49.9608,26.33775],[49.95551,26.33615],[49.97661,26.30286],[49.99106,26.31212],[49.97272,26.34161]]]},"properties":{"district_id":"dammam-al-hazm","name_ar":"الحزم","name_en":"Al Hazm","city":"dammam","source_codes":["70030076562863292"]}},{"type":"Feature","id":"dammam-al-hussam","geometry":{"type":"Polygon","coordinates":[[[50.18093,26.4026],[50.17683,26.40918],[50.17564,26.41081],[50.17474,26.41174],[50.17174,26.40312],[50.17122,26.40213],[50.16932,26.39918],[50.16906,26.3987],[50.16856,26.39728],[50.1681,26.39583],[50.16767,26.39152],[50.16464,26.38279],[50.17814,26.37073],[50.17769,26.39198],[50.17755,26.3929],[50.17729,26.3938],[50.1768,26.39488],[50.17582,26.39652],[50.17559,26.39725],[50.17556,26.39781],[50.17566,26.39837],[50.17594,26.39903],[50.17628,26.3995],[50.17692,26.40012],[50.17782,26.40081],[50.18093,26.4026]]]},"properties":{"district_id":"dammam-al-hussam","name_ar":"الحسام","name_en":"Al Hussam","city":"dammam","source_codes":["70030076562947273"]}},{"type":"Feature","id":"dammam-al-iskan","geometry":{"type":"Polygon","coordinates":[[[50.12687,26.41623],[50.12374,26.419],[50.11867,26.41436],[50.12528,26.41097],[50.12593,26.41238],[50.12687,26.41623]]]},"properties":{"district_id":"dammam-al-iskan","name_ar":"الاسكان","name_en":"Al Iskan","city":"dammam","source_codes":["70030076562946030"]}},{"type":"Feature","id":"dammam-al-jalawiyah","geometry":{"type":"Polygon","coordinates":[[[50.08513,26.43404],[50.08165,26.44227],[50.06471,26.44086],[50.06601,26.43554],[50.06704,26.43197],[50.06759,26.4308],[50.07032,26.42654],[50.08513,26.43404]]]},"properties":{"district_id":"dammam-al-jalawiyah","name_ar":"الجلوية","name_en":"Al Jalawiyah","city":"dammam","source_codes":["70030076562949039"]}},{"type":"Feature","id":"dammam-al-jamiah","geometry":{"type":"Polygon","coordinates":[[[50.13264,26.33427],[50.13354,26.33508],[50.1345,26.33627],[50.13489,26.33712],[50.1353,26.33764],[50.13681,26.33882],[50.13727,26.33902],[50.13776,26.33913],[50.13778,26.33995],[50.14251,26.34365],[50.14252,26.344],[50.14494,26.34539],[50.13662,26.35357],[50.13463,26.35207],[50.13301,26.35109],[50.13193,26.35055],[50.13028,26.34986],[50.1249,26.34808],[50.12376,26.34761],[50.12195,26.34666],[50.12008,26.34542],[50.1142,26.34069],[50.11765,26.34056],[50.11872,26.34039],[50.11975,26.3401],[50.12101,26.33957],[50.12414,26.33769],[50.12653,26.33652],[50.1309,26.33475],[50.13244,26.33394],[50.13264,26.33427]]]},"properties":{"district_id":"dammam-al-jamiah","name_ar":"الجامعة","name_en":"Al Jamiah","city":"dammam","source_codes":["70030076562945023"]}},{"type":"Feature","id":"dammam-al-jamieen","geometry":{"type":"Polygon","coordinates":[[[50.10405,26.38237],[50.10465,26.40077],[50.10476,26.40196],[50.10468,26.40242],[50.1045,26.40285],[50.10377,26.40373],[50.08914,26.39634],[50.09495,26.38703],[50.09659,26.38622],[50.10171,26.38304],[50.10275,26.38263],[50.10405,26.38237]]]},"properties":{"district_id":"dammam-al-jamieen","name_ar":"الجامعيين","name_en":"Al Jamieen","city":"dammam","source_codes":["70030076562946074"]}},{"type":"Feature","id":"dammam-al-jawhara","geometry":{"type":"Polygon","coordinates":[[[50.08599,26.47839],[50.08602,26.48122],[50.0856,26.48107],[50.08556,26.4785],[50.08504,26.47828],[50.08483,26.4781],[50.08469,26.47791],[50.08461,26.47752],[50.08499,26.47637],[50.0848,26.47601],[50.08476,26.46984],[50.08413,26.46919],[50.08347,26.46871],[50.08275,26.46833],[50.08189,26.46805],[50.07782,26.46802],[50.07715,26.46818],[50.077,26.46857],[50.07686,26.4686],[50.07657,26.46858],[50.07618,26.4684],[50.0761,26.46807],[50.07512,26.4682],[50.07456,26.46848],[50.07426,26.46914],[50.07351,26.47019],[50.07284,26.47055],[50.07215,26.47168],[50.0722,26.47241],[50.07179,26.47313],[50.07573,26.47437],[50.07712,26.47384],[50.0772,26.47405],[50.07606,26.47453],[50.07599,26.47485],[50.07683,26.47632],[50.07635,26.47651],[50.07545,26.47485],[50.07519,26.47498],[50.07472,26.47481],[50.07473,26.4745],[50.07169,26.4736],[50.07156,26.47363],[50.0711,26.47457],[50.07149,26.47436],[50.07296,26.47597],[50.07047,26.47777],[50.06913,26.47628],[50.07002,26.47561],[50.0698,26.47526],[50.068,26.47479],[50.06687,26.47415],[50.06779,26.47201],[50.06895,26.46984],[50.07005,26.46822],[50.07198,26.46585],[50.07261,26.46343],[50.07338,26.46286],[50.07422,26.46239],[50.07683,26.46144],[50.07988,26.45969],[50.08087,26.45927],[50.0822,26.45902],[50.08597,26.45899],[50.08595,26.47551],[50.08557,26.47692],[50.08555,26.47733],[50.08538,26.47742],[50.0853,26.47757],[50.08537,26.47777],[50.08554,26.47786],[50.08572,26.47785],[50.08599,26.47839]]]},"properties":{"district_id":"dammam-al-jawhara","name_ar":"الجوهرة","name_en":"Al Jawhara","city":"dammam","source_codes":["70030076562949695"]}},{"type":"Feature","id":"dammam-al-jud","geometry":{"type":"Polygon","coordinates":[[[50.04512,26.30569],[50.03866,26.32001],[50.03704,26.32418],[50.03606,26.32736],[50.0356,26.32934],[50.03496,26.33232],[50.03367,26.33912],[50.02407,26.33284],[50.00472,26.3207],[49.97775,26.30349],[50.01278,26.26278],[50.03185,26.28822],[50.04512,26.30569]]]},"properties":{"district_id":"dammam-al-jud","name_ar":"الجود","name_en":"Al Jud","city":"dammam","source_codes":["70030076563155015"]}},{"type":"Feature","id":"dammam-al-khadria","geometry":{"type":"Polygon","coordinates":[[[50.05814,26.44029],[50.05102,26.45763],[50.04771,26.46548],[50.03917,26.46264],[50.02975,26.45963],[50.03982,26.45054],[50.04244,26.44789],[50.04404,26.44601],[50.05024,26.43767],[50.052,26.43904],[50.05267,26.4394],[50.05357,26.43974],[50.05473,26.43999],[50.05814,26.44029]]]},"properties":{"district_id":"dammam-al-khadria","name_ar":"الخضرية","name_en":"Al Khadria","city":"dammam","source_codes":["70030076562949687"]}},{"type":"Feature","id":"dammam-al-khaleej","geometry":{"type":"Polygon","coordinates":[[[50.09662,26.44871],[50.08868,26.4498],[50.08312,26.44969],[50.0822,26.44974],[50.08176,26.44981],[50.0807,26.45022],[50.08053,26.44957],[50.08051,26.44887],[50.08055,26.44484],[50.08064,26.44428],[50.08084,26.44374],[50.08165,26.44227],[50.09437,26.44334],[50.09661,26.44337],[50.09662,26.44871]]]},"properties":{"district_id":"dammam-al-khaleej","name_ar":"الخليج","name_en":"Al Khaleej","city":"dammam","source_codes":["70030076562949709"]}},{"type":"Feature","id":"dammam-al-manar","geometry":{"type":"Polygon","coordinates":[[[50.06195,26.37504],[50.06097,26.37637],[50.04283,26.39745],[50.036,26.39398],[50.0335,26.39256],[50.03182,26.39142],[50.02826,26.38855],[50.02605,26.38696],[50.02391,26.3857],[50.02161,26.38455],[50.02779,26.36402],[50.0303,26.35493],[50.04055,26.35951],[50.04288,26.36079],[50.04441,26.36189],[50.05117,26.36765],[50.05326,26.36916],[50.05668,26.37129],[50.06195,26.37504]]]},"properties":{"district_id":"dammam-al-manar","name_ar":"المنار","name_en":"Al Manar","city":"dammam","source_codes":["70030076562941424"]}},{"type":"Feature","id":"dammam-al-mazruiyah","geometry":{"type":"Polygon","coordinates":[[[50.13271,26.43143],[50.13418,26.4507],[50.13277,26.45115],[50.13193,26.45132],[50.11969,26.45356],[50.11804,26.4464],[50.11802,26.44077],[50.13271,26.43143]]]},"properties":{"district_id":"dammam-al-mazruiyah","name_ar":"المزروعية","name_en":"Al Mazruiyah","city":"dammam","source_codes":["70030076562946019"]}},{"type":"Feature","id":"dammam-al-montazah","geometry":{"type":"Polygon","coordinates":[[[50.13597,26.36877],[50.14046,26.37678],[50.14067,26.37719],[50.14069,26.37739],[50.14057,26.37766],[50.14037,26.3778],[50.13336,26.38602],[50.13181,26.38499],[50.12477,26.38353],[50.12146,26.38296],[50.12432,26.37329],[50.12695,26.37289],[50.12837,26.37249],[50.13597,26.36877]]]},"properties":{"district_id":"dammam-al-montazah","name_ar":"المنتزة","name_en":"Al Montazah","city":"dammam","source_codes":["70030076562947855"]}},{"type":"Feature","id":"dammam-al-muhammadiyah","geometry":{"type":"Polygon","coordinates":[[[50.06188,26.46431],[50.06132,26.46487],[50.06087,26.46555],[50.05847,26.47133],[50.04689,26.46745],[50.05102,26.45763],[50.05814,26.44029],[50.06471,26.44086],[50.06444,26.44283],[50.06133,26.46039],[50.06188,26.46431]]]},"properties":{"district_id":"dammam-al-muhammadiyah","name_ar":"المحمدية","name_en":"Al Muhammadiyah","city":"dammam","source_codes":["70030076562949061"]}},{"type":"Feature","id":"dammam-al-muraikabat","geometry":{"type":"Polygon","coordinates":[[[50.09356,26.42059],[50.09309,26.42047],[50.09017,26.41901],[50.09087,26.41831],[50.09246,26.41702],[50.09418,26.41579],[50.09495,26.41508],[50.09591,26.41392],[50.09755,26.41132],[50.09847,26.41001],[50.10377,26.40373],[50.10591,26.40483],[50.10677,26.40556],[50.11031,26.41112],[50.10963,26.41253],[50.10931,26.41361],[50.10927,26.4149],[50.1095,26.41597],[50.10804,26.41663],[50.1084,26.41772],[50.10844,26.41989],[50.10837,26.42042],[50.10827,26.42052],[50.09356,26.42059]]]},"properties":{"district_id":"dammam-al-muraikabat","name_ar":"المريكبات","name_en":"Al Muraikabat","city":"dammam","source_codes":["70030076562946052"]}},{"type":"Feature","id":"dammam-al-nada","geometry":{"type":"Polygon","coordinates":[[[50.08168,26.38867],[50.0618,26.37493],[50.07342,26.36141],[50.0806,26.36554],[50.08343,26.36741],[50.08471,26.36813],[50.08634,26.36881],[50.09315,26.37102],[50.08168,26.38867]]]},"properties":{"district_id":"dammam-al-nada","name_ar":"الندى","name_en":"Al Nada","city":"dammam","source_codes":["70030076562941877"]}},{"type":"Feature","id":"dammam-al-nahdah","geometry":{"type":"Polygon","coordinates":[[[50.14975,26.38631],[50.14106,26.3898],[50.14073,26.39006],[50.14028,26.39074],[50.13336,26.38602],[50.14037,26.3778],[50.14057,26.37766],[50.14069,26.37739],[50.14067,26.37719],[50.14046,26.37678],[50.13597,26.36877],[50.14139,26.36611],[50.1424,26.36587],[50.14386,26.36588],[50.14442,26.36581],[50.14494,26.36564],[50.14659,26.36484],[50.14732,26.36657],[50.14795,26.36834],[50.14846,26.37026],[50.14881,26.37218],[50.14903,26.37456],[50.14905,26.38025],[50.1493,26.38348],[50.14975,26.38631]]]},"properties":{"district_id":"dammam-al-nahdah","name_ar":"النهضة","name_en":"Al Nahdah","city":"dammam","source_codes":["70030076562946689"]}},{"type":"Feature","id":"dammam-al-nakheel","geometry":{"type":"Polygon","coordinates":[[[50.09661,26.44337],[50.09437,26.44334],[50.08165,26.44227],[50.08513,26.43404],[50.09376,26.43842],[50.09411,26.43851],[50.09662,26.4385],[50.09661,26.44337]]]},"properties":{"district_id":"dammam-al-nakheel","name_ar":"النخيل","name_en":"Al Nakheel","city":"dammam","source_codes":["70030076562949055"]}},{"type":"Feature","id":"dammam-al-naseem","geometry":{"type":"Polygon","coordinates":[[[50.16017,26.42046],[50.16115,26.42068],[50.16253,26.42134],[50.16377,26.4222],[50.16466,26.42306],[50.16575,26.42503],[50.17938,26.45357],[50.19066,26.4695],[50.19245,26.47184],[50.19347,26.47331],[50.18976,26.47546],[50.18088,26.48011],[50.1812,26.48078],[50.17786,26.48255],[50.16087,26.49221],[50.13893,26.50455],[50.13845,26.50456],[50.13803,26.50434],[50.13785,26.50412],[50.13782,26.50392],[50.13767,26.50091],[50.13732,26.49681],[50.13742,26.49679],[50.13599,26.47761],[50.13547,26.46879],[50.13461,26.45653],[50.13271,26.43143],[50.13661,26.42895],[50.13943,26.42737],[50.14374,26.42524],[50.14742,26.42363],[50.15017,26.42305],[50.15926,26.42054],[50.16017,26.42046]]]},"properties":{"district_id":"dammam-al-naseem","name_ar":"النسيم","name_en":"Al Naseem","city":"dammam","source_codes":["70030076562947350"]}},{"type":"Feature","id":"dammam-al-nasiriyah","geometry":{"type":"Polygon","coordinates":[[[50.1322,26.42419],[50.13019,26.42469],[50.12949,26.42496],[50.12839,26.42575],[50.12693,26.42734],[50.12564,26.42807],[50.12438,26.42856],[50.1232,26.4293],[50.11948,26.42962],[50.11799,26.43038],[50.11796,26.42986],[50.11779,26.42931],[50.11512,26.42506],[50.11861,26.42322],[50.12009,26.42221],[50.13124,26.41233],[50.1322,26.42419]]]},"properties":{"district_id":"dammam-al-nasiriyah","name_ar":"الناصرية","name_en":"Al Nasiriyah","city":"dammam","source_codes":["70030076562946623"]}},{"type":"Feature","id":"dammam-al-nawras","geometry":{"type":"Polygon","coordinates":[[[50.20463,26.43491],[50.20489,26.43656],[50.19802,26.44577],[50.19653,26.44353],[50.18367,26.41789],[50.18131,26.41414],[50.17824,26.41611],[50.17757,26.41627],[50.17617,26.41641],[50.17456,26.41193],[50.17564,26.41081],[50.17683,26.40918],[50.18093,26.4026],[50.19287,26.40969],[50.21389,26.42191],[50.20463,26.43491]]]},"properties":{"district_id":"dammam-al-nawras","name_ar":"النورس","name_en":"Al Nawras","city":"dammam","source_codes":["70030076562947844"]}},{"type":"Feature","id":"dammam-al-noor","geometry":{"type":"Polygon","coordinates":[[[50.04051,26.42968],[50.02897,26.44311],[50.01456,26.43308],[50.01405,26.43296],[50.01132,26.43311],[50.01106,26.42714],[50.01107,26.42514],[50.01137,26.42139],[50.01191,26.41757],[50.01229,26.41612],[50.02063,26.41921],[50.02856,26.42237],[50.0318,26.42384],[50.03381,26.42491],[50.03618,26.42638],[50.03833,26.42793],[50.04051,26.42968]]]},"properties":{"district_id":"dammam-al-noor","name_ar":"النور","name_en":"Al Noor","city":"dammam","source_codes":["70030076562941371"]}},{"type":"Feature","id":"dammam-al-nuzha","geometry":{"type":"Polygon","coordinates":[[[50.11713,26.39755],[50.11671,26.39867],[50.11031,26.41112],[50.10677,26.40556],[50.10591,26.40483],[50.10377,26.40373],[50.1045,26.40285],[50.10468,26.40242],[50.10476,26.40196],[50.10465,26.40077],[50.10403,26.38164],[50.10388,26.37939],[50.10399,26.37814],[50.10449,26.37628],[50.10448,26.37592],[50.10428,26.37526],[50.10575,26.37511],[50.10693,26.37541],[50.11033,26.37543],[50.11131,26.37862],[50.11244,26.38133],[50.11291,26.38193],[50.11367,26.38334],[50.11537,26.38602],[50.11911,26.39107],[50.11713,26.39755]]]},"properties":{"district_id":"dammam-al-nuzha","name_ar":"النزهة","name_en":"Al Nuzha","city":"dammam","source_codes":["70030076562945997"]}},{"type":"Feature","id":"dammam-al-qadisiyah","geometry":{"type":"Polygon","coordinates":[[[50.07754,26.41503],[50.07127,26.42512],[50.07032,26.42654],[50.0613,26.42199],[50.06506,26.41445],[50.06781,26.41011],[50.07754,26.41503]]]},"properties":{"district_id":"dammam-al-qadisiyah","name_ar":"القادسية","name_en":"Al Qadisiyah","city":"dammam","source_codes":["70030076562949783"]}},{"type":"Feature","id":"dammam-al-qashlah","geometry":{"type":"Polygon","coordinates":[[[50.17855,26.35845],[50.17825,26.37064],[50.17112,26.37702],[50.16738,26.37375],[50.17282,26.36892],[50.17301,26.36867],[50.17312,26.36826],[50.17333,26.35837],[50.17855,26.35845]]]},"properties":{"district_id":"dammam-al-qashlah","name_ar":"القشلة","name_en":"Al Qashlah","city":"dammam","source_codes":["70030076562945454"]}},{"type":"Feature","id":"dammam-al-qazaz","geometry":{"type":"Polygon","coordinates":[[[50.09662,26.4385],[50.09411,26.43851],[50.09376,26.43842],[50.08513,26.43404],[50.08542,26.4332],[50.08545,26.43289],[50.09662,26.43289],[50.09662,26.4385]]]},"properties":{"district_id":"dammam-al-qazaz","name_ar":"القزاز","name_en":"Al Qazaz","city":"dammam","source_codes":["70030076562949769"]}},{"type":"Feature","id":"dammam-al-qusur","geometry":{"type":"Polygon","coordinates":[[[50.14507,26.36213],[50.14346,26.35989],[50.14197,26.35818],[50.14041,26.35669],[50.13662,26.35357],[50.15075,26.33963],[50.15201,26.33816],[50.15287,26.33694],[50.15355,26.33577],[50.16553,26.34455],[50.1556,26.35304],[50.15337,26.35507],[50.14854,26.35922],[50.148,26.35883],[50.14507,26.36213]]]},"properties":{"district_id":"dammam-al-qusur","name_ar":"القصور","name_en":"Al Qusur","city":"dammam","source_codes":["70030076562945012"]}},{"type":"Feature","id":"dammam-al-rabih","geometry":{"type":"Polygon","coordinates":[[[50.11802,26.44226],[50.1078,26.44228],[50.10779,26.43849],[50.11802,26.43849],[50.11802,26.44226]]]},"properties":{"district_id":"dammam-al-rabih","name_ar":"الربيع","name_en":"Al Rabih","city":"dammam","source_codes":["70030076562949032"]}},{"type":"Feature","id":"dammam-al-rabiyah","geometry":{"type":"Polygon","coordinates":[[[50.03983,26.46286],[50.03831,26.46656],[50.0264,26.46268],[50.02975,26.45963],[50.03983,26.46286]]]},"properties":{"district_id":"dammam-al-rabiyah","name_ar":"الرابية","name_en":"Al Rabiyah","city":"dammam","source_codes":["70030076562949070"]}},{"type":"Feature","id":"dammam-al-rawdah","geometry":{"type":"Polygon","coordinates":[[[50.07754,26.41503],[50.06781,26.41011],[50.08183,26.38844],[50.085,26.38858],[50.08776,26.38849],[50.08821,26.3886],[50.08903,26.38836],[50.09452,26.38772],[50.07754,26.41503]]]},"properties":{"district_id":"dammam-al-rawdah","name_ar":"الروضة","name_en":"Al Rawdah","city":"dammam","source_codes":["70030076562946008"]}},{"type":"Feature","id":"dammam-al-rayan","geometry":{"type":"Polygon","coordinates":[[[50.10377,26.40373],[50.09847,26.41001],[50.09755,26.41132],[50.0959,26.41394],[50.09529,26.41324],[50.09487,26.41293],[50.08265,26.40676],[50.08914,26.39634],[50.10377,26.40373]]]},"properties":{"district_id":"dammam-al-rayan","name_ar":"الريان","name_en":"Al Rayan","city":"dammam","source_codes":["70030076562945464"]}},{"type":"Feature","id":"dammam-al-safa","geometry":{"type":"Polygon","coordinates":[[[50.18327,26.37405],[50.18412,26.37421],[50.18483,26.37447],[50.19486,26.38026],[50.18107,26.40268],[50.17782,26.40081],[50.17692,26.40012],[50.17628,26.3995],[50.17594,26.39903],[50.1757,26.39851],[50.17557,26.39795],[50.17557,26.39739],[50.1757,26.39681],[50.17596,26.39625],[50.1768,26.39488],[50.1772,26.39402],[50.17755,26.3929],[50.17769,26.39198],[50.17812,26.37341],[50.18327,26.37405]]]},"properties":{"district_id":"dammam-al-safa","name_ar":"الصفا","name_en":"Al Safa","city":"dammam","source_codes":["70030076562947262"]}},{"type":"Feature","id":"dammam-al-salam","geometry":{"type":"Polygon","coordinates":[[[50.1088,26.45827],[50.10747,26.45774],[50.10621,26.45748],[50.10492,26.45741],[50.10363,26.45754],[50.10239,26.45787],[50.10121,26.45839],[50.10012,26.45909],[50.09906,26.46005],[50.0975,26.45888],[50.09683,26.45804],[50.09665,26.45752],[50.09662,26.44871],[50.09883,26.4484],[50.10556,26.44666],[50.10828,26.44654],[50.1088,26.45827]]]},"properties":{"district_id":"dammam-al-salam","name_ar":"السلام","name_en":"Al Salam","city":"dammam","source_codes":["70030076562949087"]}},{"type":"Feature","id":"dammam-al-shorouq","geometry":{"type":"Polygon","coordinates":[[[49.97521,26.36268],[49.97989,26.36486],[49.98068,26.36536],[49.97808,26.37134],[49.96799,26.37343],[49.9624,26.37472],[49.96718,26.35906],[49.96734,26.35882],[49.97521,26.36268]]]},"properties":{"district_id":"dammam-al-shorouq","name_ar":"الشروق","name_en":"Al Shorouq","city":"dammam","source_codes":["70030076562943190"]}},{"type":"Feature","id":"dammam-al-shualah","geometry":{"type":"Polygon","coordinates":[[[50.09946,26.35989],[50.09783,26.36339],[50.09692,26.36517],[50.09315,26.37102],[50.08634,26.36881],[50.08444,26.368],[50.08019,26.3653],[50.0526,26.34936],[50.05146,26.35068],[50.0335,26.33941],[50.03356,26.33905],[50.03367,26.33912],[50.03496,26.33232],[50.03606,26.32736],[50.03726,26.32355],[50.03892,26.31943],[50.04506,26.30583],[50.04802,26.30972],[50.04878,26.3106],[50.05081,26.3128],[50.05312,26.31507],[50.05559,26.31714],[50.05855,26.31928],[50.06126,26.32098],[50.06416,26.32251],[50.06743,26.32396],[50.07112,26.32527],[50.09992,26.33431],[50.10813,26.33704],[50.09946,26.35989]]]},"properties":{"district_id":"dammam-al-shualah","name_ar":"الشعلة","name_en":"Al Shualah","city":"dammam","source_codes":["70030076562942447"]}},{"type":"Feature","id":"dammam-al-souk","geometry":{"type":"Polygon","coordinates":[[[50.1078,26.44228],[50.10639,26.44231],[50.10458,26.44255],[50.10111,26.44258],[50.09661,26.44341],[50.09662,26.4385],[50.10779,26.43849],[50.1078,26.44228]]]},"properties":{"district_id":"dammam-al-souk","name_ar":"السوق","name_en":"Al Souk","city":"dammam","source_codes":["70030076562949018"]}},{"type":"Feature","id":"dammam-al-tubayshi","geometry":{"type":"Polygon","coordinates":[[[50.11802,26.44077],[50.11799,26.43038],[50.11948,26.42962],[50.1232,26.4293],[50.12438,26.42856],[50.12564,26.42807],[50.12693,26.42734],[50.12839,26.42575],[50.12949,26.42496],[50.13019,26.42469],[50.1322,26.42419],[50.13271,26.43141],[50.11802,26.44077]]]},"properties":{"district_id":"dammam-al-tubayshi","name_ar":"الطبيشي","name_en":"Al Tubayshi","city":"dammam","source_codes":["70030076562946634"]}},{"type":"Feature","id":"dammam-al-urubah","geometry":{"type":"Polygon","coordinates":[[[50.01886,26.32971],[50.01724,26.33115],[49.98356,26.36284],[49.98096,26.36554],[49.98039,26.36517],[49.99432,26.34387],[50.00788,26.32281],[50.01886,26.32971]]]},"properties":{"district_id":"dammam-al-urubah","name_ar":"العروبة","name_en":"Al Urubah","city":"dammam","source_codes":["70030076562852798"]}},{"type":"Feature","id":"dammam-al-wahah","geometry":{"type":"Polygon","coordinates":[[[50.09452,26.38772],[50.08903,26.38836],[50.08821,26.3886],[50.08776,26.38849],[50.085,26.38858],[50.08183,26.38844],[50.09315,26.37102],[50.10332,26.37431],[50.10377,26.37462],[50.10428,26.37526],[50.10449,26.37604],[50.10446,26.37652],[50.10403,26.37794],[50.1039,26.37876],[50.10405,26.38237],[50.10248,26.38271],[50.10146,26.38318],[50.09659,26.38622],[50.09495,26.38703],[50.09452,26.38772]]]},"properties":{"district_id":"dammam-al-wahah","name_ar":"الواحة","name_en":"Al Wahah","city":"dammam","source_codes":["70030076562946612"]}},{"type":"Feature","id":"dammam-al-wisam","geometry":{"type":"Polygon","coordinates":[[[50.07618,26.29441],[50.07774,26.29621],[50.09002,26.30863],[50.08542,26.31343],[50.08225,26.31641],[50.08225,26.31675],[50.07818,26.32118],[50.07388,26.32615],[50.06795,26.32417],[50.06535,26.32307],[50.06318,26.32202],[50.06126,26.32098],[50.05776,26.31873],[50.05475,26.31647],[50.05312,26.31507],[50.05081,26.3128],[50.04802,26.30972],[50.04506,26.30583],[50.04512,26.30569],[50.04505,26.30562],[50.04537,26.30489],[50.05059,26.29344],[50.05146,26.2918],[50.05284,26.2897],[50.05428,26.28799],[50.0554,26.28683],[50.05652,26.28584],[50.05816,26.28457],[50.05958,26.28364],[50.06112,26.28276],[50.06397,26.28141],[50.07618,26.29441]]]},"properties":{"district_id":"dammam-al-wisam","name_ar":"الوسام","name_en":"Al Wisam","city":"dammam","source_codes":["70030076562852796"]}},{"type":"Feature","id":"dammam-al-zohour","geometry":{"type":"Polygon","coordinates":[[[50.0824,26.45901],[50.08122,26.45917],[50.08103,26.45852],[50.08102,26.4519],[50.0807,26.45022],[50.08176,26.44981],[50.0822,26.44974],[50.08312,26.44969],[50.08868,26.4498],[50.09662,26.44871],[50.09665,26.45752],[50.09683,26.45804],[50.0975,26.45888],[50.09611,26.45898],[50.0824,26.45901]]]},"properties":{"district_id":"dammam-al-zohour","name_ar":"الزهور","name_en":"Al Zohour","city":"dammam","source_codes":["70030076562949702"]}},{"type":"Feature","id":"dammam-as-saif","geometry":{"type":"Polygon","coordinates":[[[50.18936,26.38918],[50.19576,26.37881],[50.19695,26.37696],[50.19824,26.37522],[50.21365,26.37963],[50.22242,26.38238],[50.23416,26.38578],[50.23643,26.38674],[50.22464,26.4066],[50.2222,26.40563],[50.18936,26.38918]]]},"properties":{"district_id":"dammam-as-saif","name_ar":"السيف","name_en":"As Saif","city":"dammam","source_codes":["70030076562947317"]}},{"type":"Feature","id":"dammam-ash-shati-al-gharbi","geometry":{"type":"Polygon","coordinates":[[[50.13036,26.499],[50.13,26.49905],[50.12964,26.49898],[50.12934,26.49878],[50.12913,26.4985],[50.12739,26.49889],[50.12716,26.49874],[50.12208,26.49982],[50.12177,26.49859],[50.12164,26.49842],[50.12142,26.49764],[50.12103,26.49738],[50.12022,26.49736],[50.11997,26.49699],[50.11997,26.49676],[50.12012,26.49656],[50.12051,26.49642],[50.12094,26.49657],[50.12107,26.49654],[50.12114,26.49642],[50.12108,26.49614],[50.12088,26.49625],[50.12069,26.49613],[50.12072,26.49586],[50.12098,26.49581],[50.12091,26.49559],[50.12062,26.49512],[50.12014,26.49469],[50.11997,26.49436],[50.11995,26.49388],[50.12019,26.49313],[50.12002,26.49254],[50.11976,26.49228],[50.11899,26.49189],[50.11837,26.49145],[50.11797,26.49088],[50.11767,26.49062],[50.11714,26.49044],[50.11634,26.49051],[50.11589,26.49041],[50.11542,26.49007],[50.11515,26.48957],[50.11514,26.48932],[50.11524,26.48908],[50.11543,26.48889],[50.11568,26.4888],[50.11607,26.48886],[50.11668,26.48943],[50.11732,26.48966],[50.11767,26.48967],[50.11791,26.48958],[50.11811,26.48939],[50.1182,26.48913],[50.11815,26.4888],[50.11794,26.48855],[50.11765,26.48844],[50.11726,26.48853],[50.11693,26.48846],[50.11661,26.48822],[50.11642,26.48789],[50.11638,26.48749],[50.11652,26.48711],[50.11676,26.48686],[50.11721,26.48662],[50.11738,26.48637],[50.11738,26.48601],[50.11716,26.48573],[50.11683,26.48563],[50.1165,26.48574],[50.11594,26.48629],[50.11559,26.48698],[50.1153,26.48718],[50.11501,26.4872],[50.11475,26.48708],[50.11458,26.48689],[50.11449,26.48657],[50.11454,26.48599],[50.11486,26.48551],[50.11529,26.48525],[50.11605,26.48511],[50.11641,26.48481],[50.1165,26.48465],[50.11646,26.48415],[50.11658,26.48362],[50.1168,26.48324],[50.11721,26.48277],[50.11736,26.48242],[50.11739,26.48227],[50.11675,26.47954],[50.11655,26.47949],[50.11644,26.47932],[50.11646,26.47912],[50.1166,26.47898],[50.11644,26.4783],[50.11543,26.47752],[50.11519,26.47713],[50.11471,26.4755],[50.11211,26.47602],[50.11219,26.47674],[50.11195,26.47743],[50.11138,26.47801],[50.11102,26.47817],[50.11087,26.47808],[50.1109,26.47796],[50.1115,26.47755],[50.1118,26.47702],[50.11185,26.47637],[50.11177,26.47608],[50.11162,26.47608],[50.11156,26.47593],[50.11161,26.47574],[50.11472,26.47512],[50.11485,26.47443],[50.11345,26.47433],[50.11212,26.47331],[50.1115,26.47394],[50.1113,26.47381],[50.11023,26.47493],[50.1105,26.47625],[50.10956,26.47641],[50.10953,26.47628],[50.11016,26.47616],[50.11,26.47558],[50.10953,26.47524],[50.10977,26.47498],[50.10924,26.47456],[50.1093,26.47422],[50.10915,26.47394],[50.10889,26.47392],[50.10857,26.47369],[50.10797,26.47406],[50.10847,26.47462],[50.10883,26.47534],[50.10901,26.47639],[50.10901,26.47645],[50.10883,26.47645],[50.10859,26.47561],[50.10819,26.47483],[50.10771,26.4742],[50.10681,26.47334],[50.10634,26.47253],[50.10613,26.47163],[50.10612,26.47141],[50.10624,26.47128],[50.10646,26.47134],[50.10656,26.47217],[50.1067,26.47259],[50.10696,26.47303],[50.10743,26.47356],[50.10772,26.47381],[50.1084,26.47341],[50.10821,26.47295],[50.10727,26.4722],[50.10705,26.47168],[50.10696,26.47092],[50.10708,26.47082],[50.10724,26.47084],[50.10839,26.47176],[50.10863,26.47182],[50.10974,26.47063],[50.10921,26.47023],[50.10862,26.4701],[50.10801,26.47026],[50.10754,26.47067],[50.10729,26.47043],[50.10745,26.47013],[50.1078,26.46979],[50.10823,26.46958],[50.10872,26.46953],[50.10916,26.46964],[50.10969,26.46935],[50.11031,26.46934],[50.11097,26.46875],[50.11154,26.46807],[50.11202,26.46731],[50.11238,26.4665],[50.11268,26.46543],[50.11278,26.46443],[50.11272,26.46343],[50.11248,26.46234],[50.11205,26.46131],[50.11152,26.46047],[50.11086,26.45971],[50.11009,26.45907],[50.11216,26.45697],[50.1118,26.45614],[50.1122,26.45535],[50.11245,26.45506],[50.11272,26.45488],[50.11969,26.45356],[50.13036,26.499]]]},"properties":{"district_id":"dammam-ash-shati-al-gharbi","name_ar":"الشاطئ الغربي","name_en":"Ash Shati Al Gharbi","city":"dammam","source_codes":["70030076562945496"]}},{"type":"Feature","id":"dammam-ash-shati-ash-sharqi","geometry":{"type":"Polygon","coordinates":[[[50.13277,26.45115],[50.13304,26.45233],[50.13343,26.4584],[50.13285,26.4631],[50.13338,26.46382],[50.13323,26.46547],[50.13362,26.46591],[50.13372,26.46669],[50.13372,26.4676],[50.13359,26.468],[50.13364,26.46945],[50.13359,26.47034],[50.13374,26.47095],[50.13374,26.4718],[50.13414,26.47362],[50.13389,26.47483],[50.13393,26.47571],[50.13416,26.47609],[50.13469,26.47646],[50.13408,26.47759],[50.13408,26.47805],[50.13421,26.47847],[50.13408,26.47961],[50.13446,26.48011],[50.13456,26.48048],[50.13456,26.48089],[50.13429,26.48142],[50.13414,26.48199],[50.13446,26.48269],[50.13454,26.48319],[50.13433,26.48405],[50.13463,26.48523],[50.13511,26.48519],[50.13534,26.48555],[50.13471,26.48581],[50.13494,26.4869],[50.13471,26.48708],[50.13469,26.48746],[50.13444,26.48776],[50.13488,26.49712],[50.13313,26.49755],[50.13298,26.49774],[50.13121,26.49799],[50.13117,26.49834],[50.13099,26.49867],[50.1307,26.4989],[50.13036,26.499],[50.11969,26.45356],[50.13277,26.45115]]]},"properties":{"district_id":"dammam-ash-shati-ash-sharqi","name_ar":"الشاطئ الشرقي","name_en":"Ash Shati Ash Sharqi","city":"dammam","source_codes":["70030076562945485"]}},{"type":"Feature","id":"dammam-badr","geometry":{"type":"Polygon","coordinates":[[[50.04283,26.39745],[50.02606,26.42137],[50.02063,26.41921],[50.01229,26.41612],[50.01364,26.41105],[50.02161,26.38455],[50.02391,26.3857],[50.02605,26.38696],[50.02826,26.38855],[50.03182,26.39142],[50.0335,26.39256],[50.036,26.39398],[50.04283,26.39745]]]},"properties":{"district_id":"dammam-badr","name_ar":"بدر","name_en":"Badr","city":"dammam","source_codes":["70030076562941402"]}},{"type":"Feature","id":"dammam-bu-tiyeenah","geometry":{"type":"Polygon","coordinates":[[[49.6459,26.29249],[49.63352,26.28616],[49.63532,26.26778],[49.63431,26.26336],[49.63311,26.25634],[49.63671,26.25072],[49.63857,26.25026],[49.64082,26.25052],[49.64138,26.24826],[49.64679,26.24938],[49.65261,26.25027],[49.65569,26.25878],[49.68308,26.2619],[49.69208,26.26186],[49.69738,26.26227],[49.69574,26.27826],[49.69351,26.28803],[49.67893,26.28838],[49.64974,26.2813],[49.6459,26.29249]]]},"properties":{"district_id":"dammam-bu-tiyeenah","name_ar":"أبو طيينة","name_en":"Bu Tiyeenah","city":"dammam","source_codes":["70030076562839558"]}},{"type":"Feature","id":"dammam-ettisalat","geometry":{"type":"Polygon","coordinates":[[[50.09017,26.41901],[50.08897,26.4208],[50.07754,26.41503],[50.08265,26.40676],[50.09487,26.41293],[50.09529,26.41324],[50.0959,26.41394],[50.0945,26.41552],[50.09246,26.41702],[50.09074,26.41842],[50.09017,26.41901]]]},"properties":{"district_id":"dammam-ettisalat","name_ar":"الأتصالات","name_en":"Ettisalat","city":"dammam","source_codes":["70030076562946063"]}},{"type":"Feature","id":"dammam-first-industrial","geometry":{"type":"Polygon","coordinates":[[[50.15187,26.39405],[50.13124,26.41233],[50.13089,26.40926],[50.12917,26.38444],[50.13181,26.38499],[50.14028,26.39074],[50.14073,26.39006],[50.14106,26.3898],[50.14975,26.38631],[50.15039,26.38909],[50.15187,26.39405]]]},"properties":{"district_id":"dammam-first-industrial","name_ar":"الصناعية الأولى","name_en":"First Industrial","city":"dammam","source_codes":["70030076562946667"]}},{"type":"Feature","id":"dammam-gharb-adh-dhahran","geometry":{"type":"Polygon","coordinates":[[[50.13244,26.33394],[50.1309,26.33475],[50.12532,26.33708],[50.12414,26.33769],[50.12154,26.33928],[50.1206,26.33977],[50.11917,26.34028],[50.11781,26.34054],[50.1142,26.34069],[50.11244,26.33939],[50.11101,26.3385],[50.10807,26.33702],[50.11334,26.32283],[50.11115,26.32161],[50.10925,26.32076],[50.10729,26.31972],[50.09733,26.31321],[50.09579,26.31195],[50.09393,26.31002],[50.09242,26.30827],[50.09479,26.30601],[50.09658,26.3048],[50.09703,26.30425],[50.09733,26.30357],[50.09654,26.30324],[50.0958,26.30271],[50.09522,26.30203],[50.09481,26.30119],[50.09467,26.30037],[50.09468,26.29855],[50.09486,26.29769],[50.09526,26.29682],[50.09574,26.29616],[50.09628,26.29564],[50.09846,26.29418],[50.09901,26.29369],[50.09949,26.29301],[50.1001,26.29155],[50.10078,26.29075],[50.10139,26.29031],[50.1038,26.28904],[50.10433,26.28861],[50.10476,26.28795],[50.10547,26.28572],[50.10571,26.2852],[50.10634,26.28443],[50.10713,26.28389],[50.1077,26.28366],[50.11,26.28302],[50.11073,26.28297],[50.11213,26.28327],[50.1128,26.28353],[50.11452,26.28492],[50.11508,26.28523],[50.11564,26.28536],[50.11702,26.28548],[50.11751,26.28564],[50.11813,26.2861],[50.11848,26.28677],[50.11892,26.291],[50.12064,26.29103],[50.1219,26.29128],[50.12279,26.29162],[50.12505,26.29278],[50.12635,26.29319],[50.12862,26.29371],[50.13087,26.29467],[50.13132,26.29394],[50.13141,26.29363],[50.13142,26.29091],[50.13132,26.29042],[50.13189,26.29037],[50.13235,26.29047],[50.13498,26.29207],[50.13948,26.29721],[50.13973,26.29703],[50.13918,26.29636],[50.13899,26.29576],[50.13898,26.29534],[50.13913,26.29485],[50.13947,26.29436],[50.14046,26.29347],[50.14086,26.29325],[50.14133,26.29312],[50.14185,26.29309],[50.14238,26.29321],[50.14413,26.29413],[50.14503,26.29444],[50.14564,26.29453],[50.14654,26.29446],[50.14728,26.29424],[50.14805,26.29379],[50.1485,26.29332],[50.1491,26.29228],[50.14934,26.29213],[50.14965,26.29209],[50.15058,26.29237],[50.15166,26.29297],[50.15227,26.29334],[50.15371,26.29448],[50.153,26.29529],[50.15213,26.29691],[50.15182,26.29727],[50.15135,26.2976],[50.15038,26.29806],[50.14941,26.29899],[50.14758,26.29991],[50.14717,26.30026],[50.14662,26.30167],[50.14662,26.30242],[50.14687,26.3031],[50.14691,26.30399],[50.1435,26.304],[50.14315,26.30409],[50.14288,26.30438],[50.14257,26.30548],[50.14239,26.30578],[50.14112,26.30678],[50.13982,26.30798],[50.13943,26.30856],[50.13898,26.30942],[50.13896,26.31036],[50.13921,26.31155],[50.13908,26.31222],[50.13895,26.31239],[50.13842,26.31283],[50.13655,26.31376],[50.13611,26.31373],[50.13523,26.31323],[50.13495,26.31324],[50.13467,26.31335],[50.13571,26.3153],[50.13842,26.3164],[50.14293,26.31761],[50.14391,26.31796],[50.14555,26.31875],[50.14991,26.32127],[50.14888,26.32261],[50.1482,26.3233],[50.14064,26.32922],[50.13244,26.33394]]]},"properties":{"district_id":"dammam-gharb-adh-dhahran","name_ar":"غرب الظهران","name_en":"Gharb Adh Dhahran","city":"dammam","source_codes":["70030076562945001"]}},{"type":"Feature","id":"dammam-ghornata","geometry":{"type":"Polygon","coordinates":[[[50.08542,26.4332],[50.08513,26.43404],[50.07032,26.42654],[50.07127,26.42512],[50.07754,26.41503],[50.08897,26.4208],[50.08602,26.42559],[50.08551,26.42661],[50.08545,26.42696],[50.08542,26.4332]]]},"properties":{"district_id":"dammam-ghornata","name_ar":"غرناطة","name_en":"Ghornata","city":"dammam","source_codes":["70030076562949753"]}},{"type":"Feature","id":"dammam-hajr","geometry":{"type":"Polygon","coordinates":[[[50.11033,26.37543],[50.10693,26.37541],[50.10575,26.37511],[50.10428,26.37526],[50.10377,26.37462],[50.10332,26.37431],[50.09315,26.37102],[50.09692,26.36517],[50.09934,26.36017],[50.10813,26.33704],[50.11036,26.33813],[50.11244,26.33939],[50.1142,26.34069],[50.12095,26.34604],[50.12195,26.34666],[50.12376,26.34761],[50.12712,26.34884],[50.12743,26.35374],[50.12793,26.35961],[50.12946,26.36092],[50.129,26.36145],[50.12816,26.36266],[50.12695,26.36492],[50.12616,26.36712],[50.12432,26.37329],[50.11183,26.37529],[50.11033,26.37543]]]},"properties":{"district_id":"dammam-hajr","name_ar":"هجر","name_en":"Hajr","city":"dammam","source_codes":["70030076562946645"]}},{"type":"Feature","id":"dammam-ibn-khaldun","geometry":{"type":"Polygon","coordinates":[[[50.10055,26.42666],[50.08897,26.4208],[50.09017,26.41901],[50.09309,26.42047],[50.09347,26.42058],[50.10496,26.42054],[50.10055,26.42666]]]},"properties":{"district_id":"dammam-ibn-khaldun","name_ar":"ابن خلدون","name_en":"Ibn Khaldun","city":"dammam","source_codes":["70030076562945474"]}},{"type":"Feature","id":"dammam-industrial-west-dammam","geometry":{"type":"Polygon","coordinates":[[[50.02054,26.46805],[50.01289,26.46231],[50.01194,26.46185],[50.00915,26.45976],[50.00828,26.45919],[50.0096,26.45575],[50.01036,26.45349],[50.01171,26.44604],[50.01185,26.44159],[50.01132,26.43311],[50.01413,26.43296],[50.01462,26.43311],[50.02889,26.44303],[50.02914,26.44333],[50.03251,26.44619],[50.03384,26.44718],[50.03641,26.4489],[50.03954,26.45079],[50.02054,26.46805]]]},"properties":{"district_id":"dammam-industrial-west-dammam","name_ar":"الصناعية (غرب الدمام)","name_en":"Industrial (West Dammam)","city":"dammam","source_codes":["70030076562941350"]}},{"type":"Feature","id":"dammam-khobar","geometry":{"type":"MultiPolygon","coordinates":[[[[50.16473,26.17895],[50.16452,26.17818],[50.1651,26.17865],[50.16593,26.17911],[50.16665,26.17937],[50.1674,26.17953],[50.17708,26.18009],[50.17938,26.18015],[50.17935,26.18118],[50.18126,26.18325],[50.18093,26.18352],[50.17963,26.18499],[50.17931,26.18555],[50.17694,26.18819],[50.17455,26.19142],[50.17002,26.19932],[50.1693,26.20015],[50.16905,26.2016],[50.16915,26.20308],[50.16612,26.19467],[50.16531,26.18925],[50.16501,26.18514],[50.1652,26.18224],[50.16473,26.17895]]],[[[50.17993,26.28506],[50.17926,26.28648],[50.1785,26.28779],[50.17759,26.28901],[50.17655,26.29014],[50.16808,26.29569],[50.16826,26.29554],[50.16774,26.29497],[50.17028,26.29339],[50.17129,26.29304],[50.17134,26.2896],[50.17446,26.2865],[50.17461,26.28618],[50.17992,26.26812],[50.18354,26.26802],[50.1892,26.25522],[50.18975,26.25392],[50.18789,26.2527],[50.19124,26.24131],[50.17445,26.22323],[50.17654,26.2217],[50.17023,26.21479],[50.16958,26.21393],[50.17208,26.21391],[50.17207,26.21506],[50.17214,26.21554],[50.17245,26.21632],[50.17294,26.21698],[50.18971,26.23505],[50.19669,26.2427],[50.19675,26.24284],[50.19734,26.24484],[50.19753,26.24654],[50.19743,26.24846],[50.19696,26.25033],[50.19629,26.2519],[50.19573,26.25286],[50.19205,26.25753],[50.19118,26.25882],[50.19044,26.26037],[50.17993,26.28506]]]]},"properties":{"district_id":"dammam-khobar","name_ar":"الخبر","name_en":"Khobar","city":"dammam","source_codes":["70030076562874974"]}},{"type":"Feature","id":"dammam-king-abdul-aziz-seaport","geometry":{"type":"Polygon","coordinates":[[[50.1925,26.52539],[50.19202,26.52533],[50.19166,26.52518],[50.19113,26.52465],[50.1812,26.48078],[50.18088,26.48011],[50.18976,26.47546],[50.19347,26.47331],[50.19245,26.47184],[50.19066,26.4695],[50.17938,26.45357],[50.16575,26.42503],[50.16466,26.42306],[50.16337,26.4219],[50.16186,26.42098],[50.16062,26.42052],[50.16001,26.42046],[50.15941,26.42051],[50.1616,26.41987],[50.16961,26.4162],[50.17318,26.41337],[50.17456,26.41193],[50.17617,26.41641],[50.17757,26.41627],[50.17824,26.41611],[50.18131,26.41414],[50.18367,26.41789],[50.19653,26.44353],[50.19967,26.44827],[50.2123,26.46645],[50.21264,26.46725],[50.21283,26.46799],[50.21292,26.46885],[50.21288,26.46961],[50.21272,26.47046],[50.21247,26.47118],[50.21207,26.47194],[50.21162,26.47256],[50.21195,26.47309],[50.21378,26.47261],[50.21706,26.48725],[50.21989,26.48669],[50.22059,26.48959],[50.21817,26.49223],[50.21943,26.49785],[50.21976,26.49805],[50.22048,26.50103],[50.21977,26.50166],[50.21975,26.50253],[50.21945,26.50427],[50.22201,26.50162],[50.22231,26.5019],[50.21599,26.50808],[50.21377,26.50847],[50.21374,26.50828],[50.2142,26.50821],[50.21418,26.50811],[50.21425,26.5081],[50.21427,26.50819],[50.21569,26.50792],[50.21912,26.5045],[50.21947,26.50253],[50.21952,26.49965],[50.21914,26.49791],[50.21541,26.49857],[50.21561,26.49941],[50.21523,26.49948],[50.21406,26.49415],[50.21407,26.49402],[50.21499,26.49385],[50.21419,26.49029],[50.21317,26.49047],[50.21304,26.48974],[50.21222,26.48993],[50.21212,26.48932],[50.21291,26.48918],[50.21214,26.48571],[50.21244,26.48565],[50.21256,26.48551],[50.21239,26.48473],[50.21547,26.48415],[50.21402,26.47764],[50.21051,26.47834],[50.21068,26.47842],[50.21082,26.47876],[50.2105,26.47878],[50.21054,26.47911],[50.21028,26.4791],[50.21024,26.4788],[50.2077,26.47897],[50.20794,26.47961],[50.20807,26.47958],[50.20811,26.47967],[50.20743,26.47998],[50.20724,26.48033],[50.20566,26.48035],[50.20527,26.48059],[50.20427,26.48093],[50.20377,26.48087],[50.20362,26.4804],[50.20272,26.48063],[50.20265,26.48035],[50.20353,26.48012],[50.20312,26.47886],[50.20282,26.47895],[50.20251,26.47804],[50.20096,26.47849],[50.20099,26.47883],[50.20109,26.47892],[50.20118,26.47888],[50.20119,26.47947],[50.20171,26.48104],[50.20152,26.4811],[50.20128,26.48099],[50.20104,26.48141],[50.20078,26.48131],[50.19972,26.48158],[50.19904,26.47961],[50.19723,26.4801],[50.19806,26.4826],[50.20091,26.48262],[50.20092,26.48317],[50.19825,26.48317],[50.19891,26.48516],[50.20073,26.48517],[50.20083,26.48438],[50.20192,26.48446],[50.2022,26.48314],[50.20833,26.48316],[50.20835,26.48324],[50.20788,26.48323],[50.20812,26.48354],[50.20814,26.48384],[50.2089,26.4856],[50.20881,26.48584],[50.20881,26.48613],[50.20894,26.48651],[50.2089,26.48668],[50.20901,26.48685],[50.20915,26.48682],[50.20938,26.48786],[50.20909,26.48802],[50.20915,26.48821],[50.20945,26.48812],[50.20982,26.48977],[50.20963,26.49013],[50.20954,26.4907],[50.20967,26.4917],[50.20983,26.49192],[50.21018,26.49354],[50.21037,26.49472],[50.21034,26.49557],[50.21061,26.49624],[50.21054,26.4964],[50.21062,26.49685],[50.21146,26.50022],[50.21147,26.50071],[50.21164,26.50175],[50.2119,26.50224],[50.21202,26.50232],[50.21255,26.50228],[50.2126,26.50247],[50.21249,26.50256],[50.20858,26.50328],[50.20828,26.50371],[50.20827,26.50401],[50.20764,26.50416],[50.20756,26.50384],[50.20782,26.50348],[50.20772,26.50281],[50.2081,26.50272],[50.20462,26.48732],[50.20434,26.48738],[50.20422,26.48708],[50.20028,26.48776],[50.20547,26.51057],[50.20675,26.51036],[50.20687,26.5104],[50.2069,26.51058],[50.20682,26.51067],[50.20484,26.51102],[50.19987,26.5146],[50.1994,26.51509],[50.19886,26.51526],[50.19891,26.51547],[50.19858,26.5156],[50.1983,26.5143],[50.19848,26.51425],[50.19849,26.51442],[50.19894,26.51434],[50.19331,26.48926],[50.19274,26.48939],[50.19234,26.48787],[50.19195,26.48793],[50.19223,26.48917],[50.18902,26.48977],[50.18907,26.48998],[50.18892,26.49],[50.18972,26.49395],[50.1895,26.49434],[50.19182,26.50459],[50.19314,26.51097],[50.19236,26.51119],[50.19223,26.51138],[50.19217,26.51174],[50.19252,26.51305],[50.19238,26.51317],[50.19227,26.51519],[50.19278,26.51703],[50.19265,26.5181],[50.19286,26.51837],[50.1928,26.51851],[50.19261,26.51861],[50.19246,26.51929],[50.19055,26.52075],[50.19141,26.52454],[50.19182,26.52499],[50.19214,26.52511],[50.19249,26.52513],[50.19749,26.5242],[50.19759,26.52409],[50.19777,26.52426],[50.19766,26.52446],[50.1925,26.52539]]]},"properties":{"district_id":"dammam-king-abdul-aziz-seaport","name_ar":"ميناء الملك عبد العزيز","name_en":"King Abdul Aziz Seaport","city":"dammam","source_codes":["70030076562945507"]}},{"type":"Feature","id":"dammam-king-fahd-suburb","geometry":{"type":"Polygon","coordinates":[[[49.99207,26.37212],[49.99402,26.37272],[50.01009,26.37888],[50.0128,26.38009],[50.02161,26.38455],[50.01364,26.41105],[50.01191,26.41757],[50.01137,26.42139],[50.01109,26.42474],[50.01104,26.42634],[50.01126,26.43212],[50.01185,26.44159],[50.01177,26.445],[50.01154,26.44721],[50.01036,26.45349],[50.0096,26.45575],[50.00828,26.45919],[50.00668,26.46244],[50.0056,26.4643],[50.0043,26.46626],[50.00318,26.46782],[50.00121,26.47024],[49.96889,26.45892],[49.96803,26.45772],[49.98042,26.40438],[49.98058,26.40342],[49.98389,26.38958],[49.98805,26.37132],[49.99207,26.37212]]]},"properties":{"district_id":"dammam-king-fahd-suburb","name_ar":"ضاحية الملك فهد","name_en":"King Fahd Suburb","city":"dammam","source_codes":["70030076562942530"]}},{"type":"Feature","id":"dammam-king-faisal-university-city","geometry":{"type":"Polygon","coordinates":[[[50.2222,26.40563],[50.22473,26.40663],[50.22029,26.41339],[50.21546,26.41095],[50.21319,26.41003],[50.21106,26.40875],[50.20678,26.40659],[50.20533,26.40591],[50.2036,26.40526],[50.2015,26.40396],[50.18527,26.39583],[50.18936,26.38918],[50.2222,26.40563]]]},"properties":{"district_id":"dammam-king-faisal-university-city","name_ar":"مدينة الملك فيصل الجامعية","name_en":"King Faisal University City","city":"dammam","source_codes":["70030076562947328"]}},{"type":"Feature","id":"dammam-madinat-al-ummal","geometry":{"type":"Polygon","coordinates":[[[50.10489,26.42859],[50.10424,26.4285],[50.10055,26.42666],[50.10496,26.42054],[50.10827,26.42052],[50.10837,26.42042],[50.10844,26.41989],[50.1084,26.41772],[50.10804,26.41663],[50.1095,26.41597],[50.11014,26.41726],[50.11512,26.42506],[50.10885,26.42827],[50.10825,26.42852],[50.10489,26.42859]]]},"properties":{"district_id":"dammam-madinat-al-ummal","name_ar":"مدينة العمال","name_en":"Madinat Al Ummal","city":"dammam","source_codes":["70030076562946041"]}},{"type":"Feature","id":"dammam-northen-al-dana","geometry":{"type":"Polygon","coordinates":[[[50.15355,26.33577],[50.15287,26.33694],[50.1515,26.3388],[50.15075,26.33963],[50.14494,26.34539],[50.14252,26.344],[50.14251,26.34365],[50.13778,26.33995],[50.13776,26.33913],[50.13727,26.33902],[50.13681,26.33882],[50.1353,26.33764],[50.13487,26.33708],[50.13452,26.3363],[50.1336,26.33514],[50.1328,26.33446],[50.13244,26.33394],[50.1393,26.33004],[50.14064,26.32922],[50.1417,26.32843],[50.14412,26.33083],[50.14471,26.33125],[50.14543,26.33162],[50.14614,26.33184],[50.14688,26.33196],[50.14888,26.33193],[50.15037,26.33215],[50.15141,26.33249],[50.1533,26.33336],[50.15447,26.33373],[50.15355,26.33577]]]},"properties":{"district_id":"dammam-northen-al-dana","name_ar":"الدانة الشمالية","name_en":"Northen Al Dana","city":"dammam","source_codes":["70030076562945432"]}},{"type":"Feature","id":"dammam-northern-al-khalidiyah","geometry":{"type":"Polygon","coordinates":[[[50.15494,26.40685],[50.1616,26.41987],[50.15017,26.42305],[50.14742,26.42363],[50.14374,26.42524],[50.13943,26.42737],[50.13661,26.42895],[50.13271,26.43143],[50.13198,26.42096],[50.13124,26.41233],[50.14971,26.39596],[50.15494,26.40685]]]},"properties":{"district_id":"dammam-northern-al-khalidiyah","name_ar":"الخالدية الشمالية","name_en":"Northern Al Khalidiyah","city":"dammam","source_codes":["70030076562946700"]}},{"type":"Feature","id":"dammam-northern-housing","geometry":{"type":"Polygon","coordinates":[[[49.98039,26.36517],[49.97989,26.36486],[49.97313,26.36172],[49.96734,26.35882],[49.96842,26.35526],[49.97226,26.3415],[49.97679,26.34255],[49.9805,26.34316],[49.98253,26.34339],[49.98482,26.34362],[49.99432,26.34387],[49.98039,26.36517]]]},"properties":{"district_id":"dammam-northern-housing","name_ar":"الإسكان الشمالي","name_en":"Northern housing","city":"dammam","source_codes":["70030076562863294"]}},{"type":"Feature","id":"dammam-prince-muhammed-ibn-saud","geometry":{"type":"Polygon","coordinates":[[[50.11802,26.43849],[50.10779,26.43849],[50.10781,26.42858],[50.10825,26.42852],[50.10885,26.42827],[50.11512,26.42506],[50.11773,26.42921],[50.11794,26.42975],[50.11801,26.43133],[50.11802,26.43849]]]},"properties":{"district_id":"dammam-prince-muhammed-ibn-saud","name_ar":"الأمير محمد بن سعود","name_en":"Prince Muhammed Ibn Saud","city":"dammam","source_codes":["70030076562949734"]}},{"type":"Feature","id":"dammam-qasr-al-khalij","geometry":{"type":"Polygon","coordinates":[[[50.12837,26.37249],[50.12695,26.37289],[50.12432,26.37329],[50.12656,26.36593],[50.12726,26.36426],[50.12816,26.36266],[50.12923,26.36115],[50.13663,26.35359],[50.14041,26.35669],[50.1426,26.35887],[50.14346,26.35989],[50.14468,26.36153],[50.14659,26.36484],[50.14494,26.36564],[50.14442,26.36581],[50.14386,26.36588],[50.1424,26.36587],[50.14139,26.36611],[50.12837,26.37249]]]},"properties":{"district_id":"dammam-qasr-al-khalij","name_ar":"قصر الخليج","name_en":"Qasr Al Khalij","city":"dammam","source_codes":["70030076562946678"]}},{"type":"Feature","id":"dammam-southern-al-dana","geometry":{"type":"Polygon","coordinates":[[[50.15447,26.33373],[50.1533,26.33336],[50.15141,26.33249],[50.15037,26.33215],[50.14888,26.33193],[50.14688,26.33196],[50.14614,26.33184],[50.14543,26.33162],[50.14471,26.33125],[50.14412,26.33083],[50.1417,26.32843],[50.1482,26.3233],[50.14888,26.32261],[50.14991,26.32127],[50.15153,26.32226],[50.15471,26.32394],[50.15497,26.32453],[50.15524,26.32537],[50.15544,26.3264],[50.15549,26.32886],[50.15534,26.33042],[50.15513,26.33154],[50.15447,26.33373]]]},"properties":{"district_id":"dammam-southern-al-dana","name_ar":"الدانة الجنوبية","name_en":"Southern Al Dana","city":"dammam","source_codes":["70030076562944990"]}},{"type":"Feature","id":"dammam-southern-al-khalidiyah","geometry":{"type":"Polygon","coordinates":[[[50.17318,26.41337],[50.16961,26.4162],[50.1616,26.41987],[50.15494,26.40685],[50.14971,26.39596],[50.16464,26.38279],[50.16767,26.39152],[50.16818,26.39619],[50.16906,26.3987],[50.17134,26.40232],[50.17183,26.40333],[50.17474,26.41174],[50.17318,26.41337]]]},"properties":{"district_id":"dammam-southern-al-khalidiyah","name_ar":"الخالدية الجنوبية","name_en":"Southern Al Khalidiyah","city":"dammam","source_codes":["70030076562947295"]}},{"type":"Feature","id":"dammam-southern-housing","geometry":{"type":"Polygon","coordinates":[[[50.00788,26.32281],[49.99432,26.34387],[49.98482,26.34362],[49.98253,26.34339],[49.9805,26.34316],[49.97679,26.34255],[49.97272,26.34161],[49.99106,26.31212],[50.00788,26.32281]]]},"properties":{"district_id":"dammam-southern-housing","name_ar":"الإسكان الجنوبي","name_en":"Southern Housing","city":"dammam","source_codes":["70030076562863293"]}},{"type":"Feature","id":"dammam-support-services","geometry":{"type":"Polygon","coordinates":[[[49.94724,26.18713],[49.94927,26.18916],[49.96727,26.2086],[49.96336,26.21386],[49.96297,26.21425],[49.9543,26.22576],[49.95379,26.22545],[49.92185,26.26783],[49.90992,26.26028],[49.8897,26.24722],[49.88154,26.24212],[49.8668,26.21117],[49.84697,26.17076],[49.8284,26.13188],[49.82164,26.1179],[49.82374,26.11868],[49.82667,26.11962],[49.84186,26.12483],[49.8456,26.12599],[49.85419,26.12833],[49.85677,26.12913],[49.85991,26.13013],[49.87158,26.1342],[49.87428,26.13504],[49.87671,26.13552],[49.87895,26.13571],[49.88185,26.13573],[49.88355,26.13563],[49.88672,26.13581],[49.88836,26.13609],[49.94724,26.18713]]]},"properties":{"district_id":"dammam-support-services","name_ar":"الخدمات المساندة","name_en":"Support services","city":"dammam","source_codes":["70030076562852797"]}},{"type":"Feature","id":"dammam-tiba","geometry":{"type":"Polygon","coordinates":[[[50.07342,26.36141],[50.0618,26.37493],[50.05668,26.37129],[50.05326,26.36916],[50.05117,26.36765],[50.04441,26.36189],[50.04288,26.36079],[50.04055,26.35951],[50.0303,26.35493],[50.0335,26.33941],[50.05146,26.35068],[50.0526,26.34936],[50.07342,26.36141]]]},"properties":{"district_id":"dammam-tiba","name_ar":"طيبة","name_en":"Tiba","city":"dammam","source_codes":["70030076562941886"]}},{"type":"Feature","id":"dammam-tihamah","geometry":{"type":"Polygon","coordinates":[[[50.13028,26.34986],[50.13193,26.35055],[50.13301,26.35109],[50.13463,26.35207],[50.13663,26.35359],[50.12946,26.36092],[50.12793,26.35961],[50.12743,26.35374],[50.12712,26.34884],[50.13028,26.34986]]]},"properties":{"district_id":"dammam-tihamah","name_ar":"تهامة","name_en":"Tihamah","city":"dammam","source_codes":["70030076562947866"]}},{"type":"Feature","id":"dammam-west-of-dammam","geometry":{"type":"MultiPolygon","coordinates":[[[[49.8211,26.11653],[49.84748,26.10437],[49.85415,26.10825],[49.88811,26.13605],[49.88672,26.13581],[49.88355,26.13563],[49.88185,26.13573],[49.87895,26.13571],[49.87671,26.13552],[49.87428,26.13504],[49.87158,26.1342],[49.85991,26.13013],[49.85677,26.12913],[49.85419,26.12833],[49.8456,26.12599],[49.84186,26.12483],[49.82667,26.11962],[49.82374,26.11868],[49.82164,26.1179],[49.8211,26.11653]]],[[[49.93204,26.46414],[49.93122,26.46395],[49.91975,26.47209],[49.91953,26.47283],[49.93453,26.50544],[49.93526,26.50637],[49.93626,26.50695],[49.93485,26.50859],[49.9264,26.51911],[49.92508,26.52064],[49.92247,26.52334],[49.92093,26.52474],[49.91884,26.52647],[49.91604,26.5285],[49.9127,26.53056],[49.90969,26.53218],[49.90829,26.53264],[49.89966,26.53714],[49.89642,26.53921],[49.89349,26.54141],[49.89044,26.54416],[49.88157,26.54496],[49.86614,26.53373],[49.85211,26.52592],[49.84108,26.52051],[49.89601,26.48483],[49.85872,26.40445],[49.84509,26.40705],[49.82846,26.37037],[49.71641,26.28899],[49.72663,26.27315],[49.88095,26.24223],[49.86108,26.20095],[49.82722,26.13187],[49.82164,26.1179],[49.8284,26.13188],[49.84697,26.17076],[49.8668,26.21117],[49.88154,26.24212],[49.8897,26.24722],[49.90992,26.26028],[49.92185,26.26783],[49.95379,26.22545],[49.9543,26.22576],[49.96297,26.21425],[49.96336,26.21386],[49.96727,26.2086],[49.94927,26.18916],[49.94724,26.18713],[49.89213,26.13934],[49.91406,26.1573],[49.94503,26.18406],[49.94885,26.18756],[49.97077,26.21127],[49.97033,26.21179],[49.98662,26.22938],[49.99034,26.23351],[49.99308,26.23688],[50.00403,26.2515],[50.01265,26.26284],[49.97762,26.30355],[49.97661,26.30286],[49.95551,26.33615],[49.95123,26.33519],[49.93944,26.33285],[49.93366,26.33131],[49.92087,26.327],[49.92042,26.32973],[49.91803,26.34073],[49.91787,26.34197],[49.93478,26.38408],[49.93972,26.39376],[49.93998,26.39441],[49.94413,26.41194],[49.94431,26.41227],[49.95125,26.41053],[49.95381,26.40176],[49.95422,26.3987],[49.95487,26.37663],[49.96259,26.37466],[49.95722,26.39211],[49.97233,26.39499],[49.97708,26.37434],[49.97808,26.37134],[49.98068,26.36536],[49.98096,26.36554],[49.98356,26.36284],[50.01724,26.33115],[50.01884,26.32972],[50.02389,26.33291],[50.02134,26.33335],[50.02058,26.33395],[50.02048,26.33458],[50.01623,26.33824],[50.0134,26.34096],[50.01204,26.34248],[50.01036,26.34382],[50.01006,26.34414],[50.00967,26.34477],[50.00911,26.34623],[50.0098,26.34644],[50.00957,26.34748],[50.00847,26.35093],[50.00773,26.35231],[50.0077,26.3526],[50.00793,26.35295],[49.99179,26.36801],[49.98829,26.36994],[49.98799,26.37163],[49.98389,26.38958],[49.98058,26.40342],[49.98042,26.40438],[49.96803,26.45772],[49.96897,26.45905],[49.95557,26.45435],[49.95352,26.47627],[49.94932,26.49755],[49.94774,26.4983],[49.93204,26.46414]]]]},"properties":{"district_id":"dammam-west-of-dammam","name_ar":"غرب الدمام","name_en":"West of Dammam","city":"dammam","source_codes":["70030076562874975"]}}]}