{"type":"FeatureCollection","city":"khobar","source":"momrah_administrative_districts","count":52,"features":[{"type":"Feature","id":"khobar-ad-dawhah-al-janubiyah","geometry":{"type":"Polygon","coordinates":[[[50.16847,26.32945],[50.1667,26.32968],[50.16574,26.32999],[50.16494,26.33035],[50.1639,26.33102],[50.16049,26.33379],[50.15992,26.33412],[50.15923,26.33439],[50.15819,26.33458],[50.15714,26.33454],[50.15447,26.33373],[50.15513,26.33154],[50.15534,26.33042],[50.15549,26.32886],[50.15544,26.3264],[50.15524,26.32537],[50.15497,26.32453],[50.15471,26.32394],[50.15153,26.32226],[50.14991,26.32127],[50.15727,26.31137],[50.15799,26.31017],[50.16053,26.3044],[50.16102,26.30351],[50.16221,26.30165],[50.16313,26.3004],[50.16443,26.29888],[50.16525,26.29808],[50.17021,26.30118],[50.17152,26.30222],[50.17288,26.30364],[50.17365,26.30465],[50.17861,26.31214],[50.17926,26.31359],[50.17957,26.31507],[50.1792,26.33257],[50.17596,26.3319],[50.17515,26.33157],[50.17326,26.33057],[50.17087,26.32976],[50.16975,26.32952],[50.16847,26.32945]]]},"properties":{"district_id":"khobar-ad-dawhah-al-janubiyah","name_ar":"الدوحة الجنوبية","name_en":"Ad Dawhah Al Janubiyah","city":"khobar","source_codes":["70030076562945045"]}},{"type":"Feature","id":"khobar-al-andalus","geometry":{"type":"Polygon","coordinates":[[[50.19151,26.31355],[50.19023,26.32004],[50.18955,26.32173],[50.18814,26.33431],[50.1792,26.33257],[50.17957,26.31507],[50.1915,26.31311],[50.19151,26.31355]]]},"properties":{"district_id":"khobar-al-andalus","name_ar":"الأندلس","name_en":"Al Andalus","city":"khobar","source_codes":["70030076562984848"]}},{"type":"Feature","id":"khobar-al-aqiq","geometry":{"type":"Polygon","coordinates":[[[50.1553,26.08094],[50.15751,26.0852],[50.15904,26.09082],[50.15714,26.09095],[50.15725,26.0912],[50.15721,26.09385],[50.15676,26.0946],[50.15616,26.09485],[50.15646,26.09605],[50.15672,26.09772],[50.15742,26.10427],[50.13508,26.11041],[50.13435,26.11056],[50.1335,26.11061],[50.12813,26.1106],[50.1287,26.08798],[50.13183,26.08688],[50.1372,26.08518],[50.13934,26.08477],[50.14129,26.08465],[50.15391,26.08021],[50.1539,26.08087],[50.15416,26.08078],[50.1544,26.0804],[50.15483,26.08059],[50.1553,26.08094]]]},"properties":{"district_id":"khobar-al-aqiq","name_ar":"العقيق","name_en":"Al Aqiq","city":"khobar","source_codes":["70030076562984847"]}},{"type":"Feature","id":"khobar-al-aqrabiyah","geometry":{"type":"Polygon","coordinates":[[[50.18487,26.30667],[50.18359,26.30036],[50.18364,26.29978],[50.18941,26.28628],[50.19763,26.28384],[50.20174,26.30387],[50.18487,26.30667]]]},"properties":{"district_id":"khobar-al-aqrabiyah","name_ar":"العقربية","name_en":"Al Aqrabiyah","city":"khobar","source_codes":["70030076562986768"]}},{"type":"Feature","id":"khobar-al-bahr","geometry":{"type":"Polygon","coordinates":[[[50.2374,26.36523],[50.24002,26.36992],[50.23987,26.3706],[50.23992,26.37098],[50.2404,26.37102],[50.2401,26.37219],[50.23917,26.37099],[50.23809,26.37072],[50.2103,26.36424],[50.21023,26.36434],[50.20857,26.36397],[50.20649,26.36376],[50.20693,26.36193],[50.21018,26.35262],[50.21037,26.35188],[50.21052,26.35036],[50.21032,26.34718],[50.21041,26.34501],[50.21169,26.33887],[50.21303,26.33959],[50.21787,26.34051],[50.2213,26.33907],[50.2228,26.33815],[50.2235,26.33836],[50.22448,26.33903],[50.22548,26.3392],[50.22524,26.34034],[50.22419,26.34016],[50.22387,26.34167],[50.22692,26.34206],[50.22753,26.33968],[50.22796,26.34001],[50.22762,26.34192],[50.22867,26.34244],[50.23368,26.34344],[50.2334,26.34262],[50.23347,26.34204],[50.23364,26.34183],[50.2338,26.34197],[50.23395,26.34235],[50.23414,26.34371],[50.2338,26.34415],[50.23021,26.34675],[50.23151,26.35586],[50.23303,26.35705],[50.23327,26.35748],[50.23317,26.3591],[50.23274,26.35978],[50.23384,26.36148],[50.2374,26.36523]]]},"properties":{"district_id":"khobar-al-bahr","name_ar":"البحر","name_en":"Al Bahr","city":"khobar","source_codes":["70030076562984852"]}},{"type":"Feature","id":"khobar-al-bandariyah","geometry":{"type":"Polygon","coordinates":[[[50.21663,26.31772],[50.21019,26.31713],[50.21086,26.31586],[50.21133,26.31467],[50.21156,26.31362],[50.21161,26.31256],[50.21146,26.31127],[50.20971,26.30255],[50.21736,26.30128],[50.21758,26.30241],[50.21761,26.30304],[50.21694,26.31443],[50.21678,26.31675],[50.21663,26.31772]]]},"properties":{"district_id":"khobar-al-bandariyah","name_ar":"البندرية","name_en":"Al Bandariyah","city":"khobar","source_codes":["70030076562984844"]}},{"type":"Feature","id":"khobar-al-buhayrah","geometry":{"type":"Polygon","coordinates":[[[50.19194,26.19539],[50.17221,26.21034],[50.17202,26.20836],[50.17192,26.20812],[50.1713,26.20696],[50.16992,26.20511],[50.16953,26.20434],[50.16928,26.20363],[50.16909,26.20273],[50.16904,26.20192],[50.16924,26.20032],[50.16941,26.19997],[50.17002,26.19932],[50.17455,26.19142],[50.17694,26.18819],[50.17931,26.18555],[50.17963,26.18499],[50.18093,26.18352],[50.18126,26.18325],[50.17935,26.18118],[50.17938,26.18015],[50.18172,26.18022],[50.18209,26.18047],[50.19194,26.19539]]]},"properties":{"district_id":"khobar-al-buhayrah","name_ar":"البحيرة","name_en":"Al Buhayrah","city":"khobar","source_codes":["70030076562984827"]}},{"type":"Feature","id":"khobar-al-bustan","geometry":{"type":"Polygon","coordinates":[[[50.21589,26.32303],[50.21539,26.32385],[50.21522,26.3251],[50.21476,26.32675],[50.20605,26.32497],[50.21019,26.31713],[50.21663,26.31772],[50.21612,26.32045],[50.21574,26.32195],[50.2157,26.32236],[50.21589,26.32303]]]},"properties":{"district_id":"khobar-al-bustan","name_ar":"البستان","name_en":"Al Bustan","city":"khobar","source_codes":["70030076562984822"]}},{"type":"Feature","id":"khobar-al-dhahran","geometry":{"type":"MultiPolygon","coordinates":[[[[49.99786,25.99024],[49.99801,25.9951],[49.99794,25.9951],[49.99779,25.99024],[49.99786,25.99024]]],[[[50.17129,26.29304],[50.17028,26.29339],[50.16774,26.29497],[50.16826,26.29554],[50.16524,26.29808],[50.16168,26.2958],[50.15978,26.2941],[50.15955,26.29423],[50.15924,26.29428],[50.15852,26.29404],[50.15797,26.29359],[50.15706,26.2926],[50.15691,26.29271],[50.15601,26.29185],[50.15557,26.29155],[50.15527,26.29145],[50.15508,26.29149],[50.15519,26.29208],[50.1548,26.29318],[50.15453,26.29361],[50.15371,26.29448],[50.15227,26.29334],[50.15166,26.29297],[50.15058,26.29237],[50.14965,26.29209],[50.14934,26.29213],[50.1491,26.29228],[50.1485,26.29332],[50.14805,26.29379],[50.14728,26.29424],[50.14654,26.29446],[50.14564,26.29453],[50.1446,26.29432],[50.14218,26.29315],[50.14148,26.29309],[50.14086,26.29325],[50.14046,26.29347],[50.13959,26.29424],[50.13907,26.29497],[50.13897,26.29546],[50.13907,26.29609],[50.13925,26.29646],[50.13973,26.29703],[50.13948,26.29721],[50.13498,26.29207],[50.13235,26.29047],[50.13189,26.29037],[50.13132,26.29042],[50.13142,26.29091],[50.13141,26.29363],[50.13132,26.29394],[50.13087,26.29467],[50.12862,26.29371],[50.12635,26.29319],[50.12505,26.29278],[50.12279,26.29162],[50.1219,26.29128],[50.12064,26.29103],[50.11892,26.291],[50.11848,26.28677],[50.11813,26.2861],[50.11751,26.28564],[50.11702,26.28548],[50.11564,26.28536],[50.11508,26.28523],[50.11452,26.28492],[50.1128,26.28353],[50.11213,26.28327],[50.11081,26.28298],[50.11011,26.28299],[50.1077,26.28366],[50.10666,26.28417],[50.10587,26.28496],[50.10547,26.28572],[50.10476,26.28795],[50.1043,26.28864],[50.1038,26.28904],[50.10139,26.29031],[50.10078,26.29075],[50.1001,26.29155],[50.09949,26.29301],[50.09901,26.29369],[50.09846,26.29418],[50.09635,26.29559],[50.09574,26.29616],[50.0953,26.29675],[50.09489,26.29762],[50.09468,26.29855],[50.09467,26.30037],[50.09481,26.30119],[50.09522,26.30203],[50.0958,26.30271],[50.09654,26.30324],[50.09733,26.30357],[50.09703,26.30425],[50.09658,26.3048],[50.09479,26.30601],[50.09242,26.30827],[50.09393,26.31002],[50.09579,26.31195],[50.09733,26.31321],[50.10729,26.31972],[50.10925,26.32076],[50.11115,26.32161],[50.11334,26.32283],[50.10807,26.33702],[50.09992,26.33431],[50.07388,26.32615],[50.07818,26.32118],[50.08225,26.31675],[50.08225,26.31641],[50.08542,26.31343],[50.09002,26.30863],[50.07774,26.29621],[50.07618,26.29441],[50.06397,26.28141],[50.06392,26.28131],[50.06409,26.28123],[49.97626,26.20482],[49.97049,26.21098],[49.94885,26.18756],[49.94503,26.18406],[49.91406,26.1573],[49.89213,26.13934],[49.88836,26.13609],[49.88811,26.13605],[49.85415,26.10825],[49.84748,26.10437],[49.83716,26.10051],[49.83034,26.09555],[49.8246,26.09061],[49.81711,26.08108],[49.81031,26.07319],[49.8182,26.07017],[49.81289,26.06422],[49.79898,26.052],[49.7921,26.03812],[49.78904,26.02599],[49.77953,26.02073],[49.90245,25.98955],[49.99397,25.99021],[49.99316,26.00426],[49.99192,26.06377],[49.9958,26.06387],[49.9956,26.07345],[49.99674,26.07925],[49.99865,26.08007],[49.99486,26.08657],[49.99432,26.08908],[49.99369,26.09144],[49.99296,26.09627],[49.99312,26.09653],[49.9929,26.09683],[49.99226,26.09726],[49.98983,26.09974],[49.98915,26.10056],[49.98863,26.10133],[49.98847,26.10168],[49.98835,26.10288],[49.98782,26.10344],[49.9876,26.10381],[49.98636,26.10773],[49.98542,26.11102],[49.98528,26.11254],[49.98538,26.11382],[49.9866,26.11797],[49.98834,26.12334],[49.98981,26.12684],[49.99093,26.1285],[50.00277,26.14458],[50.00392,26.14678],[50.0042,26.14815],[50.00423,26.14969],[50.00339,26.16425],[50.00323,26.1689],[50.00338,26.16974],[50.00373,26.17076],[50.00465,26.17222],[50.00559,26.17308],[50.00647,26.17364],[50.00798,26.17425],[50.00957,26.17456],[50.01188,26.17479],[50.0129,26.1751],[50.01436,26.17591],[50.01526,26.17672],[50.01563,26.17718],[50.01604,26.17785],[50.01649,26.17913],[50.01661,26.18008],[50.01657,26.18152],[50.01642,26.18276],[50.01616,26.18696],[50.01638,26.18828],[50.01666,26.18913],[50.01903,26.19426],[50.01971,26.19547],[50.0203,26.19627],[50.02138,26.19744],[50.02537,26.20066],[50.02634,26.20135],[50.02846,26.20223],[50.02966,26.20245],[50.03693,26.20243],[50.03779,26.20233],[50.03895,26.202],[50.03971,26.20165],[50.0408,26.20092],[50.04158,26.2001],[50.04334,26.19781],[50.0446,26.19671],[50.05162,26.19264],[50.05883,26.18874],[50.06026,26.18761],[50.06132,26.18635],[50.06179,26.18557],[50.06314,26.18106],[50.06358,26.17999],[50.06411,26.17902],[50.06449,26.17843],[50.06595,26.17672],[50.06988,26.1727],[50.0705,26.17181],[50.0711,26.17061],[50.07139,26.1697],[50.0716,26.16835],[50.07087,26.16103],[50.07096,26.15926],[50.0714,26.15678],[50.07186,26.15526],[50.07239,26.15398],[50.07535,26.14757],[50.07617,26.14508],[50.07689,26.14317],[50.07722,26.14256],[50.07798,26.1417],[50.07899,26.14094],[50.08001,26.14044],[50.0811,26.14012],[50.08192,26.14003],[50.08856,26.14016],[50.08998,26.13997],[50.09164,26.13943],[50.09305,26.13861],[50.09403,26.13783],[50.09737,26.13294],[50.10056,26.13848],[50.09975,26.13763],[50.09905,26.13754],[50.09847,26.13769],[50.0916,26.14068],[50.0904,26.14096],[50.08836,26.14111],[50.08181,26.14101],[50.08111,26.14113],[50.08036,26.14138],[50.07965,26.14172],[50.07864,26.1425],[50.07806,26.14322],[50.0777,26.14386],[50.07672,26.14702],[50.07485,26.15112],[50.07315,26.15456],[50.07237,26.15682],[50.07206,26.15828],[50.07188,26.16005],[50.07189,26.1619],[50.07245,26.16789],[50.07241,26.1688],[50.07226,26.1697],[50.07196,26.17074],[50.07159,26.17159],[50.07094,26.17266],[50.07035,26.1734],[50.06625,26.17732],[50.06546,26.17818],[50.06438,26.17977],[50.06388,26.18079],[50.06343,26.18203],[50.06257,26.18504],[50.06152,26.18734],[50.0585,26.18979],[50.05788,26.18993],[50.0495,26.1946],[50.04753,26.19579],[50.04701,26.19706],[50.04681,26.19728],[50.04594,26.19774],[50.04595,26.1978],[50.04564,26.1979],[50.04441,26.19795],[50.04134,26.20195],[50.04473,26.20393],[50.04565,26.20265],[50.05214,26.20265],[50.0517,26.21718],[50.05201,26.21767],[50.05291,26.2178],[50.06353,26.21831],[50.06476,26.21827],[50.0656,26.21816],[50.06627,26.21791],[50.07204,26.21678],[50.08555,26.21754],[50.08794,26.21749],[50.12091,26.21447],[50.12086,26.21873],[50.16019,26.21484],[50.16296,26.21465],[50.16523,26.21423],[50.16958,26.21393],[50.17023,26.21479],[50.17654,26.2217],[50.17445,26.22323],[50.19124,26.24131],[50.18789,26.2527],[50.18975,26.25392],[50.18354,26.26802],[50.17992,26.26812],[50.17461,26.28618],[50.17446,26.2865],[50.17134,26.2896],[50.17129,26.29304]]]]},"properties":{"district_id":"khobar-al-dhahran","name_ar":"الظهران","name_en":"Al Dhahran","city":"khobar","source_codes":["70030076562991856"]}},{"type":"Feature","id":"khobar-al-durrah","geometry":{"type":"Polygon","coordinates":[[[50.14129,26.08465],[50.13869,26.08487],[50.13644,26.08538],[50.13183,26.08688],[50.1287,26.08798],[50.12873,26.08823],[50.12562,26.08922],[50.11664,26.08146],[50.11756,26.08145],[50.11859,26.08109],[50.11942,26.08064],[50.11986,26.08006],[50.11996,26.07926],[50.12025,26.07924],[50.12053,26.07908],[50.12087,26.07925],[50.12122,26.07896],[50.12147,26.07783],[50.12142,26.07738],[50.12095,26.07556],[50.11948,26.07504],[50.11951,26.07494],[50.11962,26.07491],[50.1197,26.07503],[50.11991,26.07511],[50.12011,26.07506],[50.12019,26.07521],[50.12097,26.07545],[50.12106,26.07536],[50.1212,26.07502],[50.12082,26.07478],[50.12093,26.0742],[50.12071,26.07354],[50.12065,26.07342],[50.11995,26.07311],[50.11984,26.07326],[50.11974,26.07324],[50.11987,26.073],[50.12015,26.07301],[50.1202,26.07271],[50.12005,26.07241],[50.11937,26.07157],[50.11888,26.07152],[50.11886,26.07144],[50.11894,26.07138],[50.1194,26.07133],[50.11942,26.07121],[50.11938,26.07093],[50.11903,26.0704],[50.11826,26.06965],[50.11787,26.06976],[50.1177,26.06995],[50.11753,26.06995],[50.11743,26.06982],[50.11744,26.06969],[50.11756,26.06958],[50.11784,26.06965],[50.11836,26.06944],[50.1182,26.06848],[50.11833,26.06779],[50.11808,26.06724],[50.11789,26.06726],[50.11787,26.06709],[50.11863,26.06702],[50.11884,26.06692],[50.11889,26.0667],[50.11877,26.06658],[50.11878,26.0658],[50.11847,26.06438],[50.11856,26.0637],[50.11853,26.0633],[50.11811,26.06186],[50.11841,26.06127],[50.11808,26.05918],[50.11719,26.05786],[50.1173,26.05681],[50.11768,26.05617],[50.1169,26.05483],[50.11827,26.05538],[50.11853,26.05406],[50.12115,26.04985],[50.12156,26.04954],[50.12233,26.04938],[50.12301,26.0494],[50.12382,26.04881],[50.12492,26.04869],[50.13018,26.04877],[50.13163,26.04246],[50.13121,26.04233],[50.13274,26.0354],[50.13164,26.03318],[50.13085,26.03063],[50.13242,26.03107],[50.13231,26.03044],[50.1378,26.03055],[50.14485,26.03348],[50.14495,26.03319],[50.14527,26.03315],[50.14544,26.0334],[50.14526,26.03365],[50.14804,26.0348],[50.14822,26.03452],[50.15041,26.03587],[50.15105,26.03651],[50.15172,26.03698],[50.15203,26.0371],[50.15237,26.03708],[50.15296,26.03724],[50.15551,26.03959],[50.15607,26.04141],[50.15605,26.04363],[50.15552,26.04383],[50.15531,26.0448],[50.15558,26.04484],[50.15553,26.04508],[50.15604,26.04515],[50.15603,26.04521],[50.15542,26.04519],[50.15517,26.04543],[50.15502,26.04547],[50.15392,26.04809],[50.15684,26.04883],[50.15707,26.04909],[50.15607,26.05202],[50.15577,26.05231],[50.15537,26.0524],[50.15546,26.05262],[50.15434,26.05305],[50.15394,26.05454],[50.15465,26.05505],[50.15346,26.05833],[50.15458,26.05861],[50.15487,26.05846],[50.15504,26.05856],[50.15504,26.05866],[50.1549,26.05877],[50.15329,26.05836],[50.15254,26.05911],[50.15111,26.06379],[50.15115,26.06444],[50.15205,26.06965],[50.15287,26.06937],[50.15351,26.07056],[50.15342,26.07116],[50.15238,26.07152],[50.15391,26.08021],[50.14129,26.08465]]]},"properties":{"district_id":"khobar-al-durrah","name_ar":"الدرة","name_en":"Al Durrah","city":"khobar","source_codes":["70030076562984851"]}},{"type":"Feature","id":"khobar-al-hada","geometry":{"type":"Polygon","coordinates":[[[50.1915,26.31311],[50.17957,26.31507],[50.1793,26.31371],[50.17879,26.31248],[50.17597,26.30815],[50.19002,26.3058],[50.1915,26.31311]]]},"properties":{"district_id":"khobar-al-hada","name_ar":"الهدا","name_en":"Al Hada","city":"khobar","source_codes":["70030076562984824"]}},{"type":"Feature","id":"khobar-al-hamra","geometry":{"type":"Polygon","coordinates":[[[50.21334,26.21933],[50.21388,26.2356],[50.19456,26.23395],[50.19642,26.21784],[50.21334,26.21933]]]},"properties":{"district_id":"khobar-al-hamra","name_ar":"الحمرا","name_en":"Al Hamra","city":"khobar","source_codes":["70030076562976570"]}},{"type":"Feature","id":"khobar-al-hizam-adh-dhahabi","geometry":{"type":"Polygon","coordinates":[[[50.18955,26.32173],[50.19023,26.32004],[50.19151,26.31355],[50.1915,26.31311],[50.21119,26.30987],[50.21161,26.31256],[50.21156,26.31362],[50.21125,26.31492],[50.21086,26.31586],[50.20605,26.32497],[50.18955,26.32173]]]},"properties":{"district_id":"khobar-al-hizam-adh-dhahabi","name_ar":"الحزام الذهبي","name_en":"Al Hizam Adh Dhahabi","city":"khobar","source_codes":["70030076562984834"]}},{"type":"Feature","id":"khobar-al-hizam-al-akhdar","geometry":{"type":"Polygon","coordinates":[[[50.21119,26.30987],[50.1915,26.31311],[50.19002,26.3058],[50.20971,26.30255],[50.21119,26.30987]]]},"properties":{"district_id":"khobar-al-hizam-al-akhdar","name_ar":"الحزام الأخضر","name_en":"Al Hizam Al Akhdar","city":"khobar","source_codes":["70030076562984845"]}},{"type":"Feature","id":"khobar-al-iskan","geometry":{"type":"Polygon","coordinates":[[[50.21333,26.26634],[50.2048,26.26335],[50.20443,26.26037],[50.20496,26.25625],[50.20422,26.25616],[50.20403,26.25605],[50.20391,26.25586],[50.20307,26.24997],[50.21542,26.25113],[50.21333,26.26634]]]},"properties":{"district_id":"khobar-al-iskan","name_ar":"الاسكان","name_en":"Al Iskan","city":"khobar","source_codes":["70030076562985636"]}},{"type":"Feature","id":"khobar-al-jawhara","geometry":{"type":"Polygon","coordinates":[[[50.20605,26.32497],[50.19992,26.3366],[50.18814,26.33431],[50.18955,26.32173],[50.20605,26.32497]]]},"properties":{"district_id":"khobar-al-jawhara","name_ar":"الجوهرة","name_en":"Al Jawhara","city":"khobar","source_codes":["70030076562984821"]}},{"type":"Feature","id":"khobar-al-jisr","geometry":{"type":"Polygon","coordinates":[[[50.21334,26.21933],[50.19642,26.21784],[50.19742,26.20893],[50.19743,26.20766],[50.19726,26.2059],[50.19698,26.20456],[50.19644,26.20286],[50.19586,26.20153],[50.21276,26.2011],[50.21334,26.21933]]]},"properties":{"district_id":"khobar-al-jisr","name_ar":"الجسر","name_en":"Al Jisr","city":"khobar","source_codes":["70030076562984831"]}},{"type":"Feature","id":"khobar-al-kawthar","geometry":{"type":"Polygon","coordinates":[[[50.13263,26.15595],[50.11206,26.15909],[50.10112,26.13947],[50.12977,26.13964],[50.13005,26.14093],[50.13134,26.14874],[50.13263,26.15595]]]},"properties":{"district_id":"khobar-al-kawthar","name_ar":"الكوثر","name_en":"Al Kawthar","city":"khobar","source_codes":["70030076562984832"]}},{"type":"Feature","id":"khobar-al-khawr","geometry":{"type":"Polygon","coordinates":[[[50.22068,26.21989],[50.21999,26.23627],[50.21389,26.23574],[50.21334,26.21933],[50.22068,26.21989]]]},"properties":{"district_id":"khobar-al-khawr","name_ar":"الخور","name_en":"Al Khawr","city":"khobar","source_codes":["70030076562984830"]}},{"type":"Feature","id":"khobar-al-khubar-al-janubiyah","geometry":{"type":"Polygon","coordinates":[[[50.19763,26.28384],[50.19711,26.28136],[50.2048,26.26335],[50.21333,26.26634],[50.21398,26.26638],[50.21521,26.26617],[50.21783,26.27912],[50.20811,26.28073],[50.19763,26.28384]]]},"properties":{"district_id":"khobar-al-khubar-al-janubiyah","name_ar":"الخبر الجنوبية","name_en":"Al Khubar Al Janubiyah","city":"khobar","source_codes":["70030076562961659"]}},{"type":"Feature","id":"khobar-al-khuzama","geometry":{"type":"Polygon","coordinates":[[[50.19586,26.20153],[50.19644,26.20286],[50.19698,26.20456],[50.19726,26.2059],[50.19743,26.20766],[50.19742,26.20893],[50.19642,26.21784],[50.18866,26.21709],[50.18557,26.2165],[50.17786,26.21464],[50.17492,26.21421],[50.17208,26.21401],[50.17221,26.21034],[50.19194,26.19539],[50.19508,26.20014],[50.19586,26.20153]]]},"properties":{"district_id":"khobar-al-khuzama","name_ar":"الخزامى","name_en":"Al Khuzama","city":"khobar","source_codes":["70030076562984823"]}},{"type":"Feature","id":"khobar-al-kurnaish","geometry":{"type":"Polygon","coordinates":[[[50.22548,26.3392],[50.22448,26.33903],[50.2235,26.33836],[50.2228,26.33815],[50.2213,26.33907],[50.21787,26.34051],[50.21303,26.33959],[50.21169,26.33887],[50.21298,26.33308],[50.21516,26.32535],[50.21543,26.32374],[50.21589,26.32303],[50.21664,26.32292],[50.22081,26.32137],[50.22149,26.32088],[50.222,26.32025],[50.22236,26.31935],[50.22389,26.31018],[50.22393,26.30944],[50.22383,26.30844],[50.2178,26.27895],[50.21878,26.27876],[50.21908,26.27855],[50.21926,26.27828],[50.21975,26.27529],[50.22125,26.27503],[50.22128,26.27516],[50.221,26.2752],[50.22147,26.2774],[50.22157,26.27738],[50.22189,26.27757],[50.22217,26.27752],[50.22221,26.2773],[50.22214,26.27714],[50.22227,26.27709],[50.22233,26.27722],[50.22226,26.27753],[50.22237,26.27755],[50.22262,26.27903],[50.22312,26.27909],[50.2231,26.27923],[50.22246,26.27915],[50.22281,26.27965],[50.223,26.28019],[50.22304,26.28079],[50.22293,26.28136],[50.22347,26.28403],[50.22403,26.28399],[50.2242,26.2841],[50.22426,26.28428],[50.22421,26.28446],[50.224,26.28459],[50.22342,26.28453],[50.22304,26.28464],[50.2228,26.28483],[50.22265,26.28507],[50.2226,26.28541],[50.22269,26.28569],[50.22334,26.28631],[50.2235,26.28686],[50.22336,26.28732],[50.22267,26.2881],[50.22255,26.28857],[50.22258,26.28898],[50.22286,26.28945],[50.22372,26.29],[50.22405,26.29039],[50.22412,26.29084],[50.22394,26.2916],[50.22411,26.292],[50.22462,26.29238],[50.22526,26.29236],[50.22586,26.29256],[50.22624,26.2929],[50.22649,26.29343],[50.22648,26.29392],[50.22622,26.29444],[50.22582,26.29477],[50.22516,26.29504],[50.22484,26.29546],[50.22485,26.29596],[50.22529,26.29654],[50.22542,26.29704],[50.22527,26.29753],[50.2248,26.29805],[50.22477,26.29834],[50.2249,26.29865],[50.22522,26.29891],[50.2257,26.29906],[50.22585,26.29882],[50.22616,26.29885],[50.22626,26.29917],[50.2265,26.29916],[50.22665,26.29926],[50.2267,26.29948],[50.22657,26.29966],[50.22674,26.29972],[50.22708,26.30039],[50.22749,26.30072],[50.22812,26.30091],[50.22881,26.30088],[50.22899,26.30101],[50.229,26.30116],[50.22887,26.30131],[50.22788,26.30153],[50.22791,26.30161],[50.22866,26.30187],[50.22872,26.30201],[50.22865,26.30218],[50.22842,26.30223],[50.22775,26.30198],[50.22767,26.30203],[50.22823,26.3025],[50.22822,26.30262],[50.2281,26.30272],[50.22849,26.30461],[50.22878,26.30651],[50.22901,26.30717],[50.22975,26.30712],[50.22981,26.3063],[50.23049,26.30548],[50.23226,26.30487],[50.23357,26.30497],[50.23431,26.30615],[50.23386,26.3087],[50.23249,26.30922],[50.23061,26.30952],[50.23061,26.31019],[50.23078,26.31116],[50.23106,26.31453],[50.23146,26.31673],[50.23163,26.31832],[50.23152,26.31924],[50.23106,26.32072],[50.23043,26.32185],[50.22986,26.32333],[50.22946,26.3244],[50.22912,26.32563],[50.22889,26.32665],[50.22918,26.32788],[50.22918,26.32854],[50.22885,26.33074],[50.22872,26.33115],[50.22848,26.33158],[50.22768,26.33205],[50.22696,26.33272],[50.22657,26.33389],[50.227,26.3349],[50.22692,26.33534],[50.22676,26.33559],[50.22593,26.33624],[50.22566,26.3369],[50.22581,26.33737],[50.22614,26.33793],[50.22696,26.3384],[50.22928,26.33917],[50.22953,26.33934],[50.2295,26.33949],[50.22548,26.3392]]]},"properties":{"district_id":"khobar-al-kurnaish","name_ar":"الكورنيش","name_en":"Al Kurnaish","city":"khobar","source_codes":["70030076562976571"]}},{"type":"Feature","id":"khobar-al-loaloa","geometry":{"type":"Polygon","coordinates":[[[50.1571,26.12784],[50.153,26.12871],[50.15323,26.12964],[50.15182,26.12996],[50.12862,26.13355],[50.12775,26.12856],[50.12769,26.1278],[50.12813,26.1106],[50.1335,26.11061],[50.13435,26.11056],[50.13508,26.11041],[50.15742,26.10427],[50.15847,26.11401],[50.15853,26.11585],[50.15833,26.11803],[50.15718,26.1254],[50.1571,26.12784]]]},"properties":{"district_id":"khobar-al-loaloa","name_ar":"اللؤلؤ","name_en":"Al Loaloa","city":"khobar","source_codes":["70030076562984843"]}},{"type":"Feature","id":"khobar-al-madina-al-riyadiya","geometry":{"type":"Polygon","coordinates":[[[50.18632,26.36228],[50.18539,26.36369],[50.18448,26.36484],[50.18322,26.36617],[50.18017,26.36884],[50.17825,26.37064],[50.17879,26.34854],[50.19086,26.35372],[50.18632,26.36228]]]},"properties":{"district_id":"khobar-al-madina-al-riyadiya","name_ar":"المدينة الرياضية","name_en":"Al Madina Al Riyadiya","city":"khobar","source_codes":["70030076562984849"]}},{"type":"Feature","id":"khobar-al-maha","geometry":{"type":"Polygon","coordinates":[[[50.14086,26.19947],[50.13676,26.20007],[50.13674,26.2],[50.13334,26.19866],[50.13426,26.19667],[50.13444,26.19602],[50.13545,26.19565],[50.1352,26.19509],[50.12403,26.17949],[50.13072,26.17782],[50.1366,26.17698],[50.14086,26.19947]]]},"properties":{"district_id":"khobar-al-maha","name_ar":"المها","name_en":"Al Maha","city":"khobar","source_codes":["70030076562984837"]}},{"type":"Feature","id":"khobar-al-murjan","geometry":{"type":"Polygon","coordinates":[[[50.12942,26.13807],[50.12977,26.13964],[50.10112,26.13947],[50.09746,26.1332],[50.10431,26.12156],[50.10655,26.11827],[50.11333,26.10901],[50.11428,26.10749],[50.11507,26.10585],[50.11578,26.10378],[50.1169,26.09789],[50.11716,26.09688],[50.11771,26.09546],[50.11854,26.09401],[50.11936,26.09297],[50.12032,26.092],[50.12109,26.09138],[50.12231,26.09058],[50.12335,26.09005],[50.12444,26.0896],[50.12873,26.08823],[50.12769,26.12742],[50.12775,26.12856],[50.12942,26.13807]]]},"properties":{"district_id":"khobar-al-murjan","name_ar":"المرجان","name_en":"Al Murjan","city":"khobar","source_codes":["70030076562984839"]}},{"type":"Feature","id":"khobar-al-olaya","geometry":{"type":"Polygon","coordinates":[[[50.18487,26.30667],[50.17597,26.30815],[50.17323,26.30408],[50.17245,26.30315],[50.17152,26.30222],[50.17021,26.30118],[50.1695,26.30071],[50.16525,26.29808],[50.16846,26.29542],[50.17655,26.29014],[50.18277,26.28821],[50.18941,26.28628],[50.18359,26.29994],[50.18359,26.30036],[50.18487,26.30667]]]},"properties":{"district_id":"khobar-al-olaya","name_ar":"العليا","name_en":"Al Olaya","city":"khobar","source_codes":["70030076562984828"]}},{"type":"Feature","id":"khobar-al-rakah-al-shamaliya","geometry":{"type":"Polygon","coordinates":[[[50.19695,26.37696],[50.19486,26.38026],[50.18483,26.37447],[50.18412,26.37421],[50.18327,26.37405],[50.17812,26.37341],[50.17814,26.37073],[50.18017,26.36884],[50.18322,26.36617],[50.18448,26.36484],[50.18539,26.36369],[50.18632,26.36228],[50.18816,26.35882],[50.19582,26.36167],[50.20554,26.36667],[50.20181,26.37074],[50.19695,26.37696]]]},"properties":{"district_id":"khobar-al-rakah-al-shamaliya","name_ar":"الراكة الشمالية","name_en":"Al Rakah Al Shamaliya","city":"khobar","source_codes":["70030076562947284"]}},{"type":"Feature","id":"khobar-al-rawabi","geometry":{"type":"Polygon","coordinates":[[[50.21476,26.32675],[50.21298,26.33308],[50.21169,26.33887],[50.19992,26.3366],[50.20605,26.32497],[50.21476,26.32675]]]},"properties":{"district_id":"khobar-al-rawabi","name_ar":"الروابي","name_en":"Al Rawabi","city":"khobar","source_codes":["70030076562984846"]}},{"type":"Feature","id":"khobar-al-sadafah","geometry":{"type":"Polygon","coordinates":[[[50.24089,26.37319],[50.23416,26.38578],[50.22242,26.38238],[50.21365,26.37963],[50.19824,26.37522],[50.20181,26.37074],[50.2055,26.36674],[50.20607,26.3656],[50.20649,26.36376],[50.20857,26.36397],[50.21023,26.36434],[50.2103,26.36424],[50.23809,26.37072],[50.23917,26.37099],[50.24089,26.37319]]]},"properties":{"district_id":"khobar-al-sadafah","name_ar":"الصدفة","name_en":"Al Sadafah","city":"khobar","source_codes":["70030076562947306"]}},{"type":"Feature","id":"khobar-al-shifa","geometry":{"type":"Polygon","coordinates":[[[50.16296,26.21465],[50.16019,26.21484],[50.12086,26.21873],[50.12091,26.21447],[50.12378,26.2142],[50.12457,26.21394],[50.12553,26.21341],[50.12622,26.21283],[50.12708,26.21194],[50.12779,26.21077],[50.13334,26.19866],[50.13674,26.2],[50.13676,26.20007],[50.16336,26.19602],[50.16319,26.19513],[50.16612,26.19467],[50.16915,26.20308],[50.16953,26.20434],[50.17014,26.20545],[50.17137,26.20707],[50.17202,26.20836],[50.17221,26.21034],[50.17208,26.21391],[50.17066,26.21388],[50.16523,26.21423],[50.16296,26.21465]]]},"properties":{"district_id":"khobar-al-shifa","name_ar":"الشفاء","name_en":"Al Shifa","city":"khobar","source_codes":["70030076562852795"]}},{"type":"Feature","id":"khobar-al-taawon","geometry":{"type":"Polygon","coordinates":[[[50.19456,26.23395],[50.19455,26.23592],[50.19484,26.23774],[50.19538,26.23947],[50.19669,26.2427],[50.18774,26.2329],[50.17294,26.21698],[50.17245,26.21632],[50.17214,26.21554],[50.17207,26.21509],[50.17208,26.21401],[50.17492,26.21421],[50.17786,26.21464],[50.18557,26.2165],[50.18866,26.21709],[50.19642,26.21784],[50.19456,26.23395]]]},"properties":{"district_id":"khobar-al-taawon","name_ar":"التعاون","name_en":"Al Taawon","city":"khobar","source_codes":["70030076562984833"]}},{"type":"Feature","id":"khobar-al-tahliya","geometry":{"type":"Polygon","coordinates":[[[50.21276,26.2011],[50.19586,26.20153],[50.19493,26.1999],[50.18209,26.18047],[50.18172,26.18022],[50.17708,26.18009],[50.17738,26.17678],[50.1774,26.17543],[50.17761,26.17469],[50.17777,26.17439],[50.17798,26.17428],[50.17831,26.17431],[50.17908,26.17473],[50.17944,26.17486],[50.17972,26.17486],[50.18073,26.17457],[50.18194,26.17388],[50.18305,26.17379],[50.18503,26.17161],[50.18696,26.16981],[50.18784,26.16941],[50.18873,26.16853],[50.18878,26.16814],[50.1891,26.16767],[50.18971,26.16756],[50.19011,26.16716],[50.19019,26.16703],[50.18989,26.16578],[50.19046,26.16457],[50.19223,26.16153],[50.19257,26.16159],[50.19315,26.1606],[50.19232,26.15944],[50.19237,26.15921],[50.18917,26.15643],[50.18758,26.15476],[50.18613,26.15416],[50.18339,26.15213],[50.1832,26.15179],[50.18339,26.15147],[50.18465,26.15123],[50.18852,26.15147],[50.19085,26.15362],[50.19177,26.15331],[50.1922,26.15362],[50.19288,26.15451],[50.19289,26.15516],[50.19315,26.15606],[50.19344,26.15628],[50.19423,26.15593],[50.19433,26.15598],[50.19441,26.15607],[50.19426,26.15627],[50.19385,26.15641],[50.19389,26.15647],[50.1942,26.15637],[50.19433,26.15665],[50.1941,26.15678],[50.1942,26.15686],[50.19477,26.15656],[50.19494,26.15683],[50.19445,26.15705],[50.19468,26.15722],[50.19515,26.15699],[50.19527,26.15719],[50.19485,26.15736],[50.19497,26.15753],[50.19528,26.15738],[50.19538,26.15755],[50.19508,26.15769],[50.19517,26.15781],[50.1957,26.15757],[50.19577,26.15741],[50.19573,26.15724],[50.19547,26.15696],[50.1955,26.15688],[50.19445,26.15558],[50.19447,26.15541],[50.19464,26.15539],[50.19547,26.15639],[50.19614,26.15742],[50.19593,26.1577],[50.19532,26.15803],[50.19807,26.16225],[50.19891,26.1614],[50.19928,26.16141],[50.19947,26.16153],[50.19944,26.16187],[50.19924,26.16215],[50.1989,26.1622],[50.1988,26.16199],[50.19832,26.16247],[50.19923,26.16332],[50.19952,26.16304],[50.19946,26.16263],[50.19953,26.16251],[50.19983,26.16245],[50.20001,26.16255],[50.20011,26.16275],[50.20008,26.16298],[50.19944,26.16351],[50.19977,26.16383],[50.20011,26.16347],[50.2002,26.16324],[50.20033,26.16311],[50.20048,26.16312],[50.20054,26.16337],[50.19993,26.16397],[50.20018,26.1642],[50.20038,26.164],[50.20052,26.16368],[50.20082,26.1636],[50.2009,26.16371],[50.20089,26.16384],[50.20035,26.16436],[50.20133,26.16645],[50.20151,26.16668],[50.20175,26.16646],[50.20195,26.16672],[50.20171,26.16694],[50.20407,26.16998],[50.20453,26.16956],[50.20472,26.16976],[50.20448,26.17],[50.20536,26.17086],[50.20525,26.17106],[50.20556,26.17121],[50.20586,26.17094],[50.20556,26.16945],[50.20582,26.1693],[50.20615,26.17068],[50.20631,26.17053],[50.20873,26.17274],[50.20771,26.17359],[50.20795,26.17382],[50.20867,26.17404],[50.20921,26.17462],[50.20928,26.1751],[50.21156,26.17729],[50.21193,26.17801],[50.21331,26.17936],[50.21434,26.17824],[50.21452,26.17839],[50.21345,26.1795],[50.21364,26.17969],[50.21404,26.17967],[50.2156,26.18117],[50.21611,26.18097],[50.2161,26.18121],[50.21642,26.18102],[50.21672,26.18179],[50.21971,26.1808],[50.21473,26.18284],[50.21293,26.1835],[50.21271,26.18373],[50.21292,26.19065],[50.21271,26.19063],[50.21237,26.19037],[50.21276,26.2011]]]},"properties":{"district_id":"khobar-al-tahliya","name_ar":"التحلية","name_en":"Al Tahliya","city":"khobar","source_codes":["70030076562984842"]}},{"type":"Feature","id":"khobar-al-thuqbah","geometry":{"type":"Polygon","coordinates":[[[50.18277,26.28821],[50.17655,26.29014],[50.17743,26.28921],[50.17822,26.28821],[50.1789,26.28715],[50.17943,26.28615],[50.19044,26.26037],[50.19129,26.25864],[50.2048,26.26335],[50.19711,26.28128],[50.19763,26.28384],[50.18277,26.28821]]]},"properties":{"district_id":"khobar-al-thuqbah","name_ar":"الثقبة","name_en":"Al-Thuqbah","city":"khobar","source_codes":["70030076562961646"]}},{"type":"Feature","id":"khobar-al-yarmuk","geometry":{"type":"Polygon","coordinates":[[[50.22383,26.30844],[50.22393,26.30961],[50.22389,26.31018],[50.2223,26.31958],[50.22208,26.32011],[50.22178,26.32056],[50.22136,26.32099],[50.22081,26.32137],[50.21664,26.32292],[50.21589,26.32303],[50.2157,26.32236],[50.21573,26.32205],[50.21657,26.31807],[50.21678,26.31675],[50.21694,26.31443],[50.21761,26.30304],[50.21758,26.30241],[50.21736,26.30128],[50.22218,26.30048],[50.22383,26.30844]]]},"properties":{"district_id":"khobar-al-yarmuk","name_ar":"اليرموك","name_en":"Al Yarmuk","city":"khobar","source_codes":["70030076562986770"]}},{"type":"Feature","id":"khobar-amwaj","geometry":{"type":"Polygon","coordinates":[[[50.16219,26.15149],[50.15941,26.15183],[50.13263,26.15595],[50.13134,26.14874],[50.13005,26.14093],[50.12942,26.13807],[50.12862,26.13355],[50.15182,26.12996],[50.15323,26.12964],[50.153,26.12871],[50.1571,26.12784],[50.15726,26.12957],[50.15764,26.13143],[50.16104,26.14238],[50.1617,26.14473],[50.16192,26.14599],[50.16205,26.14731],[50.16219,26.15149]]]},"properties":{"district_id":"khobar-amwaj","name_ar":"الامواج","name_en":"Amwaj","city":"khobar","source_codes":["70030076562984841"]}},{"type":"Feature","id":"khobar-ar-raja","geometry":{"type":"Polygon","coordinates":[[[50.1366,26.17698],[50.13072,26.17782],[50.12403,26.17949],[50.12022,26.17422],[50.11953,26.1726],[50.11885,26.1713],[50.11206,26.15909],[50.13263,26.15595],[50.1366,26.17698]]]},"properties":{"district_id":"khobar-ar-raja","name_ar":"الرجاء","name_en":"Ar Raja","city":"khobar","source_codes":["70030076562984826"]}},{"type":"Feature","id":"khobar-ar-rakah-al-janubiyah","geometry":{"type":"Polygon","coordinates":[[[50.2061,26.36551],[50.20554,26.36667],[50.19582,26.36167],[50.18816,26.35882],[50.19992,26.3366],[50.21169,26.33887],[50.21041,26.34501],[50.21032,26.34718],[50.21052,26.35036],[50.21037,26.35188],[50.21018,26.35262],[50.20693,26.36193],[50.2061,26.36551]]]},"properties":{"district_id":"khobar-ar-rakah-al-janubiyah","name_ar":"الراكة الجنوبية","name_en":"Ar Rakah Al Janubiyah","city":"khobar","source_codes":["70030076562984820"]}},{"type":"Feature","id":"khobar-as-sahil","geometry":{"type":"Polygon","coordinates":[[[50.22125,26.27503],[50.21975,26.27529],[50.21926,26.27828],[50.21908,26.27855],[50.21878,26.27876],[50.2178,26.27895],[50.21521,26.26617],[50.21398,26.26638],[50.21333,26.26634],[50.21546,26.25085],[50.21555,26.24976],[50.21544,26.24787],[50.2145,26.24062],[50.21482,26.23859],[50.21434,26.23813],[50.21417,26.23775],[50.21389,26.23574],[50.21999,26.23627],[50.21993,26.23659],[50.21872,26.23655],[50.21865,26.23725],[50.22338,26.23753],[50.22333,26.23959],[50.22297,26.23959],[50.22302,26.24134],[50.22065,26.24124],[50.22143,26.24793],[50.22048,26.25467],[50.22143,26.25481],[50.22122,26.25641],[50.22017,26.25629],[50.21908,26.26485],[50.21951,26.26513],[50.21958,26.26534],[50.21948,26.26566],[50.21896,26.26588],[50.21898,26.26652],[50.22015,26.27125],[50.22103,26.27131],[50.22148,26.27204],[50.22153,26.2724],[50.22136,26.27317],[50.22124,26.27329],[50.22084,26.27329],[50.22125,26.27503]]]},"properties":{"district_id":"khobar-as-sahil","name_ar":"الساحل","name_en":"As Sahil","city":"khobar","source_codes":["70030076562984817"]}},{"type":"Feature","id":"khobar-as-sawari","geometry":{"type":"Polygon","coordinates":[[[50.16309,26.17561],[50.16341,26.17664],[50.16401,26.17765],[50.16452,26.17818],[50.16485,26.17952],[50.1652,26.18224],[50.16501,26.18514],[50.16531,26.18925],[50.16612,26.19467],[50.16319,26.19513],[50.16336,26.19602],[50.14086,26.19947],[50.13657,26.17679],[50.16187,26.17292],[50.16296,26.17285],[50.16309,26.17561]]]},"properties":{"district_id":"khobar-as-sawari","name_ar":"الصواري","name_en":"As Sawari","city":"khobar","source_codes":["70030076562984835"]}},{"type":"Feature","id":"khobar-as-sufun","geometry":{"type":"Polygon","coordinates":[[[50.17744,26.17586],[50.17708,26.18009],[50.16779,26.17957],[50.16646,26.17931],[50.16526,26.17875],[50.16431,26.17798],[50.16401,26.17765],[50.16355,26.17693],[50.16328,26.1763],[50.16309,26.17561],[50.16205,26.14731],[50.16192,26.14599],[50.16144,26.14371],[50.15764,26.13143],[50.15731,26.12991],[50.15713,26.12845],[50.15708,26.12687],[50.15718,26.1254],[50.1584,26.11757],[50.15853,26.1153],[50.15847,26.11401],[50.15672,26.09772],[50.15646,26.09605],[50.15616,26.09485],[50.15676,26.0946],[50.15721,26.09385],[50.15725,26.0912],[50.15714,26.09095],[50.16055,26.09072],[50.16058,26.09109],[50.16107,26.09138],[50.16134,26.09199],[50.16124,26.09221],[50.16101,26.09218],[50.16095,26.09162],[50.1606,26.0913],[50.16071,26.0925],[50.16133,26.09282],[50.16111,26.09342],[50.16127,26.09387],[50.16172,26.09406],[50.16171,26.09325],[50.16155,26.09282],[50.16138,26.09261],[50.16146,26.09245],[50.16166,26.09242],[50.16182,26.09257],[50.1618,26.09276],[50.16198,26.09333],[50.16193,26.09416],[50.16226,26.0943],[50.16243,26.09485],[50.16222,26.09675],[50.16044,26.09744],[50.15994,26.09891],[50.15991,26.09975],[50.16068,26.09991],[50.16086,26.10019],[50.16084,26.10046],[50.16073,26.10063],[50.16058,26.10063],[50.16047,26.10051],[50.16036,26.10015],[50.16002,26.10016],[50.15989,26.10046],[50.16018,26.10059],[50.16016,26.10086],[50.16002,26.10102],[50.1602,26.10123],[50.16042,26.10123],[50.16073,26.10103],[50.16061,26.10088],[50.16066,26.1008],[50.161,26.10084],[50.16098,26.10054],[50.16109,26.10045],[50.16131,26.10052],[50.16124,26.10078],[50.16083,26.10148],[50.16001,26.10152],[50.16007,26.10172],[50.16068,26.1017],[50.16074,26.10178],[50.16067,26.10187],[50.15985,26.10192],[50.15984,26.10219],[50.16024,26.10215],[50.16032,26.10232],[50.15984,26.10241],[50.15982,26.10309],[50.15998,26.10303],[50.16015,26.10308],[50.16022,26.10322],[50.16007,26.10337],[50.16023,26.10362],[50.1608,26.10345],[50.16084,26.10356],[50.16001,26.1038],[50.1598,26.10412],[50.1602,26.11077],[50.16072,26.11171],[50.16117,26.11156],[50.16133,26.11158],[50.16136,26.11169],[50.16098,26.11189],[50.16074,26.11193],[50.16075,26.11215],[50.16125,26.11202],[50.16141,26.11182],[50.16153,26.11185],[50.16177,26.11176],[50.1618,26.11205],[50.16055,26.11239],[50.1612,26.11424],[50.16158,26.11416],[50.16182,26.11398],[50.16215,26.11414],[50.16208,26.11438],[50.16197,26.11445],[50.16169,26.11436],[50.16143,26.11443],[50.16132,26.11458],[50.16154,26.11524],[50.16195,26.11512],[50.16198,26.11529],[50.1616,26.11539],[50.16183,26.11606],[50.16254,26.11587],[50.16267,26.11566],[50.16268,26.11546],[50.16282,26.11538],[50.16304,26.11547],[50.16325,26.11577],[50.16329,26.11599],[50.16322,26.11606],[50.16199,26.1165],[50.16272,26.1186],[50.16325,26.11869],[50.16343,26.11889],[50.16337,26.11914],[50.16307,26.11927],[50.16292,26.11922],[50.16281,26.11898],[50.16255,26.11901],[50.16245,26.11925],[50.16264,26.11993],[50.16343,26.11971],[50.16352,26.11951],[50.16347,26.11936],[50.16357,26.1193],[50.16372,26.11947],[50.16357,26.11987],[50.16283,26.12003],[50.16269,26.12013],[50.16294,26.12102],[50.1632,26.12096],[50.16325,26.12117],[50.163,26.12123],[50.16314,26.12174],[50.16344,26.12195],[50.16429,26.12171],[50.16429,26.12163],[50.16414,26.12163],[50.16413,26.12149],[50.16439,26.12144],[50.16449,26.12146],[50.1646,26.12172],[50.16456,26.12182],[50.16349,26.12213],[50.16337,26.12256],[50.16349,26.12302],[50.16403,26.12288],[50.16414,26.12306],[50.16355,26.12322],[50.16396,26.12472],[50.16527,26.12667],[50.16562,26.12657],[50.16527,26.12696],[50.16529,26.1271],[50.1654,26.12733],[50.1659,26.12725],[50.16599,26.12738],[50.16558,26.12749],[50.16527,26.12776],[50.16542,26.12823],[50.1659,26.12846],[50.16646,26.12831],[50.16652,26.12839],[50.16621,26.12848],[50.16698,26.13088],[50.16711,26.13102],[50.16762,26.13138],[50.16814,26.13159],[50.16893,26.13134],[50.16902,26.13085],[50.16927,26.1305],[50.16959,26.13048],[50.17011,26.13214],[50.1698,26.13226],[50.16963,26.13223],[50.16937,26.13208],[50.16909,26.13174],[50.16882,26.13174],[50.16779,26.13198],[50.16756,26.13226],[50.16793,26.13359],[50.16831,26.13457],[50.16857,26.13579],[50.17084,26.13516],[50.17089,26.13537],[50.1688,26.13605],[50.16887,26.13692],[50.16962,26.13803],[50.17034,26.13794],[50.17032,26.13806],[50.17004,26.13807],[50.16967,26.13836],[50.16987,26.13884],[50.17025,26.13926],[50.17073,26.13889],[50.17082,26.13841],[50.17069,26.13827],[50.17087,26.13809],[50.17098,26.13814],[50.17091,26.13883],[50.17054,26.13981],[50.17174,26.14193],[50.17238,26.14232],[50.17425,26.13952],[50.17431,26.13913],[50.17475,26.13856],[50.17526,26.13884],[50.17484,26.13947],[50.17448,26.13964],[50.17334,26.14124],[50.17387,26.14264],[50.17394,26.14364],[50.17363,26.14417],[50.17258,26.14428],[50.17178,26.14393],[50.1688,26.14399],[50.16669,26.1447],[50.16493,26.14634],[50.1646,26.14953],[50.16509,26.15108],[50.16707,26.16561],[50.16719,26.17136],[50.16693,26.17194],[50.16714,26.17288],[50.1701,26.17495],[50.17239,26.17501],[50.1724,26.1746],[50.17274,26.1743],[50.17301,26.17426],[50.17318,26.17447],[50.17305,26.17467],[50.17286,26.17477],[50.17303,26.17495],[50.17359,26.17521],[50.17744,26.17586]]]},"properties":{"district_id":"khobar-as-sufun","name_ar":"السفن","name_en":"As Sufun","city":"khobar","source_codes":["70030076562984818"]}},{"type":"Feature","id":"khobar-ash-sheraa","geometry":{"type":"Polygon","coordinates":[[[50.16296,26.17285],[50.1609,26.17305],[50.13657,26.17679],[50.13263,26.15595],[50.15941,26.15183],[50.16219,26.15149],[50.16296,26.17285]]]},"properties":{"district_id":"khobar-ash-sheraa","name_ar":"الشراع","name_en":"Ash Sheraa","city":"khobar","source_codes":["70030076562984850"]}},{"type":"Feature","id":"khobar-eshbilya","geometry":{"type":"Polygon","coordinates":[[[50.22084,26.18034],[50.22112,26.21437],[50.22061,26.21652],[50.22068,26.21989],[50.21334,26.21933],[50.21237,26.19037],[50.21271,26.19063],[50.21292,26.19065],[50.2127,26.1838],[50.21276,26.18363],[50.21293,26.1835],[50.21473,26.18284],[50.22084,26.18034]]]},"properties":{"district_id":"khobar-eshbilya","name_ar":"اشبيليا","name_en":"Eshbilya","city":"khobar","source_codes":["70030076562984819"]}},{"type":"Feature","id":"khobar-half-moon-beach","geometry":{"type":"MultiPolygon","coordinates":[[[[50.10564,26.11954],[50.10431,26.12156],[50.0975,26.13314],[50.09593,26.13046],[50.0965,26.12898],[50.0967,26.12488],[50.09683,26.12377],[50.09709,26.12295],[50.09802,26.12175],[50.09629,26.11995],[50.09533,26.11883],[50.0954,26.1188],[50.09554,26.11896],[50.09597,26.11868],[50.09617,26.11825],[50.09593,26.11802],[50.09598,26.1179],[50.09631,26.11817],[50.0968,26.11787],[50.09723,26.11718],[50.09761,26.1162],[50.09757,26.1161],[50.0979,26.11627],[50.09834,26.11606],[50.09863,26.11578],[50.09906,26.11515],[50.09909,26.115],[50.09942,26.11463],[50.09965,26.11385],[50.09982,26.11389],[50.10003,26.11374],[50.09984,26.1136],[50.0999,26.11355],[50.10008,26.11371],[50.10016,26.11368],[50.101,26.11315],[50.10147,26.11266],[50.10187,26.11197],[50.102,26.11157],[50.10256,26.11096],[50.10243,26.1104],[50.10312,26.10882],[50.1036,26.109],[50.10375,26.10896],[50.10372,26.10888],[50.10383,26.10882],[50.10434,26.10871],[50.10463,26.1083],[50.10466,26.10805],[50.10494,26.10797],[50.10493,26.10696],[50.10509,26.1067],[50.10516,26.10672],[50.10605,26.10427],[50.10623,26.1037],[50.10614,26.10358],[50.10618,26.10345],[50.10659,26.10364],[50.10683,26.10358],[50.10703,26.10338],[50.10718,26.10307],[50.10724,26.10271],[50.1071,26.10256],[50.10711,26.10243],[50.10728,26.10238],[50.1075,26.10257],[50.10758,26.10256],[50.10777,26.10243],[50.10792,26.10215],[50.10805,26.10157],[50.10807,26.10055],[50.10781,26.09939],[50.1077,26.09909],[50.10757,26.09905],[50.10752,26.09869],[50.10766,26.09861],[50.10776,26.09866],[50.10798,26.09858],[50.10806,26.09868],[50.10857,26.0988],[50.10876,26.09877],[50.10899,26.09861],[50.10977,26.0977],[50.11016,26.09741],[50.11036,26.09741],[50.11058,26.09728],[50.11084,26.09697],[50.11107,26.09645],[50.11119,26.0959],[50.11115,26.09528],[50.11077,26.09366],[50.11096,26.09359],[50.11109,26.09379],[50.11164,26.09426],[50.1121,26.094],[50.11241,26.09363],[50.11254,26.0933],[50.11139,26.0925],[50.11133,26.09226],[50.11146,26.09217],[50.11152,26.09222],[50.11191,26.09168],[50.11203,26.09167],[50.11218,26.0918],[50.11218,26.09193],[50.11174,26.09228],[50.11179,26.09244],[50.11193,26.09255],[50.11214,26.09257],[50.11205,26.09267],[50.11271,26.09317],[50.11332,26.09271],[50.11365,26.09225],[50.11384,26.09162],[50.11319,26.09111],[50.11287,26.09105],[50.11272,26.0912],[50.1128,26.09126],[50.11256,26.0915],[50.11244,26.09151],[50.11228,26.09139],[50.11227,26.09129],[50.11292,26.09074],[50.11361,26.09125],[50.11395,26.09103],[50.11415,26.09079],[50.1143,26.0901],[50.11419,26.08915],[50.11408,26.08867],[50.11364,26.08851],[50.11361,26.08831],[50.11378,26.08826],[50.11442,26.0886],[50.11488,26.08852],[50.1156,26.08862],[50.11574,26.08857],[50.11579,26.08842],[50.11514,26.0881],[50.11498,26.08781],[50.11508,26.08777],[50.11532,26.08726],[50.11546,26.08659],[50.1154,26.08487],[50.11577,26.08355],[50.11581,26.08315],[50.11573,26.0817],[50.11587,26.08141],[50.11627,26.08131],[50.11617,26.08149],[50.1162,26.08157],[50.11667,26.08154],[50.12562,26.08922],[50.12335,26.09005],[50.12149,26.0911],[50.12062,26.09175],[50.11976,26.09254],[50.11844,26.09416],[50.11771,26.09546],[50.11716,26.09688],[50.1169,26.09789],[50.11578,26.10378],[50.11531,26.10523],[50.11445,26.10717],[50.11333,26.10901],[50.10564,26.11954]]],[[[50.03837,26.2022],[50.03693,26.20243],[50.03412,26.20247],[50.02966,26.20245],[50.02846,26.20223],[50.02634,26.20135],[50.02537,26.20066],[50.02138,26.19744],[50.0203,26.19627],[50.01971,26.19547],[50.01903,26.19426],[50.01666,26.18913],[50.01638,26.18828],[50.01616,26.18696],[50.01642,26.18276],[50.01657,26.18152],[50.01661,26.18008],[50.01649,26.17913],[50.01604,26.17785],[50.01563,26.17718],[50.01526,26.17672],[50.01436,26.17591],[50.0129,26.1751],[50.01188,26.17479],[50.00957,26.17456],[50.00798,26.17425],[50.00647,26.17364],[50.00559,26.17308],[50.00465,26.17222],[50.00373,26.17076],[50.00338,26.16974],[50.00323,26.1689],[50.00339,26.16425],[50.00423,26.14969],[50.0042,26.14815],[50.00392,26.14678],[50.00277,26.14458],[49.99093,26.1285],[49.98981,26.12684],[49.98834,26.12334],[49.98581,26.11543],[49.98538,26.11382],[49.98528,26.11254],[49.98542,26.11102],[49.9876,26.10381],[49.98782,26.10344],[49.98835,26.10288],[49.98847,26.10168],[49.98863,26.10133],[49.98915,26.10056],[49.98983,26.09974],[49.99226,26.09726],[49.9929,26.09683],[49.99312,26.09653],[49.99296,26.09627],[49.99369,26.09144],[49.99432,26.08908],[49.99486,26.08657],[49.99865,26.08007],[49.99674,26.07925],[49.9956,26.07345],[49.9958,26.06387],[49.99192,26.06377],[49.99316,26.00426],[49.99397,25.99021],[49.99779,25.99024],[49.99823,26.00481],[50.0018,26.00483],[50.00085,26.07358],[50.00078,26.07468],[50.00196,26.07779],[50.00359,26.07964],[50.00433,26.08012],[50.00492,26.08062],[50.0066,26.08092],[50.00779,26.08094],[50.00867,26.08074],[50.00992,26.08015],[50.01033,26.07915],[50.01089,26.07853],[50.01131,26.07761],[50.01118,26.07667],[50.01009,26.07549],[50.0094,26.07517],[50.01057,26.07518],[50.01222,26.07482],[50.01285,26.07433],[50.01333,26.07421],[50.01346,26.07476],[50.01344,26.07712],[50.0139,26.07948],[50.01332,26.08032],[50.01326,26.08068],[50.0133,26.08152],[50.01313,26.08267],[50.01314,26.08336],[50.01323,26.08373],[50.01317,26.08451],[50.01293,26.08603],[50.01265,26.08705],[50.01219,26.08785],[50.01218,26.08809],[50.01179,26.08892],[50.01089,26.08995],[50.00996,26.0905],[50.00983,26.09109],[50.00926,26.09152],[50.00874,26.09253],[50.00727,26.09324],[50.00709,26.09344],[50.00664,26.09363],[50.00643,26.09382],[50.00602,26.09388],[50.00492,26.09428],[50.00012,26.09523],[49.99761,26.09609],[49.9957,26.09701],[49.99575,26.09713],[49.99541,26.09718],[49.9937,26.09883],[49.99328,26.09979],[49.99267,26.10083],[49.99076,26.10506],[49.98941,26.10881],[49.98911,26.11294],[49.98923,26.11489],[49.98857,26.11713],[49.98902,26.11907],[49.98953,26.11998],[49.98998,26.11996],[49.98988,26.12083],[49.99024,26.12221],[49.99069,26.12329],[49.99157,26.12494],[49.99232,26.12497],[49.99453,26.12871],[49.9952,26.13011],[49.99822,26.13509],[50.0047,26.14375],[50.00599,26.14593],[50.0061,26.14628],[50.00624,26.14783],[50.00695,26.15016],[50.00742,26.15437],[50.00759,26.15475],[50.00761,26.15527],[50.00777,26.15571],[50.00771,26.15646],[50.00787,26.15669],[50.00772,26.1572],[50.00777,26.15771],[50.00785,26.15782],[50.00779,26.15785],[50.00809,26.15958],[50.00837,26.15968],[50.0084,26.15983],[50.00836,26.15992],[50.00816,26.15997],[50.00834,26.16113],[50.00867,26.16119],[50.00869,26.16126],[50.00841,26.16129],[50.00838,26.16167],[50.00854,26.16192],[50.00851,26.16218],[50.00881,26.16227],[50.0085,26.16258],[50.00851,26.16308],[50.00881,26.16428],[50.00905,26.16481],[50.00893,26.16497],[50.00895,26.16516],[50.00943,26.16583],[50.01126,26.16777],[50.01144,26.16787],[50.01149,26.16782],[50.01158,26.16796],[50.01144,26.16819],[50.0116,26.16848],[50.01187,26.16867],[50.01478,26.17208],[50.01493,26.17197],[50.01518,26.17204],[50.01526,26.17234],[50.01512,26.17238],[50.0151,26.17254],[50.0155,26.17318],[50.01576,26.17321],[50.01589,26.17354],[50.01701,26.17471],[50.01729,26.17511],[50.01755,26.17551],[50.01761,26.17593],[50.01835,26.17726],[50.0183,26.17727],[50.01832,26.17742],[50.01846,26.17761],[50.01881,26.17797],[50.01905,26.17803],[50.01893,26.17811],[50.0192,26.17845],[50.01948,26.17858],[50.01965,26.17853],[50.01976,26.17859],[50.01973,26.17871],[50.01955,26.17871],[50.01952,26.17885],[50.01979,26.17912],[50.02091,26.18119],[50.02103,26.1812],[50.021,26.18138],[50.02108,26.18142],[50.02102,26.1817],[50.02201,26.18445],[50.02223,26.18546],[50.02212,26.18589],[50.02175,26.18647],[50.02175,26.18685],[50.02198,26.18791],[50.02188,26.18806],[50.02138,26.18828],[50.02109,26.18855],[50.02085,26.18917],[50.02098,26.18962],[50.02031,26.19025],[50.02033,26.19033],[50.02059,26.19056],[50.02074,26.1906],[50.02121,26.19023],[50.02097,26.19079],[50.02134,26.19135],[50.02183,26.19181],[50.02191,26.19206],[50.02402,26.19332],[50.02651,26.19515],[50.02667,26.19535],[50.0267,26.19556],[50.02746,26.19636],[50.028,26.19718],[50.02824,26.19743],[50.02845,26.19793],[50.02948,26.19925],[50.02949,26.19981],[50.02994,26.2003],[50.03116,26.20108],[50.03184,26.20138],[50.03185,26.20122],[50.03273,26.20159],[50.03272,26.20216],[50.03282,26.20217],[50.03279,26.20202],[50.03296,26.20189],[50.03409,26.20196],[50.03577,26.20176],[50.03607,26.20162],[50.03658,26.2016],[50.03709,26.20134],[50.03745,26.20098],[50.0374,26.2008],[50.03787,26.2007],[50.03786,26.20053],[50.03813,26.20052],[50.0388,26.20025],[50.03926,26.19997],[50.03975,26.19944],[50.03969,26.19884],[50.03949,26.19879],[50.03952,26.19871],[50.03878,26.19793],[50.0388,26.19743],[50.03871,26.1973],[50.03892,26.1972],[50.03902,26.19704],[50.03899,26.19677],[50.03935,26.19667],[50.03953,26.19653],[50.03957,26.19639],[50.04002,26.19622],[50.0401,26.19604],[50.04087,26.19581],[50.04196,26.19561],[50.04247,26.19527],[50.04479,26.19454],[50.0461,26.19399],[50.04688,26.19355],[50.04734,26.19341],[50.04765,26.193],[50.04836,26.19265],[50.04929,26.19205],[50.05036,26.191],[50.05126,26.19056],[50.0519,26.19015],[50.05234,26.18937],[50.05273,26.18903],[50.05298,26.1887],[50.05301,26.18837],[50.05369,26.18799],[50.05429,26.18747],[50.05497,26.18627],[50.05546,26.18607],[50.05677,26.18594],[50.05818,26.18565],[50.05851,26.18542],[50.05929,26.18446],[50.05951,26.18436],[50.05976,26.18391],[50.05987,26.18387],[50.06082,26.18267],[50.06113,26.18247],[50.06133,26.18219],[50.06191,26.17971],[50.06227,26.17921],[50.06246,26.17823],[50.06289,26.17756],[50.06326,26.17667],[50.06332,26.17626],[50.06311,26.17551],[50.06262,26.1745],[50.06209,26.17432],[50.06199,26.17418],[50.06201,26.17399],[50.06217,26.1738],[50.06247,26.17379],[50.06266,26.17394],[50.06267,26.17426],[50.06294,26.17432],[50.06301,26.1743],[50.06313,26.17401],[50.06326,26.17395],[50.06361,26.17402],[50.06388,26.17389],[50.06413,26.17403],[50.06507,26.17417],[50.06521,26.17401],[50.06523,26.1737],[50.06484,26.17351],[50.06445,26.17347],[50.06421,26.17313],[50.06364,26.173],[50.06349,26.17304],[50.06339,26.17289],[50.06361,26.17216],[50.06386,26.17219],[50.06408,26.17203],[50.06468,26.17219],[50.06506,26.17179],[50.06529,26.17139],[50.06554,26.17014],[50.06546,26.16863],[50.0649,26.16743],[50.06599,26.16755],[50.06633,26.16733],[50.06659,26.16665],[50.06693,26.16658],[50.0669,26.16604],[50.06652,26.16594],[50.06656,26.16582],[50.06649,26.1658],[50.06664,26.16573],[50.06679,26.16526],[50.06692,26.16514],[50.06688,26.16477],[50.06712,26.16464],[50.06731,26.16385],[50.06755,26.16355],[50.06773,26.16301],[50.06803,26.16258],[50.06817,26.16206],[50.06858,26.16164],[50.06884,26.16086],[50.0691,26.16049],[50.0692,26.15914],[50.06934,26.15893],[50.06938,26.15804],[50.06952,26.15733],[50.06977,26.15692],[50.06981,26.15633],[50.06998,26.15618],[50.07008,26.1558],[50.07063,26.15498],[50.07135,26.15348],[50.07138,26.15298],[50.07157,26.15251],[50.0716,26.15198],[50.0718,26.15152],[50.07255,26.15105],[50.07273,26.15065],[50.07309,26.15024],[50.07346,26.1494],[50.0736,26.14881],[50.07358,26.14787],[50.07373,26.14752],[50.07385,26.14686],[50.07403,26.14655],[50.07434,26.14447],[50.07494,26.14396],[50.07552,26.1422],[50.07586,26.14155],[50.07587,26.14087],[50.07637,26.13958],[50.07599,26.13957],[50.07605,26.13449],[50.07678,26.13434],[50.07707,26.13393],[50.07723,26.13358],[50.07726,26.13328],[50.07741,26.13312],[50.07708,26.1314],[50.0771,26.13089],[50.0776,26.12961],[50.0777,26.12894],[50.07766,26.12802],[50.07773,26.12728],[50.07823,26.12713],[50.07851,26.1269],[50.0788,26.12632],[50.07941,26.12554],[50.07955,26.12506],[50.07954,26.12462],[50.08058,26.12471],[50.0819,26.12498],[50.08344,26.12498],[50.08484,26.12481],[50.08568,26.12458],[50.0859,26.12445],[50.08585,26.12423],[50.0863,26.1242],[50.08864,26.12318],[50.08949,26.12321],[50.09085,26.12346],[50.0926,26.12329],[50.09318,26.12299],[50.09361,26.12251],[50.09445,26.12111],[50.09478,26.12033],[50.09505,26.11941],[50.09488,26.11933],[50.09498,26.11923],[50.09526,26.11935],[50.09548,26.11911],[50.09802,26.12175],[50.09709,26.12295],[50.09683,26.12377],[50.0967,26.12488],[50.0965,26.12898],[50.09593,26.13046],[50.09632,26.13122],[50.09739,26.13291],[50.09403,26.13783],[50.09305,26.13861],[50.09188,26.13931],[50.09073,26.13978],[50.08955,26.14005],[50.08803,26.14018],[50.08192,26.14003],[50.08076,26.1402],[50.07976,26.14054],[50.07859,26.1412],[50.07787,26.14179],[50.07722,26.14256],[50.07689,26.14317],[50.07617,26.14508],[50.07535,26.14757],[50.07239,26.15398],[50.07186,26.15526],[50.0714,26.15678],[50.07096,26.15926],[50.07087,26.16103],[50.0716,26.16835],[50.07139,26.1697],[50.0711,26.17061],[50.0705,26.17181],[50.06988,26.1727],[50.06595,26.17672],[50.06449,26.17843],[50.06411,26.17902],[50.06358,26.17999],[50.06314,26.18106],[50.06179,26.18557],[50.06132,26.18635],[50.06026,26.18761],[50.05883,26.18874],[50.05162,26.19264],[50.0446,26.19671],[50.04334,26.19781],[50.04158,26.2001],[50.0408,26.20092],[50.03971,26.20165],[50.03837,26.2022]]]]},"properties":{"district_id":"khobar-half-moon-beach","name_ar":"شاطئ نصف القمر","name_en":"Half Moon Beach","city":"khobar","source_codes":["70030076562863295","70030076562863296"]}},{"type":"Feature","id":"khobar-ibn-sina","geometry":{"type":"Polygon","coordinates":[[[50.21141,26.25076],[50.19782,26.24948],[50.19726,26.24934],[50.19752,26.24744],[50.19752,26.24631],[50.1974,26.2452],[50.19689,26.24324],[50.19538,26.23947],[50.1949,26.23798],[50.19455,26.23592],[50.19456,26.23395],[50.21388,26.2356],[50.21416,26.2377],[50.21293,26.23761],[50.21141,26.25076]]]},"properties":{"district_id":"khobar-ibn-sina","name_ar":"ابن سيناء","name_en":"Ibn Sina","city":"khobar","source_codes":["70030076562984825"]}},{"type":"Feature","id":"khobar-king-fahd-university-of-petroleum","geometry":{"type":"Polygon","coordinates":[[[50.15541,26.31391],[50.14991,26.32127],[50.14555,26.31875],[50.14391,26.31796],[50.14293,26.31761],[50.13842,26.3164],[50.13571,26.3153],[50.13467,26.31335],[50.13495,26.31324],[50.13523,26.31323],[50.13611,26.31373],[50.13655,26.31376],[50.13842,26.31283],[50.13895,26.31239],[50.13908,26.31222],[50.1392,26.31163],[50.13917,26.31118],[50.13896,26.3103],[50.13897,26.30953],[50.13907,26.30917],[50.13991,26.30789],[50.14151,26.30644],[50.14239,26.30578],[50.14257,26.30548],[50.14288,26.30438],[50.14307,26.30413],[50.1435,26.304],[50.14691,26.30399],[50.14687,26.3031],[50.14662,26.30242],[50.14662,26.30167],[50.14717,26.30026],[50.14758,26.29991],[50.14941,26.29899],[50.15019,26.2982],[50.15064,26.2979],[50.15151,26.29751],[50.15202,26.29706],[50.153,26.29529],[50.15467,26.29341],[50.15489,26.29302],[50.15519,26.29208],[50.15508,26.29149],[50.15527,26.29145],[50.15557,26.29155],[50.15601,26.29185],[50.15691,26.29271],[50.15706,26.2926],[50.15797,26.29359],[50.15852,26.29404],[50.15924,26.29428],[50.15955,26.29423],[50.15978,26.2941],[50.16168,26.2958],[50.16525,26.29808],[50.16349,26.29995],[50.1624,26.30137],[50.16159,26.30259],[50.16053,26.3044],[50.15892,26.30818],[50.15773,26.31067],[50.15541,26.31391]]]},"properties":{"district_id":"khobar-king-fahd-university-of-petroleum","name_ar":"جامعة الملك فهد للبترول","name_en":"King Fahd University of Petroleum","city":"khobar","source_codes":["70030076562945034"]}},{"type":"Feature","id":"khobar-madinat-al-ummal","geometry":{"type":"Polygon","coordinates":[[[50.20971,26.30255],[50.20174,26.30387],[50.19763,26.28384],[50.20541,26.28153],[50.20971,26.30255]]]},"properties":{"district_id":"khobar-madinat-al-ummal","name_ar":"مدينة العمال","name_en":"Madinat Al Ummal","city":"khobar","source_codes":["70030076562985677"]}},{"type":"Feature","id":"khobar-nothern-khobar","geometry":{"type":"Polygon","coordinates":[[[50.20974,26.30255],[50.20541,26.28153],[50.20811,26.28073],[50.21783,26.27912],[50.22218,26.30048],[50.20974,26.30255]]]},"properties":{"district_id":"khobar-nothern-khobar","name_ar":"الخبرالشمالية","name_en":"Nothern Khobar","city":"khobar","source_codes":["70030076562986769"]}},{"type":"Feature","id":"khobar-qurtubah","geometry":{"type":"Polygon","coordinates":[[[50.1792,26.33257],[50.19992,26.3366],[50.19086,26.35372],[50.17879,26.34854],[50.1792,26.33257]]]},"properties":{"district_id":"khobar-qurtubah","name_ar":"قرطبة","name_en":"Qurtubah","city":"khobar","source_codes":["70030076562984829"]}},{"type":"Feature","id":"khobar-sinaiyah-al-fawaziyah","geometry":{"type":"Polygon","coordinates":[[[50.21542,26.25113],[50.21141,26.25076],[50.21293,26.23761],[50.21416,26.2377],[50.21434,26.23813],[50.21482,26.23859],[50.2145,26.24062],[50.21553,26.24869],[50.21555,26.24976],[50.21542,26.25113]]]},"properties":{"district_id":"khobar-sinaiyah-al-fawaziyah","name_ar":"صناعية الفوازية","name_en":"Sinaiyah Al Fawaziyah","city":"khobar","source_codes":["70030076562984838"]}},{"type":"Feature","id":"khobar-thoqba-industrial","geometry":{"type":"Polygon","coordinates":[[[50.2048,26.26335],[50.19129,26.25864],[50.19205,26.25753],[50.19478,26.25413],[50.19589,26.25261],[50.19676,26.25087],[50.19726,26.24934],[50.19782,26.24948],[50.20307,26.24997],[50.20391,26.25586],[50.20403,26.25605],[50.20422,26.25616],[50.20496,26.25625],[50.20443,26.26037],[50.2048,26.26335]]]},"properties":{"district_id":"khobar-thoqba-industrial","name_ar":"صناعية الثقبة","name_en":"Thoqba Industrial","city":"khobar","source_codes":["70030076562984836"]}},{"type":"Feature","id":"khobar-western-al-aziziyah","geometry":{"type":"MultiPolygon","coordinates":[[[[50.06627,26.21791],[50.0656,26.21816],[50.06353,26.21831],[50.05291,26.2178],[50.05201,26.21767],[50.0517,26.21718],[50.05214,26.20265],[50.04565,26.20265],[50.04473,26.20393],[50.04134,26.20195],[50.04441,26.19795],[50.04564,26.1979],[50.04595,26.1978],[50.04594,26.19774],[50.04681,26.19728],[50.04701,26.19706],[50.04753,26.19579],[50.0495,26.1946],[50.05788,26.18993],[50.0585,26.18979],[50.06152,26.18734],[50.06257,26.18504],[50.06343,26.18203],[50.06388,26.18079],[50.06438,26.17977],[50.06546,26.17818],[50.06625,26.17732],[50.07035,26.1734],[50.07094,26.17266],[50.07159,26.17159],[50.07196,26.17074],[50.07226,26.1697],[50.07241,26.1688],[50.07245,26.16789],[50.07189,26.1619],[50.07188,26.16005],[50.07206,26.15828],[50.07237,26.15682],[50.07315,26.15456],[50.07485,26.15112],[50.07672,26.14702],[50.0777,26.14386],[50.07806,26.14322],[50.07864,26.1425],[50.07965,26.14172],[50.08036,26.14138],[50.08111,26.14113],[50.08181,26.14101],[50.08836,26.14111],[50.0904,26.14096],[50.0916,26.14068],[50.09847,26.13769],[50.09905,26.13754],[50.09975,26.13763],[50.10056,26.13848],[50.10112,26.13947],[50.11885,26.1713],[50.11953,26.1726],[50.12022,26.17422],[50.1211,26.17705],[50.12147,26.17861],[50.12174,26.18021],[50.122,26.18417],[50.12099,26.21446],[50.08794,26.21749],[50.08555,26.21754],[50.07204,26.21678],[50.06627,26.21791]]],[[[50.12779,26.21077],[50.12708,26.21194],[50.12622,26.21283],[50.12553,26.21341],[50.12457,26.21394],[50.12378,26.2142],[50.12099,26.21446],[50.122,26.18384],[50.12183,26.18101],[50.12155,26.179],[50.1211,26.17705],[50.12022,26.17422],[50.1352,26.19509],[50.13545,26.19565],[50.13444,26.19602],[50.13426,26.19667],[50.12779,26.21077]]]]},"properties":{"district_id":"khobar-western-al-aziziyah","name_ar":"غرب العزيزية","name_en":"Western Al Aziziyah","city":"khobar","source_codes":["70030076562852849","70030076562984840"]}}]}